{"type":"FeatureCollection","name":"roads_minor_generated","crs":{"type":"name","properties":{"name":"urn:ogc:def:crs:OGC:1.3:CRS84"}},"xy_coordinate_resolution":1e-15,"features":[{"type":"Feature","properties":{"id":null,"group":"gravel","name":"Mitre-Salt Connector"},"geometry":{"type":"MultiPolygon","coordinates":[[[[-74.79087493399204,-17.57405369209458],[-74.79087505465941,-17.574053894297123],[-74.79384195295533,-17.578929060836508],[-74.79384207820341,-17.57892926267291],[-74.79689310940343,-17.583752222645668],[-74.79689323929706,-17.58375242408174],[-74.80002748500526,-17.588521725720497],[-74.80002761961062,-17.588521926719032],[-74.80324413638255,-17.59323613440818],[-74.80324427576696,-17.59323633492878],[-74.80654209539365,-17.59789402963663],[-74.80654223962551,-17.59789422963558],[-74.80992036942482,-17.602494009341555],[-74.80992051857336,-17.602494208771706],[-74.8133779416889,-17.607034688888263],[-74.81337809582412,-17.607034887698916],[-74.81691377153118,-17.611514701488403],[-74.81691393072353,-17.611514899625153],[-74.82052679474243,-17.6159326986112],[-74.82052695906269,-17.615932896015742],[-74.82421592387938,-17.620287350389148],[-74.82421609339839,-17.620287546999236],[-74.82798004859117,-17.624577346018285],[-74.82798022337957,-17.624577541767547],[-74.8318180359542,-17.62880139415249],[-74.83181821608227,-17.628801588970333],[-74.83572873081219,-17.63295822329222],[-74.83572891634942,-17.632958417103687],[-74.83971095612407,-17.637046582166917],[-74.83971114713898,-17.637046774892625],[-74.84376351331774,-17.641065240111672],[-74.84376370987749,-17.641065431667574],[-74.84788518265091,-17.64501298743739],[-74.84788538482097,-17.64501317773485],[-74.85207472357742,-17.648888635794957],[-74.85207493142128,-17.64888882474053],[-74.8563308751208,-17.652691018532717],[-74.85633108869949,-17.65269120602814],[-74.86065235625324,-17.656418991047605],[-74.86065257562498,-17.656419176989726],[-74.86503786628082,-17.660071431129527],[-74.86503809150061,-17.66007161541025],[-74.86948608523468,-17.663647239299216],[-74.86948631635381,-17.663647421805475],[-74.87399567426787,-17.667145339139005],[-74.8739959113335,-17.667145519752733],[-74.87856527605788,-17.67056467761681],[-74.87856551911257,-17.670564856214995],[-74.88319351521505,-17.673904225403096],[-74.88319376429622,-17.6739044018578],[-74.88787899869561,-17.677162977180828],[-74.88787925383505,-17.677163151359213],[-74.89262031622084,-17.680339951947932],[-74.8926205774442,-17.680340123712384],[-74.897416040701,-17.683434193312706],[-74.89741630802725,-17.683434362520952],[-74.9022647286643,-17.686444769781783],[-74.90226500210521,-17.68644493628704],[-74.90716492069096,-17.689370775040686],[-74.90716520025042,-17.689370938691795],[-74.91211514185186,-17.692211328226687],[-74.91211542752546,-17.6922114888684],[-74.917113902152,-17.694965574194146],[-74.91711419392645,-17.69496573166735],[-74.92215969697844,-17.697632683772195],[-74.92215999483109,-17.69763283791415],[-74.92725100755285,-17.700211854014494],[-74.92725131145095,-17.70021200465924],[-74.93238630138778,-17.702702308441182],[-74.93238661128812,-17.70270245541989],[-74.93756403274767,-17.705103297273087],[-74.93756434859604,-17.70510344041444],[-74.9427826431135,-17.70741409765762],[-74.9427829648442,-17.707414236788296],[-74.94804056165158,-17.7096340138868],[-74.94804088918694,-17.709634148831935],[-74.9533362056857,-17.71176237760714],[-74.9533365389357,-17.711762508190883],[-74.9586679811733,-17.713798548021316],[-74.95866832003519,-17.71379867406738],[-74.96403428318476,-17.715741912081523],[-74.96403462754267,-17.7157420334138],[-74.96943349638609,-17.717591884674594],[-74.96943384611092,-17.717592001117833],[-74.97486399552518,-17.71934790879873],[-74.97486435047416,-17.719348020179133],[-74.98032414592032,-17.72100945573176],[-74.98032450593705,-17.72100956187772],[-74.98581230395237,-17.72257602519091],[-74.9858126688666,-17.722576125933795],[-74.99132681755935,-17.724047145484185],[-74.99132718718711,-17.72404724065898],[-74.99686602673354,-17.725422373652908],[-74.99686640087712,-17.725422463099054],[-75.0024282640213,-17.72670129560584],[-75.00242864246941,-17.726701379167963],[-75.00801185502509,-17.727883526244586],[-75.00801223755316,-17.727883603773275],[-75.01361511890764,-17.728968709580116],[-75.0136155052781,-17.728968780932714],[-75.01923636889815,-17.729956518840766],[-75.01923675886087,-17.7299565838821],[-75.02487391280033,-17.730846656571252],[-75.02487430609321,-17.730846715174394],[-75.0305260535025,-17.73163885472292],[-75.03052644985193,-17.731638906769906],[-75.03619108948854,-17.732332874735146],[-75.03619148861026,-17.73233292011761],[-75.04186731535098,-17.732928507607742],[-75.04186771695069,-17.73292854622763],[-75.04755302230501,-17.733425573964418],[-75.04755342607933,-17.733425605734578],[-75.05324649870346,-17.73382392410758],[-75.0532469043409,-17.733823948952217],[-75.05894603055309,-17.73412343806359],[-75.05894643773492,-17.734123455918876],[-75.06464990203125,-17.7343240256196],[-75.06465031043274,-17.734324036433993],[-75.07035639600345,-17.73442562635096],[-75.07035680529484,-17.734425630085656],[-75.0760637945412,-17.7344282096398],[-75.07606572035918,-17.734428132034843],[-75.0884862691109,-17.733419682654684],[-75.10092218563408,-17.73262604483026],[-75.11336996014592,-17.73204743899427],[-75.125825874974,-17.73168403795033],[-75.13828621001548,-17.731535950235976],[-75.15074724384677,-17.731603220090285],[-75.16320525483336,-17.731885827440557],[-75.17565652224152,-17.732383687908282],[-75.1880973273473,-17.733096652833943],[-75.20052395454724,-17.734024509321298],[-75.21293269246586,-17.73516698030052],[-75.22531983506494,-17.736523724610585],[-75.23768168274819,-17.738094337100687],[-75.25001454346581,-17.739878348750683],[-75.26231473381699,-17.74187522681062],[-75.27457858014803,-17.744084374959193],[-75.28680241965141,-17.746505133481516],[-75.29898260145687,-17.749136779464983],[-75.31111548772189,-17.75197852701469],[-75.32319745472019,-17.75502952748786],[-75.33522489392006,-17.75828886974579],[-75.34719421306602,-17.761755580426364],[-75.35910183724761,-17.765428624232694],[-75.37094420997038,-17.769306904242903],[-75.38271779421724,-17.773389262236535],[-75.39441907350377,-17.777674479039582],[-75.4060445529304,-17.782161274888463],[-75.41759076022608,-17.786848309811603],[-75.4290542467847,-17.791734184028595],[-75.44043158869724,-17.79681743836845],[-75.45171938777293,-17.802096554704313],[-75.46291427255579,-17.8075699564067],[-75.47401289933251,-17.813236008814258],[-75.48501195313031,-17.81909301972105],[-75.49590814870774,-17.825139239881686],[-75.50669823153878,-17.83137286353459],[-75.5173789787819,-17.83779202893935],[-75.52794720024504,-17.844394818933413],[-75.53839973933958,-17.85117926150495],[-75.54873347402275,-17.858143330381093],[-75.55894531773097,-17.865284945633224],[-75.56903222030124,-17.872601974297393],[-75.5789911688844,-17.88009223101249],[-75.58881918884572,-17.887753478673172],[-75.5985133446503,-17.89558342909529],[-75.60807074074522,-17.903579743703226],[-75.61748852242168,-17.911740034225566],[-75.62676387666768,-17.920061863408716],[-75.6358940330123,-17.928542745747297],[-75.64487626434901,-17.9371801482234],[-75.65370788775382,-17.94597149106555],[-75.66238626528467,-17.95491414851747],[-75.67090880477227,-17.964005449624903],[-75.67927296059165,-17.973242679030555],[-75.68747623442601,-17.98262307778848],[-75.69551617600966,-17.992143844184668],[-75.70339038386317,-18.001802134577233],[-75.71109650600887,-18.011595064243526],[-75.71863224067509,-18.0215197082439],[-75.72599533698272,-18.03157310229404],[-75.73318359561779,-18.041752243650503],[-75.7401948694884,-18.05205409200778],[-75.74702706436817,-18.062475570408793],[-75.75367813951823,-18.073013566159613],[-75.76014610830069,-18.08366493176415],[-75.76642903876834,-18.094426485859284],[-75.77252505424622,-18.105295014171727],[-75.77843233388745,-18.116267270470626],[-75.7841491132207,-18.127339977543258],[-75.78967368467609,-18.138509828171582],[-75.79500439809479,-18.14977348612007],[-75.80013966122259,-18.16112758713262],[-75.80507794018563,-18.17256873993819],[-75.80981775994779,-18.18409352726247],[-75.81435770475191,-18.19569850684916],[-75.81869641854271,-18.207380212488953],[-75.82283260537164,-18.21913515505433],[-75.826765029784,-18.230959823541795],[-75.83049251718812,-18.242850686120928],[-75.83401395420556,-18.254804191187542],[-75.83732828900479,-18.26681676842853],[-75.84043453161455,-18.27888482988458],[-75.84333175421949,-18.291004771023008],[-75.84601909143805,-18.303172971815954],[-75.84849574057999,-18.31538579781928],[-75.85076096188665,-18.32763960125931],[-75.85281407875222,-18.33993072212387],[-75.85465447792498,-18.352255489252208],[-75.85628160969117,-18.36461022143436],[-75.85769498803916,-18.376991228511102],[-75.85889419080408,-18.389394812472784],[-75.85987885979436,-18.40181726856696],[-75.86064870089874,-18.41425488640416],[-75.86120341835847,-18.426702477395565],[-75.85648307666952,-18.447821869217943],[-75.85648303334524,-18.447822071186344],[-75.85212602756759,-18.469021033353787],[-75.85212598792123,-18.469021235017756],[-75.84813395378302,-18.49029194633968],[-75.84813391777875,-18.49029214770262],[-75.84450803446832,-18.51162832513078],[-75.84450800207281,-18.51162852619706],[-75.84124934062288,-18.53302386734548],[-75.8412493118053,-18.53302406812044],[-75.83835883477698,-18.554472253127052],[-75.83835880950896,-18.55447245361678],[-75.83583737070717,-18.575967147010157],[-75.83583734896278,-18.57596734722152],[-75.83368569318395,-18.597502199792423],[-75.83368567493982,-18.59750239973293],[-75.83190443775223,-18.6190710504096],[-75.83190442298753,-18.619071250087362],[-75.83049413054312,-18.640667327814654],[-75.83049411923948,-18.640667527238303],[-75.82945518811893,-18.66228465285941],[-75.82945518026055,-18.662284852037963],[-75.8287879173499,-18.683916640178943],[-75.8287879129235,-18.683916839121828],[-75.82849251532336,-18.705556900077518],[-75.82849251431814,-18.70555709879451],[-75.82856906928608,-18.727199040416174],[-75.82856907169383,-18.72719923891715],[-75.82901755661788,-18.74883666850042],[-75.82901756243287,-18.74883686679557],[-75.8298378448387,-18.770463392968885],[-75.82983785405777,-18.770463591068374],[-75.83102969164764,-18.792072825680876],[-75.83102970427015,-18.79207302359498],[-75.83259274499444,-18.813658583603427],[-75.83259276102231,-18.813658781342365],[-75.83452654318367,-18.83521429069661],[-75.83452656262138,-18.835214488270456],[-75.8368305150108,-18.856733579796867],[-75.83683053786538,-18.856733777215545],[-75.83950397993132,-18.878210094497796],[-75.8395040062123,-18.87821029177097],[-75.84254614826145,-18.899637491027484],[-75.84254617798095,-18.899637688164557],[-75.8459561214115,-18.921009440122532],[-75.84595615458429,-18.921009637132453],[-75.84973289215142,-18.942319628897362],[-75.84973292879468,-18.94231982578864],[-75.85387534490819,-18.963561762708927],[-75.85387538504172,-18.963561959489567],[-75.85838225609537,-18.984729567016117],[-75.85838229974155,-18.984729763693505],[-75.86325229447455,-19.005816789232867],[-75.86325234165838,-19.00581698581369],[-75.86848402154865,-19.02681720057517],[-75.86848407229763,-19.02681739706536],[-75.87407589198678,-19.04772459790086],[-75.87407594633092,-19.04772479430553],[-75.88002625408055,-19.06853280554176],[-75.88002631205254,-19.068533001865042],[-75.88633335023238,-19.089235677127924],[-75.88633341186744,-19.089235873372992],[-75.8929953174743,-19.109827097403002],[-75.8929953828101,-19.109827293571875],[-75.90001018801829,-19.130300984030516],[-75.90001025709513,-19.13030118012408],[-75.90737588983764,-19.150651289390485],[-75.90737596269841,-19.15065148540826],[-75.91509024727908,-19.17087200236563],[-75.91509032396901,-19.17087219830578],[-75.9231509817052,-19.190957150116805],[-75.92315106227214,-19.19095734597603],[-75.93155571216764,-19.210900799847387],[-75.9315557966619,-19.210900995620726],[-75.94030195611039,-19.230697060555382],[-75.94030204458464,-19.230697256236223],[-75.94938713010309,-19.25034008477363],[-75.94938722261249,-19.25034028035349],[-75.958808550604,-19.26982407029681],[-75.95880864720607,-19.269824265765298],[-75.96856343475287,-19.289143261895287],[-75.96856353550744,-19.289143457239927],[-75.97864890119271,-19.308291953014933],[-75.97864900616194,-19.308292148221085],[-75.98906197092101,-19.32726448746267],[-75.98906208016916,-19.327264682513366],[-75.99979956816944,-19.34605526107713],[-75.99983433434599,-19.346042703226],[-75.98909690210641,-19.32725222729994],[-75.97868404449419,-19.3082800886937],[-75.96859878151332,-19.28913179375823],[-75.95884409229174,-19.269812998650178],[-75.94942285830855,-19.250329409894153],[-75.94033786254053,-19.230686782692086],[-75.9315917886418,-19.210890919226056],[-75.92318722015042,-19.190947666944176],[-75.91512663972586,-19.170862916833357],[-75.9074124284142,-19.15064260167665],[-75.90004686494684,-19.130292694304853],[-75.89303212506515,-19.109819205827577],[-75.88637028087992,-19.089228183861906],[-75.88006330025759,-19.068525710741827],[-75.8741130462401,-19.04771790172508],[-75.86852127649398,-19.026810903184927],[-75.86328964279113,-19.00581089079319],[-75.85841969052159,-18.98472406769979],[-75.85391285823611,-18.963556662695957],[-75.84977047722222,-18.94231492837872],[-75.84599377110973,-18.92100513929825],[-75.84258385551075,-18.899633590110675],[-75.83954173768932,-18.87820659371548],[-75.8368683162637,-18.856730479388673],[-75.8345643809415,-18.8352115909168],[-75.83263061228617,-18.81365628472203],[-75.831067581516,-18.7920709279839],[-75.82987575033525,-18.77046189675745],[-75.829055470798,-18.748835574091643],[-75.82860698520415,-18.72719834814389],[-75.8285304260275,-18.705556610291314],[-75.82882581587725,-18.68391675324465],[-75.82949306749057,-18.662285169157517],[-75.83053198375912,-18.640668247740884],[-75.83194225778666,-18.6190723743744],[-75.83372347298007,-18.597503928219055],[-75.83587510317226,-18.57596928033494],[-75.83839651277759,-18.554474791797777],[-75.8412869569799,-18.533026811819855],[-75.84454558195182,-18.511631675876018],[-75.84817142510771,-18.490295703830295],[-75.85216341538765,-18.469025198070057],[-75.85652037357386,-18.44782644164404],[-75.86124103528329,-18.42670559515374],[-75.86124131360555,-18.42670245927741],[-75.86068651856932,-18.41425319191252],[-75.86068650761946,-18.41425298619481],[-75.85991665127843,-18.40181516577795],[-75.85991663676523,-18.40181496014206],[-75.8589319490597,-18.389392301582372],[-75.85893193097674,-18.38939209602205],[-75.85773270601246,-18.376988309700167],[-75.85773268435081,-18.376988104209474],[-75.8563192803112,-18.364606894869237],[-75.85631925505955,-18.364606689442624],[-75.85469209409867,-18.352251755084648],[-75.85469206524323,-18.352251549717092],[-75.85285163335969,-18.33992658049423],[-75.8528516008843,-18.339926375181236],[-75.85079844777624,-18.327635052296344],[-75.85079841166223,-18.327634847034048],[-75.84853315056293,-18.31538084164055],[-75.84853311078925,-18.315380636425832],[-75.84605641828404,-18.303167608531226],[-75.84605637482726,-18.30316740336169],[-75.84336899065156,-18.29099900073434],[-75.84336894348584,-18.29099879560849],[-75.84047167030411,-18.278878652688153],[-75.8404716194012,-18.278878447605454],[-75.83736532256714,-18.266810184417732],[-75.83736526789643,-18.26680997937867],[-75.83405087519473,-18.25479720045381],[-75.83405081672335,-18.25479699545995],[-75.8305293180922,-18.24284328875622],[-75.83052925578494,-18.242843083810357],[-75.82680170302079,-18.23095201964246],[-75.82680163684007,-18.230951814748664],[-75.82286914328331,-18.21912694472124],[-75.82286907318927,-18.219126739884977],[-75.81873281339152,-18.207371595831916],[-75.81873273934215,-18.207371391060114],[-75.81439394871569,-18.195689483989696],[-75.81439387066673,-18.19568927929084],[-75.80985384511538,-18.184084098337014],[-75.80985376302039,-18.184083893721272],[-75.80511385855267,-18.172558905101475],[-75.80511377236296,-18.172558700580808],[-75.80017540468661,-18.161117346560836],[-75.8001753143516,-18.161117142149063],[-75.79503995845127,-18.14976284001473],[-75.79503986391829,-18.149762635727672],[-75.78970905361456,-18.138498776764415],[-75.78970895482887,-18.13849857261995],[-75.78418428232041,-18.12732852109965],[-75.78418417922542,-18.12732831711795],[-75.77846729461344,-18.116255409294254],[-75.77846718715071,-18.116255205497733],[-75.77255979794583,-18.10528274860957],[-75.77255968605522,-18.10528254502314],[-75.76646355666776,-18.094413816306897],[-75.76646344028731,-18.094413612958064],[-75.76018039150023,-18.083651858668702],[-75.76018027056652,-18.083651655587637],[-75.75371217899145,-18.07300009002921],[-75.7537120534396,-18.07299988724892],[-75.74706085095647,-18.062461691814473],[-75.74706072072021,-18.06246148937091],[-75.74022839390027,-18.052039811592227],[-75.74022825891213,-18.052039609524453],[-75.73321684842445,-18.041737562132063],[-75.73321670861584,-18.041737360482326],[-75.726028308618,-18.031558020475696],[-75.7260281639194,-18.031557819289656],[-75.71866492143184,-18.02150422701818],[-75.71866477177302,-18.021504026344918],[-75.71112888603787,-18.01157918459988],[-75.71112873134801,-18.01157898449214],[-75.70342245317212,-18.001785857609836],[-75.70342229338003,-18.00178565812408],[-75.69554792446289,-17.992127171100385],[-75.69554775949717,-17.992126972297033],[-75.68750765174316,-17.982606009913734],[-75.68750748153256,-17.982605811857123],[-75.67930403634882,-17.973225217820513],[-75.6793038608223,-17.973225020579182],[-75.6709395284012,-17.963987596670417],[-75.67093934748844,-17.963987400317148],[-75.66241662607588,-17.954895905555656],[-75.66241643970729,-17.954895710167605],[-75.65373787485655,-17.945952859986857],[-75.65373768296377,-17.94595266564566],[-75.64490586677516,-17.937161131082235],[-75.64490566929129,-17.937160937874157],[-75.63592323963795,-17.928523344769882],[-75.63592303649806,-17.928523152785832],[-75.62679267623808,-17.92004208100364],[-75.62679246737927,-17.920041890339288],[-75.61751690355439,-17.911719872992464],[-75.61751668891645,-17.911719683748306],[-75.60809869193756,-17.903559206444108],[-75.60809847146322,-17.90355901872554],[-75.59854085428286,-17.89556251882269],[-75.59854062791833,-17.895562332740006],[-75.58884624519055,-17.88773219862067],[-75.58884601288578,-17.88773201428914],[-75.57901776011364,-17.88007058464569],[-75.57901752182298,-17.880070402185517],[-75.56905833449338,-17.872579965321957],[-75.56905809017594,-17.872579784858285],[-75.55897094288324,-17.865262578006696],[-75.55897069250345,-17.865262399669515],[-75.54875859806076,-17.858120608322036],[-75.54875834158887,-17.858120432246203],[-75.53842435012834,-17.851156189502095],[-75.53842408754079,-17.851156015827172],[-75.52797128560249,-17.84437140175582],[-75.52797101688272,-17.844371230625924],[-75.51740252649287,-17.837768271645484],[-75.51740225163158,-17.837768103209225],[-75.50672122937002,-17.831348771481466],[-75.50672094836591,-17.831348605891655],[-75.49593058442316,-17.82511481873289],[-75.4959302972834,-17.825114656146393],[-75.48503381450814,-17.819068275454715],[-75.4850335212489,-17.81906811603214],[-75.47403417418501,-17.813210947731545],[-75.47403387483206,-17.813210791636955],[-75.4629349487468,-17.807544585137688],[-75.46293464333593,-17.807544432538293],[-75.45173945323869,-17.80207088021451],[-75.4517391418163,-17.80207073128027],[-75.44045103146833,-17.796791467964532],[-75.44045071409191,-17.796791322867705],[-75.4290730550077,-17.79170792536265],[-75.42907273174627,-17.791707784277424],[-75.41760892218672,-17.786821770884846],[-75.41760859312132,-17.786821633986712],[-75.4060620570784,-17.782134464054096],[-75.40606172230243,-17.782134331519444],[-75.39443590847674,-17.777647405004046],[-75.39443556809623,-17.77764727700952],[-75.38273394886708,-17.773361934060254],[-75.38273360300118,-17.77336181078215],[-75.37095967338915,-17.76927933133931],[-75.37095932217032,-17.769279212952956],[-75.35911659879355,-17.765400816365908],[-75.35911624236768,-17.765400703044996],[-75.34720826239152,-17.761727547708052],[-75.34720790091811,-17.761727439623904],[-75.3352382209986,-17.75826062263026],[-75.33523785465077,-17.758260519951108],[-75.32321004987253,-17.755001076765243],[-75.32320967883705,-17.75500097965555],[-75.3111273416452,-17.751949883803803],[-75.31112696612242,-17.75194979242347],[-75.29899370524974,-17.749107955203492],[-75.29899332545332,-17.749107869707057],[-75.2868127648425,-17.746476139915423],[-75.28681238099914,-17.746476060451382],[-75.2745881587203,-17.74405522413022],[-75.27458777106953,-17.744055150840204],[-75.2623235382334,-17.741845931042356],[-75.262323147027,-17.741845864060426],[-75.25002256669484,-17.739848920633428],[-75.25002217219628,-17.739848860085367],[-75.23768891828553,-17.738064789474446],[-75.23768852076948,-17.738064735477007],[-75.22532627695647,-17.736494070546968],[-75.22532587670794,-17.736494023207232],[-75.21293833532775,-17.7351372330832],[-75.21293793264155,-17.735137192497948],[-75.20052879358498,-17.73399468242532],[-75.20052838876457,-17.733994648680476],[-75.18810135837349,-17.733066759903828],[-75.1881009517302,-17.73306673307392],[-75.17565974168997,-17.73235374273515],[-75.175659333542,-17.732353722882838],[-75.16320765977345,-17.73185584393828],[-75.16320725044469,-17.73185583111396],[-75.15074883199385,-17.731573212270952],[-75.15074842181295,-17.73157320651242],[-75.13828697974037,-17.731505932184636],[-75.13828656903944,-17.73150593351683],[-75.125825825309,-17.731654023799322],[-75.12582541442244,-17.731654032234164],[-75.1133690907894,-17.732017442897163],[-75.1133686800528,-17.7320174584334],[-75.10092049695217,-17.732596080935643],[-75.10092008670094,-17.732596103558908],[-75.08848376213659,-17.733389765080013],[-75.0884833527049,-17.73338979476278],[-75.07606356248483,-17.734398180229775],[-75.07035774344052,-17.734395600151103],[-75.06465206782384,-17.734294016500915],[-75.05894901246637,-17.734093460158743],[-75.05325029384879,-17.733793991454117],[-75.0475576271513,-17.73339570047997],[-75.0418727257385,-17.732898707065836],[-75.03619730064416,-17.732303160742106],[-75.03053306005818,-17.731609240695754],[-75.02488170881199,-17.730817155716668],[-75.01924494786694,-17.72992714413555],[-75.0136244738025,-17.728939473752806],[-75.00802197830636,-17.727854441758527],[-75.00243914766531,-17.726672374643712],[-74.99687766225942,-17.725393628102964],[-74.99133919605399,-17.724018586927578],[-74.98582541609822,-17.722547664890993],[-74.98033798202312,-17.72098130462483],[-74.97487854554052,-17.71931997748602],[-74.96944874994786,-17.717564183416204],[-74.96405022963216,-17.715714450791385],[-74.9586846095786,-17.713771336264063],[-74.95335350487974,-17.711735424595542],[-74.948058520252,-17.70960732848167],[-74.94280124954864,-17.707387688367664],[-74.93758327528309,-17.705077172257177],[-74.93240616814873,-17.70267647551035],[-74.92727148654862,-17.70018632063612],[-74.9221807761249,-17.69760745707482],[-74.917135569292,-17.694940660972513],[-74.91213738477603,-17.692186734948155],[-74.90718772715705,-17.6893465078524],[-74.90228808641476,-17.686420834517836],[-74.89743993748046,-17.683410595502504],[-74.89264473979168,-17.680316696824526],[-74.88790393685319,-17.67714006968997],[-74.8832189558006,-17.673881670212047],[-74.87859120697216,-17.670542479124453],[-74.87402208348233,-17.667123501485275],[-74.86951296080171,-17.663625766374576],[-74.86506519634322,-17.660050326584884],[-74.86068012905332,-17.6563982583046],[-74.85635907900776,-17.65267066079336],[-74.85210334701443,-17.64886865605186],[-74.84791421422007,-17.64499338848258],[-74.84379294172649,-17.641046024547613],[-74.83974077020842,-17.63702775241496],[-74.83575891954115,-17.63293978160268],[-74.83184858843128,-17.628783342612632],[-74.82801095405894,-17.624559686563423],[-74.82424717171874,-17.620270084809082],[-74.8205583744751,-17.61591582856019],[-74.81694567281943,-17.611498228492504],[-74.81341015433675,-17.607018614354693],[-74.80995288337606,-17.602478334564655],[-74.8065749007323,-17.597878755806885],[-74.80327722333075,-17.593221262618375],[-74.80006084392183,-17.58850725697279],[-74.79692673078274,-17.583738157859564],[-74.79387582742358,-17.57891540085285],[-74.79090905230616,-17.574040437684193],[-74.78802723953567,-17.569114634892568],[-74.78799306167107,-17.56912778647072],[-74.79087493399204,-17.57405369209458]]]]}},{"type":"Feature","properties":{"id":null,"group":"dirt","name":"Point Golqik Connector"},"geometry":{"type":"MultiPolygon","coordinates":[[[[3.500847791139758,23.819223784911532],[3.500847907664252,23.819223807810623],[3.61249855577122,23.840801957352248],[3.612499574704928,23.84080212597334],[3.726167419453434,23.85648044616067],[3.726168964618054,23.856480595651064],[3.856635012813285,23.863759814250162],[3.856637060738325,23.8637598176925],[3.994940954334824,23.856480663288036],[4.23221364607419,23.87705828884274],[4.462241808522695,23.912022435269424],[4.625288791641085,23.950969820921156],[4.783330559951898,23.99982417864548],[5.152658116450215,24.145873109309235],[5.42389534231084,24.335784393007284],[5.579525167550909,24.513349766044506],[5.638907504812534,24.61798745860242],[5.670263364352651,24.7210138746529],[5.732976493388005,24.994264019506485],[5.732977596203535,24.994267318884354],[5.786731838568718,25.115214378360086],[5.786733236546808,25.115216954171515],[5.786735030573315,25.1152193015522],[5.839362715651052,25.17407762982675],[5.839363301564882,25.174078256426878],[5.96143692556548,25.298880275231742],[5.961439271448579,25.298882318965973],[5.961441918078213,25.298883974876833],[6.106628382643764,25.374527010742067],[6.106628891358377,25.374527266459705],[6.338841983794811,25.48702405111622],[6.460908845898178,25.547497536125576],[6.460910184104762,25.547498138715103],[6.526983118852822,25.574375261430102],[6.526987724669572,25.574376517308643],[6.581763724439893,25.58239798154374],[6.581764388661584,25.582398067253887],[6.680411983694095,25.593414562163005],[6.680414831290145,25.593414670104696],[6.836077533786235,25.587815288925533],[6.977181791208157,25.592294785288566],[6.977183925368567,25.59229473467538],[7.101440176741823,25.582398138086035],[7.267232314819339,25.57437668275834],[7.26723315710659,25.574376623289947],[7.739894923558163,25.53043088327067],[7.910642777167687,25.523007059574816],[8.071863554879712,25.535740738403323],[8.151933575768982,25.54413968885908],[8.222438946409616,25.560125241547215],[8.259993180872053,25.5833317602069],[8.28854825432457,25.609087315355097],[8.345661655871414,25.668440456427227],[8.345662218544698,25.668441017884668],[8.385976796729635,25.70707582090872],[8.41545140492281,25.745715266531594],[8.447567355415032,25.795542268862363],[8.464364401450442,25.83893464439909],[8.477242571947233,25.894646747777394],[8.497110915589115,26.027814528957247],[8.511958630999512,26.257954425266828],[8.511958911604824,26.25795660159927],[8.543134268789348,26.418800524906633],[8.54638210811666,26.441071436144934],[8.547541668162195,26.452203222773147],[8.54429489308742,26.461711633059696],[8.544294591425668,26.461712616495927],[8.541511384763917,26.471917704123783],[8.5371050958506,26.47817927193773],[8.537103370438945,26.478182403895882],[8.53084064085918,26.493259342358872],[8.5250437011219,26.49928815932214],[8.517678760339315,26.505029333437935],[8.51767679107192,26.505031136922344],[8.517675145629168,26.505033218702398],[8.51535643331668,26.508511286800786],[8.512458206582785,26.511003761686034],[8.51245719535322,26.511004706606286],[8.508629516282202,26.51489038060079],[8.505439944599633,26.517847983295386],[8.502525854456044,26.520459667744237],[8.502524237236095,26.520461333996643],[8.500276508862536,26.523127477065454],[8.500276353625992,26.523127663973817],[8.49714545116483,26.52695432224662],[8.494594785306557,26.529041230597063],[8.494592738238099,26.529043219099677],[8.491577832259098,26.532521956529322],[8.488055656857432,26.535283168013745],[8.488052409225043,26.535286547381045],[8.487291764940883,26.536344205046632],[8.486291974289632,26.53742368908704],[8.486290576044444,26.537425419258494],[8.485762442885228,26.53817782806884],[8.485184782430842,26.538690501699808],[8.484792595963896,26.53895195933792],[8.484447055833748,26.53918231941937],[8.483754770977955,26.539542500874358],[8.483774130686548,26.539574078207515],[8.4844672550886,26.53921345994121],[8.484468876316289,26.5392125020172],[8.484815198152544,26.538981620787492],[8.485208365448837,26.538719509250342],[8.485210221035366,26.538718079018743],[8.485790212497028,26.538203336574632],[8.485792777916272,26.538200463990563],[8.48632138093683,26.53744738563999],[8.487321107083618,26.53636797110846],[8.487322396412692,26.53636639422065],[8.488082261115476,26.53530982034403],[8.491603835704575,26.532549079672904],[8.49160615855373,26.532546870307268],[8.494621179693777,26.529067999521967],[8.497172029427652,26.526980940570272],[8.497174377937206,26.526978594099162],[8.500306254768558,26.52315074434114],[8.502553156492635,26.52048558141195],[8.505466483131725,26.517874581005376],[8.505466693297283,26.517874389413638],[8.508656646317432,26.514916432839232],[8.508657188583925,26.51491590673122],[8.512484647073746,26.511030456233517],[8.515384078249394,26.50853694532092],[8.515387062892765,26.508533576041057],[8.51770554686715,26.505055849710537],[8.52506930551432,26.49931559670267],[8.52507108670126,26.499313992018944],[8.530871001187936,26.493282080602242],[8.530872903350255,26.49327969596811],[8.530874326382737,26.49327700906288],[8.537137543484015,26.478198890704412],[8.541544442334551,26.47193645486036],[8.541545864353031,26.47193400832538],[8.5415468425947,26.47193135194379],[8.544330665219103,26.46172399890766],[8.547578450429265,26.452212625472225],[8.547579233663882,26.452209113338906],[8.547579243535875,26.45220547993626],[8.546419259632103,26.44106964382726],[8.546419171042386,26.44106893505482],[8.543171216945694,26.41879726283565],[8.543171078469587,26.41879644810943],[8.511995827508455,26.257953211630824],[8.497148096848758,26.027813691121672],[8.497147941313386,26.02781223351882],[8.477279364958592,25.894643039801707],[8.477279103114046,25.894641660890656],[8.464400477409791,25.838927624579878],[8.464399720651425,25.838925166059834],[8.447601516053505,25.79552981103414],[8.44759978494833,25.7955264172349],[8.415482373807583,25.745697153392502],[8.415481493571086,25.745695899769487],[8.386005495300475,25.70705463257729],[8.386003462024814,25.707052358120244],[8.345688065160573,25.66841676814253],[8.288574454348103,25.60906340628004],[8.288573441228829,25.609062425311567],[8.260016498496299,25.583305181701707],[8.260013600760553,25.58330300838366],[8.22245495473515,25.56009375931417],[8.222451985850013,25.56009224714109],[8.222448815105105,25.560091245744875],[8.151939034679264,25.544104687152675],[8.151936720067786,25.544104304366186],[8.071865295529935,25.535705201075935],[8.071864792250382,25.53570515481416],[7.910642603477596,25.522971353861333],[7.910640236326438,25.522971311463067],[7.739890757377552,25.53039519786206],[7.739889818987153,25.530395261820598],[7.267228073736234,25.574340981722724],[7.101436086086331,25.582362422532587],[7.101435492471744,25.58236246051224],[6.977180025743983,25.592258989837497],[6.836076209071416,25.587779499707082],[6.836074903291953,25.587779502375533],[6.680412995936527,25.59337884818717],[6.581767175274449,25.582362544903756],[6.526993888417536,25.574341474139782],[6.460923878377703,25.54746553440466],[6.338857608578714,25.486992330064243],[6.338857439149711,25.486992247075698],[6.106644553516674,25.37449553912012],[5.961461161951978,25.298854090379017],[5.839390038269973,25.17405462030046],[5.786764635439299,25.115198844081313],[5.733012292948703,24.994256086548766],[5.670299375937409,24.721007027583028],[5.670299047989896,24.721005796792678],[5.638942397611684,24.617976824393697],[5.638940785979305,24.617973080732],[5.579556464766934,24.513331905397532],[5.579554209783496,24.513328736990267],[5.423921540190361,24.335760115188222],[5.423918040344092,24.33575697943109],[5.152676997466623,24.145842998044696],[5.15267293548347,24.145840811590027],[4.783342570217614,23.999790737605338],[4.783341145503578,23.999790236266634],[4.625298070173165,23.95093546161806],[4.62529684100855,23.950935125164435],[4.462248474559171,23.911987397105932],[4.462246885756548,23.911987087069694],[4.232217346753295,23.877022717316137],[4.232216119536702,23.877022570925654],[3.994941528811636,23.85644476847988],[3.994938893735709,23.856444723234613],[3.856634725717889,23.86372388786067],[3.726170497547039,23.85644476485456],[3.612503952002983,23.840766617405997],[3.500853886756892,23.819188573376362],[2.89766285019558,23.698550347017942],[2.897656605246561,23.69858556676294],[3.500847791139758,23.819223784911532]]]]}},{"type":"Feature","properties":{"id":9,"group":"gravel","name":"Khn Trail"},"geometry":{"type":"MultiPolygon","coordinates":[]}},{"type":"Feature","properties":{"id":9,"group":"gravel","name":"Khn Trail"},"geometry":{"type":"MultiPolygon","coordinates":[]}},{"type":"Feature","properties":{"id":9,"group":"gravel","name":"Khn Trail"},"geometry":{"type":"MultiPolygon","coordinates":[]}},{"type":"Feature","properties":{"id":7,"group":"paved","name":"Big Bayan Trail"},"geometry":{"type":"MultiPolygon","coordinates":[[[[21.65079837806888,5.315483914348186],[21.670278540110154,5.355115965993056],[21.68371319908686,5.414228462362686],[21.687071911885194,5.483417946505729],[21.68169795516415,5.521035642535409],[21.681697837157383,5.521039324877488],[21.68505670204101,5.564704567780582],[21.685057116580772,5.564707225493632],[21.708569171268437,5.66412962391042],[21.708569512660862,5.664130862681674],[21.728050805360848,5.725933581582798],[21.739806727306878,5.770270199352689],[21.73980783835493,5.770273240778041],[21.7535791846668,5.799495364153696],[21.753581270399163,5.799498770008735],[21.77407034646611,5.826033800909941],[21.774071313248694,5.826034953981798],[21.784147907992782,5.837119207266651],[21.784150771537202,5.837121776044641],[21.78415409838946,5.837123718966488],[21.784157737242435,5.837124947667028],[21.798936742126703,5.840483811559353],[21.798939010957433,5.840484181713695],[21.819092199187672,5.842499499473318],[21.819095720693916,5.842499510519436],[21.843948560702614,5.84014856496452],[21.874174277403238,5.846529547881973],[21.908096798112396,5.858956607753743],[21.964524440005285,5.885155151928577],[22.00692955994959,5.908331016398018],[22.00693105406823,5.908331750076063],[22.02112225788465,5.914545649019772],[22.021127282127416,5.914547061795943],[22.039763169055014,5.91706542382529],[22.050673389013564,5.926968545503279],[22.057975790471325,5.937880179147357],[22.060745748471227,5.949799391659867],[22.061333454655017,5.963400591744649],[22.059318152393168,6.035279695109701],[22.059318739384192,6.03528463873406],[22.074097741443076,6.09037000786296],[22.102983976247188,6.198525440972022],[22.102984379630044,6.198526745718032],[22.11574806642433,6.234802485445041],[22.115750051599488,6.23480647474412],[22.139262106171728,6.270410440632341],[22.139263840880425,6.270412677554226],[22.139265900934507,6.270414638008359],[22.168823911936467,6.294598462747624],[22.168826630176984,6.294600320015953],[22.168829623905953,6.294601681836007],[22.20107361924801,6.306021428132243],[22.2521244039465,6.331546816987321],[22.29578739043802,6.376553275501937],[22.295787827242197,6.376553711226591],[22.315269243694864,6.395363352981703],[22.315271558592066,6.395365259760513],[22.315274145795406,6.395366782315735],[22.34147329144438,6.408130466823811],[22.341477266979467,6.408131882834352],[22.395890876037875,6.420895565679778],[22.395891100640682,6.420895616914704],[22.451975662481058,6.433328263546375],[22.499752069260794,6.450190521695045],[22.534411863830982,6.473140923522315],[22.560641071288533,6.50171202201912],[22.58312450645223,6.538247601477315],[22.624346034059137,6.61179054945344],[22.624347925351895,6.611793305679103],[22.65573263812586,6.64973601513136],[22.6557346501429,6.649738099159545],[22.676813934672722,6.668475239152476],[22.676816241921035,6.668476995749256],[22.697090692597417,6.681614288513952],[22.69709482099376,6.681616306824845],[22.721321081126053,6.690026723593599],[22.721322953226757,6.69002726739654],[22.745212808036936,6.695648408267815],[22.745215042536397,6.695648793108496],[22.80048960788801,6.701738360824908],[22.80049214251465,6.701738464351664],[22.849677136397368,6.700333176354194],[22.849679552828743,6.700332943739324],[22.909169973152842,6.690495942367862],[22.909173476019618,6.690494981606506],[22.982248321451973,6.66192084023496],[22.982250747846855,6.661919661224231],[23.06094480958408,6.615546370999552],[23.223952628113455,6.570578689465782],[23.347611918295815,6.58182043635517],[23.456281742397287,6.623040017520129],[23.621162911040063,6.765437376503275],[23.748573246092345,7.042742203332843],[23.943439154366672,7.702288326908807],[23.943440853063574,7.702292246544994],[24.285584628543447,8.288107822700065],[24.285586885835766,8.288110900444043],[24.285589736842617,8.288113484694714],[24.70042649402742,8.594185796461113],[24.700430253904486,8.594187964548018],[25.156792824495163,8.793015300373428],[25.803892166655103,9.138614897385764],[25.803894913959457,9.138616101015176],[25.803897800199984,9.138616864810567],[26.45819299158787,9.258315942635837],[26.900989165501397,9.612012839782201],[26.900991374522235,9.612014365670731],[27.359091405443372,9.88381434564015],[27.359095101627965,9.88381604797888],[27.359099043059523,9.883816946842796],[27.944990326398035,9.954015863489568],[28.334685366092106,10.512008692295582],[28.334687074819115,10.512010792108548],[28.96378712733474,11.178910789476578],[28.963789683999295,11.178913054118535],[29.592889734504368,11.644213034292488],[29.592891169910132,11.64421399949318],[29.91872156605078,11.84320648222641],[29.918724235203324,11.843207849358553],[29.918727069369535,11.843208803599833],[30.285975042833094,11.936894483184808],[30.285979623342175,11.936895089820249],[30.60076359129173,11.940642497587342],[30.600767121097327,11.940642203358365],[30.889319083768207,11.888178193405968],[30.88932247941304,11.888177215849879],[31.177873247701637,11.772007409288596],[31.462675710684568,11.704554178170909],[31.650045372813757,11.678322414099172],[31.747476191371767,11.674575068593951],[31.852402789751572,11.685817196645912],[31.85240339949634,11.685817252294067],[32.249630637528966,11.715796638516617],[33.07949962790682,11.791816605437312],[33.36261458902689,11.824471727805486],[33.65116254337979,11.906913976770912],[34.04089193701818,12.131757819462125],[34.40878978760714,12.399312696920028],[34.40879299907026,12.399314607551739],[34.833475368143105,12.60206127248739],[34.83348014611465,12.602062870350242],[35.060199558187904,12.647968848512562],[35.060203101040564,12.647969242373014],[35.10610909651493,12.64890609607968],[35.106112596832546,12.648905844039831],[35.10611590665431,12.648904953703536],[35.14077961535155,12.63578895366913],[35.14078268479067,12.63578740933283],[35.14078528858748,12.635785290684899],[35.14078731891072,12.635782685465134],[35.234473006589596,12.482138141305219],[35.23447322187447,12.482137776677975],[35.324410860921326,12.324746889436815],[35.47430666441599,12.14487190906208],[35.685013537321495,11.941211997161771],[35.68498646268021,11.941188002836974],[35.47427898227381,12.144848465710368],[35.47427792372068,12.144849604956239],[35.324380780008,12.32472616066005],[35.324379355090656,12.324728211697135],[35.23444117036831,12.482120017438165],[35.14075821628455,12.635760039753194],[35.10610276789854,12.648872910110436],[35.06020214759391,12.647936159445669],[34.833487003304576,12.60203100850993],[34.408808697275965,12.39928620403081],[34.04091153629171,12.131731752051238],[34.04090968525701,12.131730549695783],[33.65117719387712,11.90688484488866],[33.65117255358731,11.906882875719825],[33.362620605619504,11.82443943808581],[33.36261739318561,11.824438796559106],[33.07950059996692,11.79178342084464],[33.079500144103754,11.791783373651564],[32.24963082538367,11.715763256894872],[32.24963051902926,11.715763231307271],[31.85240345606091,11.685783802346316],[31.747475777344274,11.674541543556533],[31.747473003816086,11.674541447440543],[31.650039874275972,11.67828886920035],[31.650038027464777,11.678289032971197],[31.462666621771593,11.704521018412466],[31.46266498712596,11.704521325160487],[31.17786044660128,11.771975015732766],[31.177857998283365,11.771975791854928],[30.889307652644593,11.888145394512518],[30.60075918666368,11.940608735237],[30.28597933496512,11.936861335549716],[29.918736590590182,11.843176934191764],[29.59290956927406,11.64418645269867],[28.963811697859413,11.178887971754136],[28.33471385819485,10.51199020219326],[27.945014665768735,9.953991318085526],[27.94501257654542,9.953988805033722],[27.9450100713873,9.953986662224734],[27.945007233145652,9.953984960526128],[27.9450041556875,9.953983756216909],[27.94500094079134,9.95398308912635],[27.35910502414583,9.88378353996923],[26.901009783384314,9.611986322627361],[26.45821086760407,9.258287147368948],[26.45820819835551,9.258285348640824],[26.458205271599347,9.258284010106937],[26.458202179264024,9.258283173810163],[25.803905156472325,9.1385836760231],[25.156807871959536,8.792985072370351],[25.156806451922787,8.79298438473452],[24.700445205922144,8.594157560132492],[24.285613417897554,8.28808884709573],[23.94347273893571,7.702278498795648],[23.748607100044715,7.042733225656551],[23.74860618273344,7.042730778955272],[23.621193637383843,6.765421107008742],[23.621191594786055,6.765417689454039],[23.621188846148645,6.765414756488613],[23.456302020592393,6.623012483758653],[23.456299299322353,6.62301051998586],[23.456296278185068,6.623009060022392],[23.347620867259497,6.581787345100093],[23.347615892340144,6.581786194130078],[23.22395076612307,6.570543903112498],[23.22394752345014,6.570543896355122],[23.223944364944067,6.570544463274748],[23.06093123784193,6.615513594598072],[23.06092712930045,6.615515331276338],[22.982232295637917,6.661889068894303],[22.909160400599543,6.690462050330646],[22.849672986736053,6.700298549150781],[22.800490479933373,6.701703761170929],[22.745218310419773,6.695614451321577],[22.721330513825382,6.689993791862801],[22.69710736216,6.681584451099781],[22.67683608039085,6.668449208540335],[22.655758972670817,6.649713999867057],[22.62437626229109,6.611773705247124],[22.58315537395041,6.538231887835417],[22.583154990326047,6.53823123493825],[22.560670423467833,6.501693811395392],[22.560668268728975,6.501690962378515],[22.534436273873244,6.473116822700343],[22.534432752744813,6.473113819132299],[22.499769044702468,6.450160820582033],[22.499764854270794,6.450158732548973],[22.45198514756453,6.433295303566321],[22.451982949301133,6.433294674183077],[22.395897386426768,6.420861799024935],[22.34148595357691,6.408098620175408],[22.315291449723865,6.395337193408037],[22.295812434831383,6.376529866787294],[22.25214741191391,6.331521300709787],[22.252144990533587,6.331519193434004],[22.252142246299833,6.331517519370284],[22.20108750559076,6.305990145426469],[22.201085346500584,6.30598922722508],[22.168843380536778,6.294570195579659],[22.139290176215262,6.270390298657395],[22.115780939832604,6.234790595278829],[22.103018222998827,6.198517608410155],[22.07413216522323,6.090362828944607],[22.074132157878566,6.090362801498465],[22.05935381091075,6.035279871279282],[22.06136905974772,5.963402666436538],[22.061369050602867,5.963401455672376],[22.060781249282314,5.949798054434697],[22.060780815054244,5.949794886445176],[22.058009751917005,5.937870917350121],[22.058008731070196,5.93786783662794],[22.058007158524795,5.937864962621775],[22.050701628436475,5.926948652520141],[22.050698638693593,5.926945189869338],[22.039782329223534,5.917036538795732],[22.0397792683806,5.917034274418684],[22.03977582060883,5.917032664089292],[22.03977213910245,5.917031779359061],[22.021133040505884,5.914512981211485],[22.0069450246691,5.908300476268568],[21.964540091583967,5.885124707786021],[21.964538976331237,5.885124144865575],[21.908110052154658,5.858924997657376],[21.908108587274853,5.858924390439796],[21.874184055212496,5.846496589400712],[21.874181469411184,5.846495846488198],[21.84395168794438,5.840114002003515],[21.843948936393367,5.84011363320143],[21.84394618034601,5.840113682463262],[21.819092334239123,5.842464720759524],[21.798942058182423,5.840449692098209],[21.784169990820864,5.837092403193843],[21.774097922816438,5.826013127239196],[21.753610542826287,5.799480288964878],[21.739840747371616,5.770261452911956],[21.72808513685883,5.725926004808536],[21.72808490741386,5.725925213822856],[21.7086036874915,5.664122720402636],[21.685092095909997,5.564702272620483],[21.681733477248713,5.521040230293287],[21.68710739951533,5.483422773594031],[21.687107548014964,5.4834195651008],[21.683748683505296,5.414226956265265],[21.683748271253727,5.414223951969874],[21.67031281372346,5.355107936131723],[21.67031142079418,5.355104008769584],[21.65083000734144,5.315469406483408],[21.65082930695203,5.315468115153655],[21.617240662971994,5.259039189374735],[21.617210105345297,5.259055619847651],[21.65079837806888,5.315483914348186]]]]}},{"type":"Feature","properties":{"id":9,"group":"gravel","name":"Khn Trail"},"geometry":{"type":"MultiPolygon","coordinates":[[[[40.43251651641514,-30.428110423583966],[40.432516371761686,-30.428110565405262],[40.12562090135114,-30.725106257002153],[40.13912084362981,-31.192200498244002],[40.13912084851188,-31.192201090367433],[40.131920974242995,-31.80240103802192],[40.13192086517575,-31.8024025811666],[40.08872093834288,-32.12910255862198],[40.08872078808439,-32.12910345221849],[40.01582115531715,-32.485502031249126],[40.03202119525409,-32.968800044024576],[40.095021237943264,-33.48179948024685],[40.095021333563096,-33.481800765782026],[40.11212139178156,-34.13249782946568],[40.36862005142905,-34.62929501879192],[40.368621369332196,-34.6292987191336],[40.558521560236024,-35.555398614148004],[40.5585218176467,-35.55540172548296],[40.558521265316635,-35.55540477277835],[40.55851992374487,-35.555407642936764],[40.55851784272249,-35.555410229435054],[40.55851509948457,-35.5554124362778],[40.558511795843664,-35.55541418156019],[40.28851710163812,-35.66881198408658],[39.965422241884895,-36.15930438268081],[39.99872204143422,-36.59220019422101],[40.028422092589224,-36.899099912162804],[40.07252204230084,-37.23929886077381],[40.29212197623533,-38.00969792178367],[40.29212209424599,-38.00969835246014],[40.39922187782187,-38.42279711632775],[40.64222047913233,-38.92589397604593],[41.11201895321218,-39.44609215992179],[41.11201930258389,-39.4460925526233],[41.74381934186932,-40.16339243889483],[41.743821987967806,-40.16339640228688],[41.985022094959554,-40.67999632650636],[41.98502316911392,-40.679999777343916],[42.080423202608166,-41.282998820323336],[42.25322273639222,-41.801396941261565],[42.701420349687915,-42.64289206641361],[43.31701109059577,-43.037986109131296],[43.88490433281496,-43.15228477583609],[44.0289037791784,-43.17658469295299],[44.028907948034686,-43.17658564540362],[44.02891186603732,-43.17658705091011],[44.02891540952743,-43.17658886511221],[44.02891846666637,-43.176591030750636],[44.869505720644625,-43.86328073247551],[45.510288531686925,-43.687785467186465],[45.510292945064336,-43.68778458793753],[45.5102976280839,-43.68778429774345],[46.140297486019094,-43.68778434882022],[46.1403025114989,-43.68778466950188],[46.1403074307267,-43.687785638759216],[46.14031203558846,-43.68778721558663],[46.14031613126994,-43.68778933327441],[46.140319544498254,-43.68779190223121],[46.14032213087258,-43.687794813774126],[46.47061873887944,-44.15218991079582],[47.88718944464762,-44.70657866557973],[48.2903781548594,-44.256591457060175],[48.29037896839856,-44.256590620149865],[48.93387916785642,-43.64369068283054],[48.933882664630126,-43.64368811729437],[48.93388708197013,-43.64368618277],[49.68538564492357,-43.394386746914186],[50.327079932447184,-43.09558950697895],[50.66097695477488,-42.6239939756815],[50.73387654318468,-42.426895291512224],[50.733876918064304,-42.42689440831995],[50.89947661931368,-42.08219529735021],[51.01017653038322,-41.66639620393688],[51.01017714801425,-41.66639451730679],[51.18567728710238,-41.29199450995385],[51.185678972291484,-41.29199190520593],[51.185681424326646,-41.291989595662066],[51.185684553786125,-41.291987665547474],[51.8309829144032,-40.96798859126988],[52.33227868891782,-40.58729193071826],[52.55997759415203,-40.076994791982806],[52.559977789754456,-40.07699437897835],[52.80117795819374,-39.59549437127801],[52.80117947227776,-39.595492073606074],[52.80118158007058,-39.59549000518372],[52.80118422060992,-39.5954882258345],[53.32587901728685,-39.3002912517703],[53.56617746615724,-38.60369643815176],[53.74347727004226,-37.69649883019882],[53.66337767971039,-37.146600517453656],[53.66337759569251,-37.14659965419954],[53.645377806715636,-36.797402012332476],[53.404179089980595,-36.33390423343684],[53.40417791142866,-36.333900587610614],[53.40417805535553,-36.33389690660326],[53.62197833473199,-35.382596835696894],[53.621979490696454,-35.38259390376271],[53.62198150312801,-35.38259122640713],[54.003579266543625,-34.98569368869599],[54.1988784014191,-34.253997682497655],[54.25377861589522,-33.19199872686323],[54.25377868492471,-33.191997999014326],[54.31587880230493,-32.72579795506208],[54.31587955460213,-32.725795209337114],[54.31588102600394,-32.72579263210922],[54.584979587226385,-32.361294715276095],[54.71997920184913,-31.778997003780983],[54.71997984369305,-31.77899508221673],[54.865778950045794,-31.445997300039885],[54.86217904201807,-31.198499632065193],[54.86217949490149,-31.198496407159993],[54.862180913006576,-31.198493351378065],[55.27798044078861,-30.554994330956976],[55.543479168329625,-29.914197745261582],[55.50747944574427,-29.28330019663981],[55.50747969687309,-29.283297247118067],[55.50748074443597,-29.28329440558415],[55.82697996303266,-28.673996149469428],[55.927779247831516,-28.035001435218934],[55.6055808984479,-27.354604641177062],[55.60558056418796,-27.354603851549065],[55.291481893351765,-26.512207170000497],[54.76498540732588,-26.06401012056903],[54.266385755664444,-25.677010386125176],[54.26638352584584,-25.677008300100614],[54.26638181130476,-25.677005954466033],[54.26638066566849,-25.67700342258807],[54.05398077026582,-25.011003460693928],[53.873081894389834,-24.464706687981266],[53.58958451319937,-24.186609227284332],[53.58958211039954,-24.186606180247814],[53.58958069119205,-24.186602793413666],[53.441981217273664,-23.598004621146895],[53.090982296666915,-23.014806295810253],[53.09098087680594,-23.014802915172776],[53.09098050287112,-23.014799375092554],[53.11798058482926,-22.46399931623048],[53.11798140380634,-22.46399554117944],[53.32678125714703,-21.930296132048266],[53.56708052340046,-21.07799915433914],[53.45998095248852,-20.25000158401336],[53.35828107772998,-19.41840185409543],[53.27008117967628,-18.89370212144029],[53.27008106612147,-18.893699095883335],[53.27008170685816,-18.893696106344787],[53.53198180987802,-18.14399610060387],[53.7929819097181,-17.397896094345942],[53.79298286903837,-17.397893984708883],[53.79298420208526,-17.397892006300616],[54.22498428912342,-16.856992017180847],[54.665083406660045,-16.308893231697386],[54.98368282705022,-15.690594528748303],[54.983682839167116,-15.69059450544588],[55.39768243069736,-14.903095473745331],[55.63798213775943,-14.19299658582324],[55.870181519954755,-13.481098686755281],[55.86118163169239,-12.781803215457225],[55.64698268797557,-12.294005539579054],[55.434582701751815,-11.80890551999651],[55.434581966194564,-11.80890324441524],[55.434581686822376,-11.808900886762899],[55.42198175246065,-10.854000892201253],[55.40398183808325,-9.900902876627192],[55.185282485541016,-9.257404672713509],[55.18528189427333,-9.25740179836966],[55.18528200218795,-9.257398854578852],[55.31218145883241,-8.469902436837646],[55.03768293962356,-7.840805743607429],[55.03768206913376,-7.840802703952402],[55.037681999995726,-7.840799543454561],[55.097982038178806,-7.289999483257319],[55.09798299962335,-7.289995833231488],[55.31848221728443,-6.76889776530074],[55.37428167982512,-6.17310374128969],[55.09798383473588,-5.697007420749083],[54.80098394942158,-5.223607604084042],[54.800982764957354,-5.223605153649567],[54.80098214264257,-5.223602535120269],[54.71998215287586,-4.545002451299261],[54.71998207471844,-4.545001258668544],[54.71098212158575,-3.789904723615503],[54.40498404784773,-3.303007770720754],[54.14848404615866,-2.89620777710521],[54.148482817396825,-2.896205224348842],[54.148482197238444,-2.896202486547347],[54.098982200441554,-2.430002430011778],[54.0989821530369,-2.430001823155126],[54.07108230693207,-1.867504950660042],[53.678683943732096,-1.218607644961882],[53.67868321928179,-1.218606243655087],[53.29258390546486,-0.325807881676434],[52.99018510381034,0.040490654665812],[52.990183620962604,0.040492887019886],[52.99018264463754,0.040495339343317],[52.84348262527958,0.57149540165509],[52.84348239061788,0.571496435885129],[52.72468241389658,1.240196294262465],[52.6571511886269,1.565591638474597],[52.64197884266582,1.601716267159615],[52.604047079700756,1.617972735050559],[52.604044163376116,1.617974351462894],[52.6040417474832,1.617976470092342],[52.604039932599335,1.617979002737204],[52.60403879428079,1.6179818439597],[52.60403837991746,1.61798487547549],[52.60403870675998,1.617987971078023],[52.607280142439066,1.632358504820121],[52.60731509542647,1.632355389501451],[52.60407605531931,1.617995478102942],[52.642002648038606,1.601741223101692],[52.642005180435504,1.601739868244085],[52.64200735541071,1.60173813475327],[52.64200910613886,1.601736075890092],[52.642010378829546,1.601733754912327],[52.65718532187437,1.565602936526286],[52.65718604251378,1.565600608890912],[52.72471754013861,1.240203924662657],[52.72471762421152,1.240203485156935],[52.84351751403601,0.571504086359327],[52.990216636276614,0.040507224691382],[53.29261485396045,-0.325790624729589],[53.29261683273144,-0.325793857939967],[53.67871646356704,-1.218593036627924],[54.071116002658,-1.867492286931969],[54.071117302574685,-1.86749515860311],[54.0711178387418,-1.867498243977421],[54.099017830650205,-2.429997872534313],[54.148517492391086,-2.896194681460679],[54.405015920541075,-3.302992179521921],[54.40501598328468,-3.302992279271586],[54.7110159441446,-3.789892226597985],[54.71101739411847,-3.789895404339076],[54.71101790173879,-3.789898831057297],[54.720017914923226,-4.544998142036674],[54.80101752077701,-5.223594760909674],[55.09801601542931,-5.696992342601369],[55.09801630417635,-5.696992820915281],[55.37431627327549,-6.173092765160287],[55.37431735462487,-6.173095138794101],[55.37431791246145,-6.173097659069144],[55.3743179299577,-6.173100249959804],[55.318517966407114,-6.768900183279634],[55.318516942688774,-6.768904203635553],[55.09801775109044,-7.29000237792154],[55.037718340699776,-7.840797234244358],[55.3122170416473,-8.469894176565868],[55.312218006140256,-8.46989763347925],[55.31221793145689,-8.469901226970089],[55.18531846220043,-9.257398166222085],[55.40401751154323,-9.900895243291723],[55.40401818558782,-9.900899102714256],[55.42201824444949,-10.853998988218295],[55.422018248288715,-10.85399922749058],[55.43461826481942,-11.808896714022676],[55.647017292079525,-12.293994415406615],[55.64701733160345,-12.293994505551193],[55.86121732633927,-12.781794440012238],[55.8612181108792,-12.781796829605772],[55.86121838777888,-12.781799308064143],[55.8702184423508,-13.481099223827556],[55.87021780594495,-13.481103352075639],[55.63801790010723,-14.193003296477189],[55.638017822049406,-14.193003531426744],[55.39771791940652,-14.903103478165695],[55.397717038237865,-14.903105527718115],[54.98371716690489,-15.69060548290358],[54.66511727059619,-16.308905445016148],[54.665115623263,-16.308907972142325],[54.22501571462513,-16.857007978134266],[53.79301731988743,-17.397906081626147],[53.532018205131486,-18.144003855967025],[53.53201817479543,-18.144003942749713],[53.270119318689495,-18.893700922489547],[53.35831886455401,-19.418397811302505],[53.35831896117292,-19.418398482346745],[53.46001904263321,-20.249998378174734],[53.46001905214894,-20.249998453813983],[53.56711913669561,-21.077998349139516],[53.56711921409974,-21.07800083426087],[53.567118773579686,-21.07800329689439],[53.326818918551325,-21.930303233866283],[53.326818498598264,-21.930304487882786],[53.11801931326965,-22.464002612905904],[53.091019660859885,-23.01479700286272],[53.442017708713244,-23.597993619255572],[53.44201925052151,-23.5979972875967],[53.58961839529726,-24.18659364505001],[53.87311546138008,-24.464690735552125],[53.87311769788133,-24.464693462627512],[53.873119137290864,-24.46469648413844],[54.05401918454978,-25.010996405263885],[54.05401927170021,-25.01099667392343],[54.266418032018386,-25.676992584607174],[54.765014185076595,-26.06398956636138],[54.76501497581501,-26.063990209461807],[55.29151492000629,-26.512190149175225],[55.29151761599498,-26.512193024290767],[55.29151935727142,-26.512196277460202],[55.60561928332086,-27.35459575040902],[55.92781915116567,-28.034995250233123],[55.92782020432451,-28.03499860266737],[55.927820190722095,-28.035002028878964],[55.827020325690256,-28.674001968411115],[55.82701910968901,-28.674005609930322],[55.50752070931175,-29.28330280795242],[55.543520673350194,-29.914199723832755],[55.54352053901377,-29.91420222305888],[55.54351982758517,-29.914204659822968],[55.27801998618683,-30.55500463061659],[55.27801892497903,-30.55500664738882],[54.86222099934362,-31.198503679435927],[54.865821010738934,-31.446000338459363],[54.86582079356071,-31.446002667070125],[54.86582006983891,-31.446004930709492],[54.72002056786804,-31.7790039745119],[54.58502094552045,-32.36130295094622],[54.58502016106371,-32.36130521955327],[54.585018879389516,-32.361307359434434],[54.315920811388914,-32.72580487641537],[54.2538213622472,-33.19200163802814],[54.19892164886774,-34.25400115875609],[54.1989212918793,-34.254003448727644],[54.00362149866665,-34.98570339831618],[54.003620336099424,-34.98570619034246],[54.00361839404218,-34.985708745090776],[53.62202094667289,-35.3826062262366],[53.40422277021593,-36.333899394252505],[53.64542097789929,-36.79739568614136],[53.64542191672934,-36.79739801274052],[53.64542230934381,-36.79740038886681],[53.66342238066163,-37.146599914099426],[53.743522462913134,-37.69649940692522],[53.74352238143402,-37.69650290098898],[53.566222672872264,-38.60370282821825],[53.56622228434534,-38.603704278007456],[53.32592252130856,-39.30030424326063],[53.32592107945833,-39.30030704970171],[53.325918787481655,-39.30030957183117],[53.32591573781304,-39.30031170793257],[52.80122019989161,-39.5955092946865],[52.5600223128079,-40.07700541566943],[52.33232258857087,-40.58730519436566],[52.33232088968908,-40.58730790971761],[52.332318364674755,-40.58731031226108],[51.831018458491364,-40.96801036866574],[51.83101541601189,-40.968012250664934],[51.185720740255825,-41.29200968797093],[51.010223238994676,-41.66640465503571],[50.89952362665857,-42.08220377084654],[50.899522950004155,-42.08220559729063],[50.73392329132742,-42.42690515493666],[50.66102353365962,-42.62400470081682],[50.66102217826798,-42.62400724885742],[50.32712235392813,-43.09560726398325],[50.32711951515249,-43.0956102041707],[50.32711560197275,-43.0956125825692],[49.685415619026045,-43.39441266743805],[49.685412961280385,-43.39441371883289],[48.93391780821665,-43.64371220681327],[48.29042146202763,-44.25660897127591],[47.887222007635266,-44.7066085758035],[47.88721934709479,-44.70661091342409],[47.88721595414499,-44.70661283790314],[47.88721195723036,-44.706614276386944],[47.887207507659184,-44.706615174419795],[47.88720277387575,-44.70661549800555],[47.8871979350836,-44.70661523489427],[47.88719317446152,-44.70661439504643],[47.887188672229094,-44.706613010255495],[46.470588371555785,-44.152212950893436],[46.47058408287457,-44.152210833448095],[46.4705805009192,-44.15220823499405],[46.470577784729585,-44.15220527090358],[46.140285231561215,-43.6878156872929],[45.51030719239069,-43.68781571232689],[44.86951140387726,-43.86331461129943],[44.869507081751586,-43.86331546368721],[44.869502501485044,-43.86331575239989],[44.869497830035485,-43.86331546691346],[44.869493237684466,-43.86331461763432],[44.86948889183032,-43.863313235519904],[44.86948495088616,-43.86331137095043],[44.86948155850546,-43.86330909189235],[44.02888734119833,-43.176613814210775],[43.88489618543764,-43.15231531194608],[43.88489515301603,-43.15231512204607],[43.31699501429318,-43.03801513585817],[43.31699112129441,-43.0380141125888],[43.31698748044124,-43.038012688537314],[43.31698419513,-43.03801090414523],[42.70138412460686,-42.64291084253946],[42.70138025382682,-42.64290769829584],[42.70137755428606,-42.64290409742986],[42.25317773441162,-41.80140396565475],[42.25317694842078,-41.8014021308809],[42.08037708519505,-41.28300205969651],[42.08037665200962,-41.283000292409135],[41.98497709777529,-40.68000197132847],[41.74377896837141,-40.16340567841625],[41.11198086841502,-39.44610764519861],[40.64218106746852,-38.925907759529835],[40.64217858288709,-38.92590410934744],[40.399178671994626,-38.42280403831753],[40.39917780983915,-38.422801697720296],[40.292077960789676,-38.00970186321082],[40.072478191793515,-37.23930198340367],[40.07247784515804,-37.23930028876069],[40.028377928370894,-36.899100252947335],[40.028377891051385,-36.89909992270305],[39.99867796668734,-36.59219989172688],[39.99867795168741,-36.59219971983551],[39.965378057857606,-36.15929967733822],[39.9653781567143,-36.15929704152174],[39.9653788404652,-36.159294484924],[39.965380090801524,-36.15929207600265],[40.28848021679913,-35.6687920866185],[40.288482293209896,-35.668789598529095],[40.28848498929598,-35.66878747445469],[40.288488210703775,-35.66878578873039],[40.55847619891073,-35.555390869670475],[40.36857900392256,-34.629303174227125],[40.11208000736917,-34.13250491451685],[40.11207893867047,-34.13250213700226],[40.11207852066817,-34.13249929346436],[40.094978680677045,-33.481799876788784],[40.03197886561739,-32.96880046719461],[40.03197878604862,-32.968799444838446],[40.015778888320334,-32.485499400585894],[40.01577912904345,-32.485496568402645],[40.08867912035314,-32.12909699220915],[40.131879032158,-31.80239818623917],[40.13907914695505,-31.192199205425812],[40.1255792475296,-30.725099459337102],[40.125579681173036,-30.725095840605732],[40.125581149238094,-30.72509243362724],[40.125583576986216,-30.72508941184919],[40.432483555372066,-30.42808950515493],[40.69528352939556,-30.16708959522456],[40.69531647060877,-30.167110404772373],[40.43251651641514,-30.428110423583966]]]]}},{"type":"Feature","properties":{"id":9,"group":"gravel","name":"Khn Trail"},"geometry":{"type":"MultiPolygon","coordinates":[[[[52.71196110102231,1.894928053607463],[52.735707966970956,1.96288061523277],[52.7357095947181,1.962883910154422],[52.773705590293,2.021339281656605],[52.77370737955024,2.021341574496517],[52.77370958340985,2.021343603052046],[52.82339467278185,2.060312294859233],[52.874054569213705,2.128508299890162],[52.874056353912664,2.12851034702418],[52.93933152407456,2.192811252006076],[52.939334425542675,2.19281359724554],[52.93933779485317,2.192815404763074],[52.93934147601437,2.192816590874624],[52.93934529859664,2.192817100665912],[53.03189797705427,2.196714046491561],[53.14880636370412,2.220095711744271],[53.24233256791278,2.245425715459725],[53.34560030122764,2.292188450858817],[53.49660840407573,2.399355471477543],[53.49661110753652,2.399357090248822],[53.55701214681762,2.429557603283306],[53.595978782290544,2.467550067293968],[53.62812674800954,2.517233282287413],[53.651508325942274,2.616604973872292],[53.651509005346995,2.61660708688052],[53.691453513993444,2.714032709597218],[53.69145503034766,2.71403552339126],[53.691457148335836,2.714038080546403],[53.7430927307897,2.765673656008383],[53.74309514677559,2.765675698304337],[53.74309792222704,2.76567736775798],[53.83662620478824,2.812441498192794],[53.953532733356845,2.875765855288792],[54.34918517066939,3.411907002450845],[54.34918723328019,3.411909319350402],[54.34918973069273,3.411911318856746],[54.96298977807348,3.825011275294836],[55.5839838345693,4.240807238568702],[55.76668157913484,5.047197210511412],[55.46698313961796,5.732993633383856],[55.46698312768798,5.732993661176307],[55.17448306779032,6.426893737883202],[55.174482297237155,6.426896503025758],[55.174482211785204,6.42689940350206],[55.22488184343306,6.969595686528656],[54.85498365405106,7.631992417143013],[54.48508362446385,8.28719240357233],[54.48508254891558,8.287195021102635],[54.485082126064206,8.28719782485124],[54.48508237172499,8.287200709953678],[54.59398235107761,8.820000651701672],[54.7163823304092,9.45000060535434],[54.716382438270394,9.450001098022295],[54.95938212430128,10.435499942571896],[54.983681917471245,10.892696441805796],[54.83608259068075,11.335494366728325],[54.836117409319876,11.335505633270635],[54.983717366766705,10.892705682470227],[54.98371786991752,10.892703516357003],[54.98371795284511,10.892701267554255],[54.959417938611566,10.435501323508484],[54.95941755333502,10.435498790514963],[54.71641762049098,9.449999148078877],[54.59401767143177,8.81999946710676],[54.59401762417227,8.819999229573856],[54.485118521969824,8.287203751080957],[54.85501630259575,7.632007658784092],[54.855016388151526,7.632007506392848],[55.2249163161725,6.969607570914214],[55.22491728766384,6.96960534999925],[55.22491778353939,6.96960298189586],[55.224917790156674,6.969600531754971],[55.1745180520727,6.42690356597605],[55.46701686636585,5.733006352725226],[55.766716801418866,5.04720644265323],[55.766717584848976,5.047203976161557],[55.76671781371252,5.047201384275237],[55.766717480791925,5.047198748733549],[55.58401750530021,4.240798837648859],[55.58401654330955,4.240795994497064],[55.5840149571896,4.240793302460789],[55.58401280677985,4.240790863102476],[55.584010173208824,4.240788768451787],[54.9630102385541,3.82498873589194],[54.96301020527837,3.824988713552724],[54.349212987888386,3.41189051920589],[53.95356006543435,2.8757485591777],[53.953557249972846,2.875745534794536],[53.95355371192096,2.875743109327165],[53.836642984490865,2.8124164514544],[53.83664236130594,2.812416126978184],[53.74311673702274,2.765653304636293],[53.6914858261162,2.714022386848449],[53.65154296724622,2.616600768322947],[53.62816107637441,2.517227721577497],[53.6281602824346,2.517225328389162],[53.62815905373185,2.517223038320466],[53.59600860590817,2.467535977426397],[53.5960061273389,2.467532965305753],[53.55703588655916,2.429536975270406],[53.5570335387204,2.429535026247756],[53.55703086021893,2.429533426206678],[53.49662841008136,2.399332194313835],[53.34562000078092,2.292164916251878],[53.34561654040877,2.29216293345342],[53.242345396249114,2.245398629939986],[53.24234213011896,2.245397457455045],[53.1488135436461,2.220066788648717],[53.14881212575163,2.220066455195226],[53.031901390989646,2.196684296163429],[53.03189809735445,2.196683898503293],[52.9393519449651,2.192787208708589],[52.87408336736373,2.128492776957679],[52.823422856503974,2.060295926711574],[52.82341944625258,2.060292447250688],[52.77373480277821,2.021324093822536],[52.73574142700939,1.962872739549062],[52.71199453620675,1.894920089684172],[52.71199279172693,1.894916611964304],[52.682475361995586,1.850662358384828],[52.682444774813504,1.850675463297171],[52.71196110102231,1.894928053607463]]]]}},{"type":"Feature","properties":{"id":14,"group":"paved","name":"Saple Townese Trail"},"geometry":{"type":"MultiPolygon","coordinates":[[[[48.82497807162138,-49.034689458761804],[49.35777579114055,-48.50189201662133],[49.78797503549293,-47.8961935066115],[50.03547374793418,-47.41199647930267],[50.00397427376384,-46.926001139585075],[49.65117602417751,-46.2762038395217],[49.39557657175545,-45.89460443575757],[49.05897715275787,-45.38700504241834],[48.55317777410673,-44.75160554720183],[48.55317643171866,-44.75160349817002],[48.29307656196543,-44.25750341051043],[48.29312343803246,-44.25749658948657],[48.5532230078962,-44.75159545542358],[49.05902233505676,-45.38699432713507],[49.059023270924385,-45.386995607554425],[49.39562339119874,-45.8945955093247],[49.39562346463049,-45.894595619279166],[49.651223557764695,-46.27619554439989],[49.651224309519215,-46.27619679005929],[50.004024507118785,-46.92599666800719],[50.004025859830726,-46.926001100899256],[50.03552607840598,-47.412001041636444],[50.03552591228437,-47.41200347512296],[50.03552507538914,-47.41200581865135],[49.78802530994728,-47.8962058164057],[49.78802450524514,-47.896207140751194],[49.35782479130945,-48.501907164316165],[49.357823450517486,-48.50190874442089],[48.825023678166865,-49.034708797774],[48.825019356452145,-49.03471188947102],[48.44431939038634,-49.233611942115765],[48.44428060962457,-49.23358805787989],[48.82497807162138,-49.034689458761804]]]]}},{"type":"Feature","properties":{"id":27,"group":"paved","name":"Broliganta Connector"},"geometry":{"type":"MultiPolygon","coordinates":[[[[21.52651936388653,2.262275331291575],[21.55070181930047,2.391248410186855],[21.52383145147754,2.573966922143281],[21.496960770373942,2.676075510611652],[21.496960248303736,2.676078822398671],[21.49696039360544,2.676082196024596],[21.513082946506383,2.788940054099665],[21.513083142977244,2.78894116685519],[21.534579879695936,2.891050657092589],[21.534580803236747,2.89105367050069],[21.53458225459398,2.891056496522329],[21.53458418736824,2.891059044810627],[21.585635464304566,2.947484136245329],[21.60713127803134,3.063024115798326],[21.607131332333182,3.063024394523753],[21.63668915912467,3.20812644276926],[21.67162127004515,3.57357001484717],[21.671621579813863,3.573572003202797],[21.811350365894768,4.215786955297337],[21.84090737503965,4.350136996463275],[21.795229237773295,4.489858354453194],[21.701183121625768,4.600026659246249],[21.701180643175434,4.600030580761259],[21.655500079553388,4.702140072126858],[21.655498871681726,4.702144084256346],[21.647437595707455,4.750511738212641],[21.647437368488426,4.750514601713312],[21.64743763046964,4.750517484212292],[21.655498498237478,4.796195734169491],[21.64743751045737,4.879492608467424],[21.625940891547845,5.000411085918525],[21.625940635319644,5.000414210871932],[21.628627727087746,5.22612992852692],[21.628663321015512,5.226131133075321],[21.6259762470892,5.000417018929062],[21.647472704881046,4.879499441762411],[21.647472886352507,4.879498117658635],[21.655534160790076,4.796198278214585],[21.65553397641683,4.796193659157116],[21.64747321197738,4.750515993711791],[21.655533662608715,4.702153288704466],[21.701212401379877,4.600047868653138],[21.79525908414403,4.489878894199439],[21.795260909595438,4.489876277424973],[21.79526219173116,4.489873353190115],[21.84094274722077,4.350144590340867],[21.84094341476873,4.350141687647052],[21.840943555181795,4.350138693410594],[21.840943164264807,4.350135697091373],[21.811385158515822,4.215781116895269],[21.671656617050154,3.573567206613915],[21.63672452657309,3.208123747813374],[21.63672425332666,3.20812191431943],[21.607166276233745,3.063019105560997],[21.585669571178652,2.947474305168046],[21.58566866975744,2.947471140469539],[21.585667188219773,2.947468171144959],[21.58566517829835,2.947465500878054],[21.534613750070605,2.891040233930203],[21.513118131994208,2.788936033161596],[21.49699614938932,2.676082149005711],[21.523866202930122,2.573975948832188],[21.523866576751747,2.573974118526211],[21.55073749321473,2.391251890242083],[21.550737669898353,2.391249076493912],[21.550737376842413,2.391246254015299],[21.52655355471203,2.262265855892767],[21.52655275421062,2.262262969674613],[21.52655146961139,2.262260239038849],[21.526549738115932,2.26225774306383],[21.451311175260027,2.170896622965545],[21.4512837632205,2.17091782284948],[21.52651936388653,2.262275331291575]]]]}},{"type":"Feature","properties":{"id":37,"group":"gravel","name":"Totonese Road"},"geometry":{"type":"MultiPolygon","coordinates":[[[[-0.685804580031334,-25.80301806412149],[-1.441799776364634,-25.80751803385018],[-1.441801597596036,-25.807517964734394],[-1.895385998550078,-25.770619254809688],[-1.994380198309746,-26.052302836966902],[-1.989880177210975,-26.441099917422],[-1.98988064080214,-26.44110399067209],[-1.989882103589367,-26.44110785794966],[-2.125782076372095,-26.69940786736142],[-2.125784156247138,-26.69941096273843],[-2.12578687996147,-26.699413612625023],[-2.125790136832109,-26.69941570933832],[-2.125793794510287,-26.699417167674618],[-2.125797704359688,-26.699417928371787],[-2.12580170749657,-26.69941796051755],[-2.125805641246272,-26.6994172628056],[-2.452505679299385,-26.60941725642702],[-2.452507290459564,-26.6094167415879],[-2.900705447362659,-26.445617422714452],[-3.172495221557306,-26.400619122708292],[-3.381276468420861,-26.53650692732838],[-3.285881473882626,-26.79029349834297],[-3.041081763681215,-27.293392772352217],[-3.041081600987677,-27.293393114719034],[-2.864682067943622,-27.674092005983102],[-2.624382700105547,-28.044890961912103],[-2.624382548810819,-28.04489119862658],[-2.492982531391107,-28.253691187536297],[-2.493017468611169,-28.253708812462364],[-2.624417376534565,-28.044908920237805],[-2.864717270589489,-27.67410901823147],[-2.864718440050686,-27.674106901380373],[-3.041118319614685,-27.293407057213063],[-3.285918184900914,-26.79030720596602],[-3.285918800292951,-26.79030577381617],[-3.381318770962722,-26.536505764875535],[-3.381319623049545,-26.53650256692709],[-3.381319823814233,-26.536499283778053],[-3.381319366593118,-26.536496024401643],[-3.381318266562181,-26.536492896982075],[-3.381316560233329,-26.53649000532366],[-3.381314304242553,-26.536487445405406],[-3.381311573469962,-26.536485302195295],[-3.172511582862567,-26.40058531319334],[-3.172508154559801,-26.40058352219944],[-3.172504400654227,-26.40058238914658],[-3.172500471035266,-26.400581959276355],[-3.172496522608383,-26.400582249753015],[-2.900696556290769,-26.44558224691484],[-2.900692662550237,-26.44558327087656],[-2.452493503136775,-26.609382969575467],[-2.125810618937961,-26.69937827328907],[-1.989919872029232,-26.441095903611643],[-1.994419768543425,-26.052300079313568],[-1.994419547847751,-26.052297199398943],[-1.994418825976742,-26.052294391287244],[-1.895418791522135,-25.77059439762024],[-1.895417297046396,-25.77059122673286],[-1.895415166022946,-25.77058837871011],[-1.895412476875485,-25.77058595836191],[-1.89540932856723,-25.77058405475939],[-1.895405836958897,-25.77058273795691],[-1.895402130544998,-25.770582056414046],[-1.895398345725037,-25.770582035212225],[-1.441799311552147,-25.8074819622622],[-0.685800318042652,-25.80298197331175],[-0.685795554847296,-25.802982467851],[-0.68579105346354,-25.802983995002982],[0.057608877955607,-26.15128397065772],[0.057591122042749,-26.151316029342052],[-0.685804580031334,-25.80301806412149]]]]}},{"type":"Feature","properties":{"id":45,"group":"paved","name":"Monstagt Road"},"geometry":{"type":"MultiPolygon","coordinates":[[[[40.51169999953203,-30.167116164292274],[40.511696153422584,-30.16711572660251],[40.37849613113636,-30.141915732078797],[40.37849153385928,-30.14191441095489],[40.37848739814402,-30.141912304166556],[40.251588571387195,-30.060013066454353],[40.093195896753414,-29.983516618333038],[39.90240543504142,-29.99611600060663],[39.68010988793082,-30.060014738657404],[39.515413386363534,-30.14191301632832],[39.37591635667655,-30.24991073996443],[39.28681751908255,-30.357909360871773],[39.28681495448328,-30.35791184530164],[39.2868117798736,-30.357913846548342],[39.286808124749406,-30.357915282978727],[39.17970811796542,-30.389415293735944],[39.179704605392345,-30.38941604415557],[39.17970094599547,-30.389416283074365],[39.17969725643948,-30.389416002875347],[39.179693654350416,-30.3894152124915],[39.179690254565905,-30.389413937120896],[39.084295984558196,-30.345316595087205],[38.96370835824155,-30.35161595738531],[38.868312998148255,-30.40831321022193],[38.86830976420613,-30.408314763194518],[38.868306186630086,-30.40831579660293],[38.709906171954245,-30.4407158116781],[38.70990110395023,-30.4407163176099],[38.540379791836244,-30.44064968922422],[38.54037648437512,-30.440649477455924],[38.54037323390576,-30.440648853400436],[38.51279451678874,-30.433515494819332],[38.51279087199887,-30.433514251288372],[38.51278755136458,-30.43351250166252],[38.49371480584012,-30.4213767804839],[38.49371167088836,-30.421374347170612],[38.49370920431695,-30.421371482137584],[38.49370751190046,-30.42136830824673],[38.479509247072,-30.384858469196434],[38.47950913093623,-30.38485815986954],[38.456080150976625,-30.32010370722523],[38.45607943088407,-30.32010070355774],[38.438704266376405,-30.175747591538382],[38.43870419844467,-30.175746839557046],[38.437943618285814,-30.163323993103305],[38.43591539840956,-30.15064760421115],[38.43591536066169,-30.150647352789544],[38.43540851872377,-30.147036099602516],[38.43490235645565,-30.14580232856935],[38.43463496502995,-30.145283274511506],[38.434194481004674,-30.14493717989924],[38.43419318398195,-30.14493606953346],[38.43371934418179,-30.14449381904727],[38.43320169582167,-30.14418009279397],[38.43213229208135,-30.14394419498567],[38.43104484370127,-30.14405451590894],[38.42992164727924,-30.144339270014758],[38.427387726483445,-30.145020261434915],[38.41635995313336,-30.149456722938787],[38.416357796458485,-30.149457464060145],[38.32437012083852,-30.17595245738439],[38.32436760272978,-30.1759530350418],[38.24830543930922,-30.18913714902468],[38.24830444578947,-30.189137300268385],[38.14790337289377,-30.202321287138922],[38.029247357760646,-30.22767514520461],[38.029243055001565,-30.227675674200324],[38.02923866028081,-30.227675462083358],[37.96839116364004,-30.219562467379447],[37.91667379260728,-30.221590603359523],[37.87307131270326,-30.232744729635197],[37.8405144685526,-30.256212277891496],[37.71361462679995,-30.35161217865704],[37.71361098976244,-30.35161432423096],[37.71360679542219,-30.35161574340793],[37.60560678626622,-30.37681575369766],[37.605603336639184,-30.37681630074587],[37.60559978808482,-30.37681636449694],[37.60559624581344,-30.376815943060766],[37.47239622356734,-30.351615948247407],[37.472392513682735,-30.351614954035114],[37.47238906469047,-30.351613438686357],[37.3652896215247,-30.29401374351861],[37.24469130649283,-30.237314542625647],[37.15559246544384,-30.205814957455097],[37.155592388388364,-30.20581493003279],[37.047592370673655,-30.16711493053692],[37.047591307927235,-30.167114521253577],[36.81899127152949,-30.072614519744153],[36.819008728470536,-30.072585480256382],[37.04760816712897,-30.167085262503953],[37.155607573114565,-30.20578505619629],[37.24470751989581,-30.2372850430465],[37.24470980252964,-30.23728597974868],[37.36530978398639,-30.29398597750205],[37.36531095080487,-30.29398656480468],[37.472407619077174,-30.351584780776488],[37.605598377880625,-30.376783042649187],[37.713588724342316,-30.351585303119823],[37.84048538457927,-30.25618783256788],[37.84048568125981,-30.256187614134173],[37.873045750217756,-30.232717750757136],[37.87304905223474,-30.232715839086595],[37.87305280906135,-30.232714517687057],[37.916661774975175,-30.22155873906792],[37.91666693948279,-30.221557994362943],[37.968389198339885,-30.219529674209927],[37.96839367722167,-30.219529884872586],[38.029238950128274,-30.227642593255837],[38.14789164666649,-30.20228946072134],[38.147893589096995,-30.20228912669396],[38.24829512348801,-30.189105094304644],[38.32435549082056,-30.175921303102825],[38.41634081422419,-30.149427001936036],[38.42736877872845,-30.144990465457447],[38.42737134143489,-30.144989611168597],[38.42990674644264,-30.144308221272322],[38.4299070702854,-30.14430813671288],[38.43103215625212,-30.144022903738502],[38.43103569761969,-30.14402228180017],[38.4321290909761,-30.14391135791645],[38.432133212784315,-30.143911272720555],[38.43213731629082,-30.143911841947855],[38.43321486331612,-30.144149536220585],[38.43321874356518,-30.14415072103053],[38.433222292015344,-30.144152477500885],[38.43374521926559,-30.144469403125328],[38.43374866777599,-30.144471999984777],[38.43422343788377,-30.144915118737632],[38.43466645505794,-30.145263203655094],[38.434669283551834,-30.145265921176538],[38.434671362126494,-30.1452690178985],[38.43494074897055,-30.145791945155015],[38.43494129397436,-30.145793124620226],[38.4354483751466,-30.147029134503843],[38.43544928746487,-30.147032476467995],[38.435956351454,-30.15064530273019],[38.4379846575981,-30.163322201752788],[38.43798479893197,-30.163323480202642],[38.43874539968707,-30.175746588347984],[38.45612038456802,-30.320097775454496],[38.47954878862721,-30.38485057529485],[38.49374502029912,-30.421355160374336],[38.51280929300871,-30.43348549109044],[38.54038096937622,-30.44061703229829],[38.70989630482414,-30.440683682647016],[38.868290060904606,-30.408284972368445],[38.963687005657334,-30.35158679910212],[38.96369022411495,-30.351585250846306],[38.963693783906656,-30.3515842175711],[38.96369756073901,-30.351583735354275],[39.08429754467203,-30.345283745060087],[39.08430174549484,-30.345283862560496],[39.08430587423001,-30.345284646524874],[39.08430976036399,-30.345286064576054],[39.17970100069859,-30.38938202657413],[39.28678592080015,-30.357886469811138],[39.37588250176898,-30.249890643815466],[39.37588513467842,-30.249888105926647],[39.51538514882863,-30.14188811819427],[39.51538835524953,-30.141886118288248],[39.680088356519384,-30.05998613498985],[39.68009207573809,-30.059984697893047],[39.9023920615552,-29.996084720277004],[39.902397253400615,-29.996083823230904],[40.0931972289907,-29.983483839147482],[40.093201679902336,-29.983483924263577],[40.09320605243216,-29.98348475945],[40.09321014256439,-29.983486305738143],[40.25161011818209,-30.059986302262566],[40.25161261822527,-30.059987702960985],[40.378508703389016,-30.141885185205233],[40.511701940500714,-30.167083913830506],[40.67009997662795,-30.173383846628123],[40.67010002337514,-30.173416153371846],[40.51169999953203,-30.167116164292274]]]]}},{"type":"Feature","properties":{"id":53,"group":"trails","name":"Monch Road"},"geometry":{"type":"MultiPolygon","coordinates":[[[[-72.42781950069238,-22.129812233172476],[-72.42781646339034,-22.129811788221478],[-72.42473032375777,-22.129557106533973],[-72.42472981528641,-22.129557069879205],[-72.37941150255341,-22.126755570305153],[-72.37940992457008,-22.126755523244196],[-72.21095554053288,-22.127047640045195],[-72.15007403128405,-22.115063085520905],[-72.15007362345735,-22.11506300880113],[-72.11531709991357,-22.108830801791864],[-72.11531384645781,-22.108830442443846],[-72.08750862703893,-22.107631939213174],[-72.08750756504206,-22.107631916314663],[-72.07288585470118,-22.107631915031806],[-72.0728828948886,-22.107632094238998],[-72.07288000674522,-22.107632627912533],[-72.06520960080941,-22.10955022863064],[-72.06520510309677,-22.109551881015484],[-72.0580140969774,-22.113147383180916],[-72.05801066683338,-22.113149570208485],[-72.03116424165587,-22.13472258561939],[-72.03116345009292,-22.13472326154995],[-72.01558396483755,-22.148864637246866],[-71.99617074796205,-22.16156710960044],[-71.9817917379113,-22.168037662428542],[-71.96693283636978,-22.17211187583818],[-71.89838207848518,-22.18553439551009],[-71.76607030822312,-22.18169925916846],[-71.76606945099094,-22.1816992489266],[-71.08099982505077,-22.184084634716815],[-71.08099794226088,-22.18408471013763],[-70.28449801298903,-22.24528463365351],[-70.28449621785711,-22.245284835862627],[-69.87679624645634,-22.306484794265053],[-69.87679290249562,-22.306485547222113],[-69.87678978726711,-22.306486765950893],[-69.87678700116567,-22.30648841117527],[-69.87678463397943,-22.306490429874398],[-69.87678276199605,-22.306492756991403],[-69.38628358126104,-23.061591276245142],[-68.8957848416415,-23.531389963276744],[-68.89578283133014,-23.531392304466717],[-68.89578140013396,-23.531394905234276],[-68.65098128874462,-24.12359493031795],[-68.65098049551688,-24.12359772555467],[-68.65098036846587,-24.123600598475257],[-68.73288012105277,-25.14509950729598],[-68.65098020884787,-25.92089747422089],[-68.44668171559931,-26.73719078822896],[-67.79328784541674,-27.10528724282118],[-67.7932846072656,-27.105289544904686],[-67.7932821252167,-27.105292360550237],[-67.44678201939257,-27.61559235544942],[-67.44678060444946,-27.61559504646],[-67.44677987442194,-27.61559791239519],[-67.36488039155803,-28.268992664686095],[-67.01388508869603,-28.547988863498592],[-67.0138824047286,-28.54799155382875],[-66.72858232845397,-28.914291542774173],[-66.72858051218299,-28.914294620390763],[-66.56568220768139,-29.302190376159768],[-65.77008666639885,-29.791787512705124],[-65.77008484947174,-29.79178878205908],[-65.17878477609244,-30.260688729072523],[-65.17878219396064,-30.260691282633235],[-65.17878038824708,-30.26069421630796],[-65.1787794376886,-30.260697402176135],[-65.1787793837336,-30.260700701320456],[-65.26067926711302,-30.913200774583494],[-65.2606795669041,-30.913202310468428],[-65.42357947216328,-31.525202387883212],[-65.42357998531443,-31.52520390203757],[-65.66837991233047,-32.116503983533974],[-65.66837997040761,-32.116504119441544],[-65.89247888674963,-32.62590190143609],[-65.91317853671464,-33.15599606381684],[-65.66838459464935,-33.563685796600055],[-65.01589521584813,-33.64558439022956],[-65.01588957562132,-33.64558573219569],[-64.34268976897162,-33.89038559513383],[-63.62898997263866,-34.13518545652602],[-63.62898565932588,-34.135187462630014],[-63.628982199404525,-34.13519021481388],[-63.098884818273156,-34.685087338894355],[-62.67049229707458,-34.84888443590647],[-61.95679611337655,-34.91008404542806],[-61.9567924442073,-34.91008460316852],[-61.405992730707005,-35.03248449480603],[-60.79489566593756,-35.15488386207229],[-60.407003025453456,-35.154883834950795],[-59.95880737693567,-35.01178518392974],[-59.9588029691166,-35.01178414211206],[-59.95879843119325,-35.01178379517439],[-59.36749853144665,-35.011783751318546],[-59.36749417369206,-35.011784081260124],[-59.36749005821463,-35.011785073155885],[-59.06149197337903,-35.113484411955326],[-58.66279407343661,-35.17738404350524],[-58.66280592656842,-35.177415956493775],[-59.06150597694187,-35.11351591870255],[-59.06150992285214,-35.11351495936048],[-59.367505950023904,-35.01181625674371],[-59.958796964376184,-35.011816213111125],[-60.40699270787487,-35.154914813551606],[-60.4069970382031,-35.15491582494303],[-60.40700149316155,-35.15491617043271],[-60.794901559184176,-35.154916141233564],[-60.79490696922364,-35.154915614347786],[-61.40600703643034,-35.03251555220856],[-61.406007500297925,-35.032515454192],[-61.95680576557004,-34.91011579723539],[-62.67050399081829,-34.84891588988623],[-62.67050758869474,-34.848915333272956],[-62.67051096148679,-34.84891432186751],[-63.09891097617556,-34.68511427386905],[-63.09891481028756,-34.685112351328435],[-63.0989179196846,-34.68510982439788],[-63.629014780461404,-34.135212921846744],[-64.34271006108739,-33.89041446346623],[-64.34271039933893,-33.89041434395106],[-65.0159077585001,-33.64561524177366],[-65.66840486612583,-33.56371554516436],[-65.66840866176457,-33.56371477958385],[-65.66841215481017,-33.563713497688326],[-65.6684152232353,-33.56371174425997],[-65.66841775984662,-33.56370958055371],[-65.66841967602926,-33.56370708215723],[-65.91321957296745,-33.156007080505496],[-65.91322094673956,-33.15600384144911],[-65.91322131227932,-33.1560004174918],[-65.89252119683638,-32.62590047269149],[-65.89252087740964,-32.625898119800986],[-65.89252009157173,-32.62589580891502],[-65.66842005902802,-32.116495948430305],[-65.42362031983262,-31.525196847501935],[-65.26072063208781,-30.913198453792226],[-65.1788214631159,-30.260706329671724],[-65.77011429534616,-29.791811896953153],[-66.56571328287413,-29.302212405780374],[-66.56571596126068,-29.302210394252285],[-66.56571808303329,-29.30220802024757],[-66.56571957419982,-29.302205366554443],[-66.7286188041966,-28.914307002014503],[-67.01391645304496,-28.54800991166875],[-67.36491486760255,-28.269011105628355],[-67.36491753248248,-28.269008436663523],[-67.36491935684786,-28.269005363241607],[-67.36492025323787,-28.26900203270377],[-67.44681974416564,-27.615605042570895],[-67.79331578030869,-27.105310718338508],[-68.44671212278746,-26.737212689250136],[-68.44671484305417,-26.737210825211793],[-68.44671706359614,-26.737208596718517],[-68.44671870965382,-26.737206078797556],[-68.44671972580915,-26.737203356220327],[-68.6510195659102,-25.92090341120858],[-68.6510198822439,-25.92090162322309],[-68.73291974669087,-25.145101692946028],[-68.73291977317255,-25.145099286557382],[-68.65101984335939,-24.123602313959292],[-68.89581746319752,-23.5314078275453],[-69.38631507987378,-23.061610005140682],[-69.38631737807272,-23.061607240703633],[-69.87681293742469,-22.306513835510344],[-70.28450289090935,-22.245315298732727],[-71.08100111899357,-22.18411536390084],[-71.76606951696465,-22.181729861808428],[-71.89838361094056,-22.185565041328],[-71.89838897358305,-22.185564602527304],[-71.96694323317661,-22.172141384255575],[-71.96694491775906,-22.17214098918899],[-71.98180633032894,-22.168066084235747],[-71.98180955292536,-22.168064929290978],[-71.99619156430589,-22.161593022473177],[-71.99619431510195,-22.161591520599984],[-72.01561002927812,-22.148887408437435],[-72.01561226751723,-22.148885682961264],[-72.0311923950537,-22.134743717833164],[-72.05803684994075,-22.11317227602705],[-72.06522386829431,-22.10957876595813],[-72.07288903714611,-22.107662472986572],[-72.0875072231913,-22.10766247159655],[-72.1153102728877,-22.10886087661814],[-72.15006499344476,-22.115092754549536],[-72.21094864796716,-22.127077721027607],[-72.21095338061424,-22.1270781764702],[-72.37940941101935,-22.12678602877026],[-72.42472669206866,-22.129587456730253],[-72.42781103777686,-22.129841989866595],[-72.43088098337883,-22.130493897616926],[-72.43089094200276,-22.130464459042635],[-72.42781950069238,-22.129812233172476]]]]}},{"type":"Feature","properties":{"id":57,"group":"trails","name":"Totoku Pass"},"geometry":{"type":"MultiPolygon","coordinates":[[[[-35.60826891625979,-9.53188596316937],[-35.60826920074304,-9.53188575395884],[-36.32311116009233,-8.995513519409688],[-36.323113882420465,-8.9955110048515],[-36.3231160061926,-8.995508015806992],[-36.70021594875988,-8.326808018994718],[-36.700217124812774,-8.326805473121441],[-37.15381702823789,-7.095605505612514],[-37.15381797792365,-7.095601508489369],[-37.32391677413758,-5.61151099698659],[-38.007906267911004,-5.278516061965136],[-38.83590454343285,-5.05351647746367],[-38.83590781563301,-5.053515253457594],[-40.24350778022216,-4.373115165026793],[-40.243510284860356,-4.373113707489693],[-40.24351252116836,-4.373111892326642],[-41.60251241029473,-3.087011842448492],[-41.602515407741315,-3.087008165831209],[-41.89001536999142,-2.620008171171662],[-41.88998463000957,-2.619991828826734],[-41.602485834264904,-3.086989811212366],[-40.243489579203235,-4.373086111332542],[-38.83589376187613,-5.053483984105199],[-38.0078954614547,-5.278483469193245],[-38.007892125136685,-5.278484720556794],[-37.32389211066452,-5.611484678715344],[-37.32388904050184,-5.611486557800413],[-37.323886410541654,-5.611488976809013],[-37.32388432641977,-5.611491838578506],[-37.3238828718477,-5.611495028162197],[-37.32388210525026,-5.611498417446284],[-37.153782247848035,-7.09559644304174],[-36.70018335626869,-8.32679321031249],[-36.32308581170934,-8.995488752676467],[-35.608246955089065,-9.531858532224158],[-35.57698908976904,-9.554386231159492],[-35.5770109102331,-9.554413768839176],[-35.60826891625979,-9.53188596316937]]]]}},{"type":"Feature","properties":{"id":58,"group":"trails","name":"Ember way"},"geometry":{"type":"MultiPolygon","coordinates":[[[[-72.43839744969014,-22.133331140472915],[-72.4755201026188,-22.14943559816119],[-72.71814875149663,-22.267060778023318],[-72.71815218374914,-22.267062090756443],[-72.71815587419405,-22.267062852782256],[-72.71815968038155,-22.26706303468689],[-72.71816345539405,-22.267062629448898],[-72.71816705351748,-22.2670616527104],[-72.85334928356261,-22.218165939389678],[-72.98269038375344,-22.27141318676313],[-73.25988393695374,-22.4064100437466],[-73.36427998827185,-22.63860130798495],[-73.3120807624231,-22.886097484539533],[-73.31208067182226,-22.886097965735125],[-73.25268061145546,-23.24609799843581],[-73.2526804719945,-23.24610048153438],[-73.25268085689295,-23.24610295170299],[-73.25268175581567,-23.246105342613465],[-73.38678174603314,-23.516105381948098],[-73.38678320280667,-23.516107694918077],[-73.38678514072538,-23.516109787471887],[-73.38678750427889,-23.516111599669593],[-73.64238753917509,-23.68081161402121],[-73.64239046493554,-23.680813170667047],[-73.64239370168208,-23.6808142977517],[-73.6423971438481,-23.680814958515292],[-73.64240067916752,-23.680815131407094],[-74.00959474139822,-23.672715235933044],[-74.35428971149528,-23.8383127859013],[-74.35429291626869,-23.838314022244806],[-74.65399072918362,-23.928313347782833],[-74.86368807308799,-24.040811910704228],[-75.29838569751549,-24.318010388730812],[-75.48558171279599,-24.505206419512984],[-75.62958071376536,-24.978603295962372],[-75.62961928623375,-24.978596704035976],[-75.48561924217805,-24.5051967734366],[-75.4856178659944,-24.50519372834668],[-75.48561566679746,-24.505190972166176],[-75.2984156831226,-24.31799099829982],[-75.29841254366346,-24.317988498934916],[-74.86371260388107,-24.040788524554948],[-74.86371120202948,-24.040787701886554],[-74.65401123298524,-23.928287708883495],[-74.6540070377879,-23.928285985528703],[-74.3543087588376,-23.838286483711208],[-74.00961034037985,-23.67268722039358],[-74.00960687261527,-23.67268588950374],[-74.00960313788401,-23.67268510673597],[-74.00959928126167,-23.67268490249688],[-73.64240673399641,-23.680784713223787],[-73.3868164125245,-23.516090936128094],[-73.25272000335416,-23.246098224091888],[-73.31211928784269,-22.886102275445523],[-73.36431919524513,-22.638602536268838],[-73.36431945595766,-22.638600003910962],[-73.36431917020631,-22.638597471443273],[-73.36431834601704,-22.638595009995736],[-73.2599183361773,-22.4063950433234],[-73.25991642099115,-22.406391939737563],[-73.25991366144297,-22.406389250607834],[-73.25991019942781,-22.406387114208332],[-72.98271024003323,-22.27138711847992],[-72.982708964957,-22.271386545712243],[-72.8533587668209,-22.218135529165064],[-72.85335548102015,-22.218134461222274],[-72.85335200411053,-22.21813388033447],[-72.8533484526997,-22.218133805983317],[-72.8533449458938,-22.21813424066239],[-72.85334160130319,-22.21813516979362],[-72.71816012161682,-22.26703058568055],[-72.47553999764853,-22.14940949253828],[-72.47553914867503,-22.14940910219619],[-72.43841558644475,-22.13330424541476],[-72.43841459282355,-22.133303842886377],[-72.4313481396524,-22.130639653588954],[-72.43133149855124,-22.13066714137772],[-72.43839744969014,-22.133331140472915]]]]}},{"type":"Feature","properties":{"id":59,"group":"trails","name":"Port Regret Pass"},"geometry":{"type":"MultiPolygon","coordinates":[[[[-17.980213713402502,22.304688676993862],[-17.980215754131407,22.3046914831453],[-17.98021723616978,22.304694591330932],[-18.137717253849416,22.732194583146335],[-18.137718149194058,22.7321979873836],[-18.137718359944362,22.732201467537486],[-18.137717878150745,22.732204892335314],[-18.1377167219866,22.732208132592433],[-17.990119244561317,23.041802882868907],[-18.095417545918938,23.530494835255833],[-18.3060165254825,23.95079275882103],[-18.305983474516704,23.95080724117922],[-18.095383487568135,23.530507233894387],[-18.09538197079629,23.5305029336387],[-17.99008199979771,23.041802922754755],[-17.990081605221533,23.04179914574116],[-17.990082030266876,23.041795406791024],[-17.990083255994854,23.041791872501843],[-18.137680157218004,22.73219841393698],[-17.980183961479852,22.30470867059825],[-17.728186281750716,22.01671132192833],[-17.728213718248536,22.01668867807202],[-17.980213713402502,22.304688676993862]]]]}},{"type":"Feature","properties":{"id":9999,"group":"paved","name":"Keepstone Trail"},"geometry":{"type":"MultiPolygon","coordinates":[[[[2.421801867217274,23.55002537647131],[2.421803737672723,23.550026284180458],[2.597530600753092,23.623855966066],[2.597533071958554,23.623856812085435],[2.834276208381675,23.687313727068087],[2.834284860147664,23.687279065998922],[2.597543021998806,23.62382248283406],[2.421818350166938,23.549993707288053],[2.174093228399403,23.412707606803],[2.174075805444488,23.412738776275003],[2.421801867217274,23.55002537647131]]]]}}]}