{"type":"FeatureCollection","name":"roads_highway_generated","crs":{"type":"name","properties":{"name":"urn:ogc:def:crs:OGC:1.3:CRS84"}},"xy_coordinate_resolution":1e-15,"features":[{"type":"Feature","properties":{"id":1,"group":"route-highway","name":"Thornbelt Pass","route_id":null,"country_id":null,"class":null,"status":null,"surface":null,"notes":null},"geometry":{"type":"MultiPolygon","coordinates":[[[[-46.1709141128408,16.08658829715037],[-46.2,16.11542558621985],[-47.20758075614841,16.60858746224675],[-47.20758584406649,16.608590547304786],[-47.207589424927264,16.608594077571706],[-47.781852664230684,17.37268601247744],[-48.64779337321196,17.52208242106419],[-49.714289220074164,17.589582166640955],[-49.714290081008215,17.58958222549597],[-50.57113616455279,17.65258222908789],[-50.571142585713574,17.65258297298996],[-50.57114865020613,17.652584230834574],[-50.57115417498022,17.652585964655014],[-50.57115899327622,17.65258812211771],[-51.05427437149035,17.909088111509153],[-51.05427850170276,17.90909074073067],[-51.05428156937548,17.909093674094198],[-51.054283473743695,17.909096815246674],[-51.054284152254034,17.909100061009724],[-51.063399566933285,18.41759701804463],[-51.40066330885653,18.86308968689775],[-52.32859542048079,19.24558389657509],[-53.643023237760445,19.42558245126869],[-55.602818552778686,19.56958157301764],[-56.3046938897402,19.448083183326577],[-56.304700364717256,19.448082358183985],[-57.84154076862909,19.318483514944777],[-58.38429192770125,19.016376325674162],[-59.08122124515823,18.603890268460027],[-59.569804149436834,18.12869201385546],[-59.569805013399574,18.12869122467054],[-60.26986310562822,17.526594281012503],[-60.42482393890234,16.874097738866396],[-60.42482543582348,16.874094400358704],[-60.424828256724005,16.874091267204722],[-61.135828350893895,16.257591273678248],[-61.13582988179835,16.257590063752943],[-62.0,15.632377578265407],[-62.09538442380857,15.492590076880365],[-62.095385590260676,15.492588552223923],[-62.373423037233174,15.167361004919442],[-62.53638162072725,14.876095034277192],[-62.563381535851676,14.102099175309423],[-62.5633819827248,14.102095853069399],[-62.65788161470261,13.701597531375034],[-62.671381588032645,13.283099250384524],[-62.671382184260004,13.283095287873879],[-62.671383680706626,13.283091563464335],[-63.236583153127,12.243592667314559],[-63.41838275325447,11.753093834331786],[-63.41838475235046,11.753089992618595],[-63.41838764725472,11.753086738844964],[-63.56804558462742,11.621484677538787],[-63.665881376542444,11.384097202737836],[-63.61188179397838,10.785601425964735],[-63.61188172802151,10.785599589044047],[-63.62538176736253,10.047599566491938],[-63.62538179876705,10.047598807877408],[-63.66588164865486,9.417601600770785],[-63.46878238111943,8.655304303999346],[-63.468781890862644,8.655301398432082],[-63.42648222294048,8.140505227500825],[-63.14481281404373,7.638847437635022],[-63.144844565296985,7.638830263338298],[-63.42651587362045,8.140491393829151],[-63.42651737470081,8.140494890815823],[-63.42651808927814,8.140498619080665],[-63.46881798667862,8.655297129204781],[-63.66591763942868,9.41759566649028],[-63.665918126103584,9.417598418876139],[-63.665918167824834,9.417601210074917],[-63.62541822521308,10.047600813183802],[-63.61191828764188,10.78559949114135],[-63.6659182352809,11.384098553013937],[-63.66591811311567,11.384102720607224],[-63.66591699823605,11.38410673909389],[-63.568078053473855,11.621501938417394],[-63.56807610201601,11.621505457627737],[-63.56807338692343,11.621508456859326],[-63.41841570911056,11.753110310246772],[-63.236617280640715,12.243606161273897],[-63.23661624866485,12.243608432520315],[-62.67141827751696,13.283104834261223],[-62.65791843998806,13.701600737884664],[-62.657917987192384,13.701604153252246],[-62.56341840340715,14.102102507981277],[-62.5364185194666,14.876100803294872],[-62.53641789771415,14.876104835613607],[-62.53641633807788,14.876108614534443],[-62.373454914469576,15.167379742212997],[-62.37345294663972,15.16738256432669],[-62.0954150357487,15.492610715937108],[-62.0,15.632443112155919],[-61.13589401180532,16.257609346026157],[-60.42489831545644,16.87410570423472],[-60.269937713789005,17.526602248082348],[-60.26993620738267,17.52660561249588],[-60.269933352578164,17.526608767894636],[-59.569872362814834,18.128708385968274],[-59.081288238753864,18.60390799016126],[-59.08128389273885,18.603911245213116],[-58.38435178424756,19.01639904001808],[-58.38435110097061,19.016399432118487],[-57.84159098437128,19.31851166056618],[-57.84158471567423,19.31851442399479],[-57.84157725251334,19.318516444066688],[-57.841568979511,19.318517616675194],[-56.30471833987298,19.448117363755234],[-55.60283684133546,19.569616830187062],[-55.6028306463847,19.569617628215706],[-55.6028242366615,19.56961792606952],[-55.6028177940324,19.569617715297323],[-53.64300992345474,19.42561772665163],[-53.643005201858514,19.425617231433407],[-52.32856662512729,19.2456172323007],[-52.32855886780314,19.24561571851503],[-52.328551973606515,19.245613453310032],[-51.40060578244306,18.863113437379656],[-51.40060124471389,18.86311121484497],[-51.40059756509037,18.863108666360127],[-51.400594850517685,18.863105865994733],[-51.06332567344817,18.417605850119347],[-51.063324040080495,18.417602940387926],[-51.063323452118034,18.4175999486824],[-51.05420826998704,17.909106766796583],[-50.571111748687805,17.652616774144413],[-49.71427957956871,17.589617806264375],[-48.647779923744885,17.52211783809572],[-48.64777199341385,17.522116914226924],[-47.78181038982706,17.37271691174617],[-47.78180430617652,17.372715561359573],[-47.78179880752686,17.37271372599446],[-47.781794065246665,17.37271146285103],[-47.781790227131765,17.372708842461428],[-47.78178741279909,17.37270594649155],[-47.20752107653711,16.608609680667733],[-46.2,16.11547698138356],[-46.17088670584259,16.08661251760181],[-46.170885179543376,16.086610795993924],[-45.86998518294196,15.700010781665082],[-45.87001481705695,15.699989218334508],[-46.1709141128408,16.08658829715037]]]]}},{"type":"Feature","properties":{"id":47,"group":"route-highway","name":"Port Moan Road","route_id":null,"country_id":null,"class":null,"status":null,"surface":null,"notes":null},"geometry":{"type":"MultiPolygon","coordinates":[[[[-22.958990165213297,15.170384984061],[-22.958993237758694,15.170383459121826],[-22.9589965427519,15.170382502765005],[-22.95899996658584,15.170382147864744],[-23.269494253194225,15.165882224497693],[-23.665487411527277,14.900386797785695],[-23.98048576294006,14.531388730705313],[-23.980486079997497,14.531388367976838],[-24.39898606975399,14.063388386184991],[-24.398988534437944,14.063386083441301],[-24.398991389164713,14.063384254120065],[-24.398994536820407,14.06338296045229],[-25.00649381286917,13.874383169406375],[-25.604993109942146,13.635883432515985],[-25.60499652905099,13.635882425648688],[-25.605000077788223,13.635882075124892],[-25.60500362362033,13.635882394035482],[-25.605007034122334,13.635883370470223],[-26.24850701341144,13.887883347255693],[-26.24851088779503,13.887885422198867],[-26.24851413217938,13.887888340655827],[-27.495009420085054,15.31438285579272],[-29.725201908381685,15.527682077887553],[-29.725205849551777,15.52768286915032],[-30.2940030457005,15.705881985648464],[-31.41810004338595,15.703181972327513],[-31.418104786626223,15.703182550810183],[-32.14170474421749,15.884982533349499],[-32.14170789201402,15.884983623204924],[-32.14171078388839,15.884985244126986],[-32.14171332606294,15.88498734355243],[-32.141715436100036,15.884989853401112],[-32.46391343805498,16.347586946338833],[-32.888710431692765,16.622984985377038],[-32.888712921295635,16.622986916938036],[-32.88871503049722,16.62298923366277],[-33.16230929372475,16.981181703939317],[-33.49529301813784,16.972182138878775],[-33.71578769883944,16.79218647798828],[-33.91828741122744,16.612186736731438],[-33.91829027223541,16.61218464110155],[-33.91829349163471,16.612183111325898],[-33.918296950815886,16.61218220376465],[-33.918300522335436,16.612181951854275],[-33.91830407461106,16.61218236487568],[-33.91830747676943,16.61218342761229],[-33.91831060346788,16.612185100910665],[-33.91831333951224,16.612187323122946],[-33.91831558410086,16.612190012378175],[-34.05331205801685,16.810184826130097],[-34.41780594169879,16.92718285732587],[-34.41780920952935,16.927184253812097],[-34.41781213920775,16.927186228461256],[-34.41781462316308,16.927188708768895],[-34.56630994549156,17.107183030541606],[-34.99829838216827,17.161181581017896],[-35.41229442939117,17.035182776479864],[-35.41229919529211,17.035181956519324],[-35.80829916470575,17.0171819554064],[-35.80829955542938,17.017181941372943],[-36.316796225017505,17.003682029699622],[-36.58678523582486,16.90018624310142],[-36.69028241595572,16.616694010307118],[-36.69028355519038,16.616691506289573],[-36.69028507107063,16.61668919680873],[-36.85678507611648,16.40068920409343],[-36.85678767262123,16.400686469285205],[-36.85679078998699,16.400684306181873],[-37.14929077648137,16.238684313308397],[-37.1492946670824,16.238682692507894],[-37.549794640938195,16.121682697779065],[-37.549797028415675,16.121682162050845],[-37.91879434344202,16.06318258768462],[-38.29229189787396,15.887683733977214],[-38.292295762225606,15.887682402827558],[-38.29229983256678,15.887681927040532],[-38.29230391104655,15.887682329743171],[-38.854799101729114,16.004681335609092],[-39.268790237888226,15.878684031902122],[-39.56578708344105,15.599687000959547],[-39.565789734511206,15.599684928709715],[-39.565792729997995,15.599683362115663],[-39.95729221380515,15.437683576235829],[-40.3847917119163,15.230683820102511],[-40.38479300835878,15.230683250575646],[-40.81679298645136,15.059683260039204],[-40.81679628885775,15.059682288566183],[-40.81679971994526,15.059681931224093],[-40.81680316074345,15.059682200403525],[-41.66730103366039,15.203681849483656],[-42.364798890456775,15.16588196738972],[-42.36480216702491,15.165882069352675],[-42.36480537587166,15.16588273166378],[-42.36480841671782,15.165883933625251],[-42.684308399942324,15.325183927783872],[-42.68431175593068,15.325186070528861],[-42.684314563631034,15.325188862934247],[-42.83730308467226,15.514174689190236],[-43.05958852531428,15.344985766143838],[-43.05959291706453,15.344983283980373],[-43.51769245862887,15.16228347047543],[-43.83089045042689,15.018284397481526],[-44.69998903714004,14.399985420575597],[-44.70001096286141,14.400014579423855],[-43.83091095153494,15.018314608430245],[-43.830907981126735,15.018316324591463],[-43.51770796848122,15.162316333411722],[-43.51770710445488,15.162316704137723],[-43.05960945654182,15.34501577135032],[-42.837311472139106,15.514214241401522],[-42.83730840954082,15.514216130659353],[-42.83730502497012,15.514217402329768],[-42.837301448010585,15.514218007724907],[-42.837297815611706,15.51421792366625],[-42.837294266845525,15.514217153372106],[-42.837290937582125,15.514215726334397],[-42.83728795528756,15.514213697189485],[-42.83728543414361,15.514211143626351],[-42.68428796337857,15.325214262056855],[-42.364796076233084,15.16591831028651],[-41.667301061837996,15.203718038997405],[-41.66729689698879,15.203717802900268],[-40.81680208535741,15.059718694769874],[-40.38480765112324,15.230716488926468],[-39.95730826905473,15.437716190420465],[-39.95730729020061,15.437716629397961],[-39.565810440636604,15.59971532843148],[-39.268812916208425,15.878713009679874],[-39.26880950150792,15.878715541820164],[-39.26880557951106,15.878717244165069],[-38.85480555391438,16.004717250920105],[-38.85480245228751,16.004717916507335],[-38.854799279158314,16.004718059695993],[-38.85479612704699,16.00471767631106],[-38.292302343617855,15.887718976891577],[-37.918808083151816,16.063216274252028],[-37.918802997688495,16.063217835370956],[-37.5498041834445,16.121717646522285],[-37.14930737342544,16.238716712890266],[-36.85681259343132,16.40071382273613],[-36.69031663531521,16.616708592104818],[-36.58681760170846,16.900205995698816],[-36.586815880284256,16.9002094732563],[-36.58681343678141,16.90021252006361],[-36.586810382306304,16.900214997582026],[-36.58680685574632,16.900216793158442],[-36.31680683874854,17.00371679768022],[-36.31680371768557,17.003717697543962],[-36.3168004837672,17.003718060174826],[-35.80830064000242,17.0172180535869],[-35.4123032420076,17.035217934148143],[-34.99830554157159,17.161217228050372],[-34.998301580119936,17.161217989634036],[-34.998297545002806,17.161217912537843],[-34.566297513171264,17.107217906654373],[-34.566294034829895,17.107217136883403],[-34.566290774355565,17.107215741218905],[-34.56628785083119,17.107213770634992],[-34.566285371033196,17.107211297103664],[-34.41778881609086,16.92721546337434],[-34.05329403665476,16.810217134106892],[-34.053290300939615,16.8102154682908],[-34.05328703795009,16.810213048560822],[-34.05328440672208,16.810209992852947],[-33.918296439727065,16.61222763620038],[-33.71581258464097,16.79221327035085],[-33.71581200728111,16.792213762238188],[-33.49531200100876,16.97221376941366],[-33.49530850772998,16.972216024374436],[-33.49530458616932,16.972217472663104],[-33.495300433739395,16.972218041372365],[-33.16230040803008,16.981218038704128],[-33.16229684332149,16.981217802804473],[-33.16229339420105,16.981216915019374],[-33.162290186965244,16.981215407856883],[-33.162287339053464,16.98121333650479],[-33.16228495474772,16.981210776809817],[-32.888686885660476,16.623013278520247],[-32.46388955889689,16.34761500000214],[-32.463886808466185,16.34761281418941],[-32.463884542036176,16.347610158220938],[-32.14168847468405,15.885015770384511],[-31.418097544294803,15.703218037363408],[-30.293999876167046,15.705918012054067],[-30.29399699126288,15.705917795718953],[-30.293994179390232,15.705917147425852],[-29.72519607479315,15.527717735404318],[-27.494997945169388,15.314417871077255],[-27.494994499496556,15.314417205845492],[-27.494991251751696,15.314415921485459],[-27.494988318800345,15.314414064213057],[-27.494985806180683,15.314411700859642],[-26.24848878781863,13.887915012122834],[-25.604999915994846,13.635919357231973],[-25.00650684980054,13.874416567535198],[-25.006505505992422,13.874417043413041],[-24.399010480847103,14.063415485222162],[-23.980514080987053,14.531411452655531],[-23.66551423063326,14.900411284155986],[-23.66551047332267,14.900414624221431],[-23.269510449450788,15.165914631282046],[-23.26950722231775,15.165916364548982],[-23.269503711597995,15.16591745525649],[-23.26950005514113,15.1659178605776],[-22.95900533750969,15.170417777675958],[-22.680009816520325,15.341415019755631],[-22.6799901834801,15.34138498024453],[-22.958990165213297,15.170384984061]]]]}},{"type":"Feature","properties":{"id":48,"group":"route-highway","name":"Glimmering road","route_id":null,"country_id":null,"class":null,"status":null,"surface":null,"notes":null},"geometry":{"type":"MultiPolygon","coordinates":[[[[-43.946086525898984,13.610712270729481],[-43.94608442776997,13.610709605978924],[-43.94608286869989,13.610706608701284],[-43.94608190265857,13.610703382652353],[-43.658981981970925,12.152703356201151],[-43.658981709319775,12.152701369548799],[-43.5968821915153,11.372406923391805],[-42.98128737870893,10.612813288816112],[-42.508789516151545,10.28431477161688],[-42.5087870613223,10.284312719790835],[-42.50878500700842,10.284310274225076],[-42.50878341680098,10.284307510621813],[-42.262183432698144,9.750607498594714],[-42.26218251980237,9.750605073249588],[-42.098383842883095,9.19620948061348],[-41.6051871083781,8.703012729228172],[-41.60518456663477,8.703009529757443],[-41.60518280998982,8.703005845506079],[-41.358582833313626,7.984805833246486],[-41.35858203248517,7.98480247537234],[-41.35858188655294,7.984799027273601],[-41.35858240083598,7.984795614629685],[-41.50258242352213,7.409695617108271],[-41.502583310549,7.409692965080543],[-41.50258459687866,7.409690481366505],[-41.76988460818392,6.978590488427061],[-41.769886673642965,6.97858776762503],[-42.24148606196759,6.46558845299497],[-42.59698335144442,5.989492106828523],[-42.73378220175165,5.440496795462739],[-42.83998209622909,4.499097991364424],[-42.90118210501023,3.952798050524045],[-42.94537191206242,3.538076733628602],[-42.96225698106169,3.371336718743952],[-42.968588883537166,3.221481780543938],[-42.96858939573295,3.221478199340756],[-42.96859060748304,3.221474791309586],[-42.96859247022493,3.221471693031842],[-42.996558456613336,3.18400782593767],[-42.99656056486586,3.184005464624436],[-42.996563050796276,3.184003509178912],[-43.03613755878222,3.158148164695469],[-43.03614121860202,3.158146329855978],[-43.0361451949653,3.158145372217114],[-43.09207716521438,3.151285791469881],[-43.09208173891499,3.151285819014653],[-43.1585653757121,3.160255834102799],[-43.41956580019251,3.150105439117543],[-43.53838187333824,1.812601163521809],[-43.44748329963709,1.38780779943989],[-42.98578580381571,0.78031108272435],[-42.22168708629998,-0.2042872725369],[-41.614188616761716,-0.706486011644676],[-41.614186075782904,-0.706488588789682],[-41.61418409904265,-0.706491628340927],[-41.61418276664264,-0.706495007129398],[-41.614182132574506,-0.706498588239482],[-41.55208213837744,-1.533598594212632],[-41.55208211705721,-1.533600991884061],[-41.58898212085162,-2.179800994690384],[-41.58898260504846,-2.179804252538228],[-41.58898366638401,-2.17980736929315],[-41.588985269644716,-2.179810241545845],[-41.88998527319232,-2.620010237663832],[-41.88998701213773,-2.62001240373542],[-41.88998905909183,-2.620014275650934],[-42.18208832022611,-2.848513691879537],[-42.63028764727216,-3.281413031528538],[-42.63029022173468,-3.281415098327949],[-43.3412902283705,-3.752115088435],[-43.34129357375115,-3.752116828923852],[-43.3412972018985,-3.752117828909278],[-43.341300953167426,-3.752118044390087],[-44.19990095364622,-3.710718036897198],[-44.19990431706633,-3.710717550120099],[-44.1999075247836,-3.710716430366098],[-44.94000751836112,-3.370016430082392],[-44.93999248163924,-3.369983569917493],[-44.19989560365291,-3.710682127579179],[-43.341304878122116,-3.752081671865795],[-42.63031115927695,-3.281385815871588],[-42.18211235711633,-2.84848696238438],[-42.182110938800086,-2.848485728450741],[-41.89001314371482,-2.619987447421932],[-41.58901758891078,-2.179793939400469],[-41.55211795122815,-1.533600207866181],[-41.614217287843054,-0.706509101837726],[-42.22171137684228,-0.204313996477062],[-42.22171413644353,-0.204311148865319],[-42.98581413137393,0.780288833932136],[-42.98581426001717,0.780289001381744],[-43.44751425690505,1.387788990050173],[-43.44751629596464,1.387792389422707],[-43.44751754581303,1.3877961573744],[-43.538417551241615,1.812596151373381],[-43.538417920464575,1.812598849713187],[-43.538417881984365,1.812601574222827],[-43.41960022280835,3.150124436616321],[-43.41959951667778,3.150128092425305],[-43.41959807985015,3.150131526488258],[-43.41959597334487,3.150134592966879],[-43.41959328662132,3.150137161633477],[-43.41959013377967,3.150139123401537],[-43.41958664871529,3.150140394958379],[-43.41958297943242,3.150140922303334],[-43.158565152635624,3.160292001793999],[-43.158562069362745,3.160291854646838],[-43.09207917872221,3.151321941476006],[-43.036153634024295,3.158180735286224],[-42.996585300908286,3.184032046957817],[-42.96862458205815,3.221488860528326],[-42.96229290141354,3.371338729844352],[-42.96229282508274,3.371339794509478],[-42.94540770594097,3.538080387763795],[-42.94540769580262,3.538080485300466],[-42.90121790043708,3.952801898295445],[-42.90121788925233,3.95280200062362],[-42.84001790492748,4.499101998298516],[-42.84001790260268,4.499102018970306],[-42.733817932146,5.440502015265958],[-42.73381750889603,5.440504365817909],[-42.59701752738807,5.989504366584465],[-42.597016321730095,5.989507738220838],[-42.59701447525181,5.989510806040841],[-42.24151448518932,6.465610814829284],[-42.24151331978078,6.465612220279898],[-41.76991448834199,6.978610969838527],[-41.50261689152025,7.40970712009457],[-41.35861889508673,7.984799213084944],[-41.60521583615882,8.70299022152566],[-42.09841288757258,9.196187256853552],[-42.09841483448128,9.196189552454017],[-42.09841637248664,9.19619213603468],[-42.098417459194465,9.196194936380728],[-42.262217111492134,9.750593681678682],[-42.50881452435423,10.284288043204363],[-42.9813104697086,10.61278521839018],[-42.98131426154079,10.612788742352024],[-43.59691426462542,11.372388719691674],[-43.59691625705124,11.372391742511754],[-43.59691760266426,11.372395093869242],[-43.59691824792711,11.372398640425015],[-43.65901821043587,12.152697629824953],[-43.94611708597003,13.610691528633955],[-44.70001346736084,14.399987701732186],[-44.69998653263815,14.400012298267505],[-43.946086525898984,13.610712270729481]]]]}},{"type":"Feature","properties":{"id":52,"group":"route-highway","name":"Ocean Road","route_id":null,"country_id":null,"class":null,"status":null,"surface":null,"notes":null},"geometry":{"type":"MultiPolygon","coordinates":[[[[-21.680983576127467,10.955707943221748],[-21.392083737105267,10.404008183835955],[-21.39208236754754,10.404004710753501],[-21.39208177044443,10.404001031299144],[-21.39208197195425,10.403997306664941],[-21.39208296324905,10.40399370002222],[-21.81148293529709,9.3284938653339],[-21.995080292642854,8.829901113006386],[-21.601783713494466,8.042407883066916],[-21.60178251559939,8.04240478900154],[-21.60178192155466,8.042401529540737],[-21.60178195187655,8.042398217254929],[-21.601782605517784,8.042394966538941],[-21.759282615460105,7.517694986614498],[-21.759283858701053,7.517691913022294],[-21.759285657252303,7.517689117646989],[-21.759287949238168,7.517686696658091],[-22.415385327387405,6.939889002259585],[-22.756483607512813,6.257692453753658],[-23.334282615524454,4.945494770965899],[-23.464782260818033,4.211096849402137],[-23.464782389743252,4.211096191266464],[-23.622282399361964,3.475796214968225],[-23.62228364439723,3.475792471930272],[-23.62228568655238,3.475789095786417],[-23.622288426299278,3.475786251079124],[-24.094785569641306,3.082488624942799],[-24.515082041761257,2.242795686228829],[-24.515082051277787,1.638901795987481],[-24.38368247257365,1.035003676534513],[-24.20008248982369,0.195303678696927],[-24.200082071576908,0.195299849253433],[-24.20008248200435,0.195296026777643],[-24.200083702135547,0.195292387949186],[-24.200085675574496,0.195289100959274],[-24.200088311106374,0.195286317736698],[-24.7247882923909,-0.251113676684393],[-24.72478907994848,-0.251114310076382],[-25.3808836383996,-0.74971017796939],[-25.512282383850128,-1.458003439193312],[-25.512282439116273,-1.458003725619786],[-25.617582436936697,-1.982703711662864],[-25.61758336662312,-1.982706837841852],[-25.8272830367883,-2.507406016357378],[-25.98928278845027,-3.069005165512973],[-25.98928411750716,-3.069008483917493],[-25.98928608277239,-3.069011462479959],[-25.989288605522933,-3.06901398188747],[-25.98929158470443,-3.069015941219605],[-25.989294900979196,-3.069017261990984],[-26.71019489174626,-3.275117272382301],[-26.71019755049453,-3.275117818034628],[-27.517497546174305,-3.377717832568415],[-27.517500397797203,-3.377717965659496],[-27.517503239298826,-3.377717641644406],[-28.22129800945825,-3.240018680289268],[-28.976388652295224,-3.549614853666731],[-29.303084200225467,-3.978909010237097],[-29.55418292754075,-4.633205709510133],[-29.68468267158229,-5.131804749826085],[-29.684684165440668,-5.131808590834971],[-29.684686495367337,-5.13181197824584],[-30.52258647431816,-6.091211966482863],[-30.522589043481915,-6.091214378593214],[-30.522592038394432,-6.091216231979687],[-30.52259534267932,-6.091217454623362],[-31.344619320217856,-6.30552405509425],[-31.393832202710076,-6.320416799714141],[-31.393842821553758,-6.320382243259975],[-31.34462961395462,-6.305489400957009],[-31.34462895977471,-6.305489216639301],[-30.52260993802493,-6.091183919723538],[-29.684716263928657,-5.131791176216092],[-29.55421732161881,-4.633195240823255],[-29.554216721423195,-4.633193374226919],[-29.303116711599387,-3.978893361596922],[-29.303114266087107,-3.978888972562104],[-28.976414256861766,-3.549588965494281],[-28.97641215433145,-3.549586658980298],[-28.97640968109488,-3.549584759366489],[-28.976406912585624,-3.549583324590931],[-28.2213069023035,-3.239983329870655],[-28.22130361141898,-3.239982343632085],[-28.22130018694384,-3.239982010523361],[-28.22129675555344,-3.23998234286655],[-27.517499597076213,-3.377681802842378],[-26.710203800807772,-3.275082352976167],[-25.98931450351219,-3.068985420471769],[-25.827317205145395,-2.507394819994675],[-25.82731664102221,-2.507393175755035],[-25.61761724169965,-1.982694680984698],[-25.512317589685345,-1.457996417355726],[-25.38091761519481,-0.74969654175825],[-25.380916727471767,-0.749693407480229],[-25.38091528460161,-0.749690491993097],[-25.38091333446997,-0.749687892055283],[-25.38091094179731,-0.749685693952887],[-24.724811322920633,-0.251085995375636],[-24.200119810229022,0.195306786960571],[-24.38371752892008,1.034996330306268],[-24.515117543387433,1.63889633455013],[-24.515117950357585,1.638900113868771],[-24.515117961823407,2.242800129388059],[-24.515117487201124,2.242804200622313],[-24.515116095213596,2.242808051495123],[-24.094816088104512,3.082508077230957],[-24.094814132221835,3.082511140044138],[-24.094811592384517,3.082513742541849],[-23.622316319005137,3.475809807819938],[-23.464817680944066,4.211103480890796],[-23.33431775245176,4.945503174241912],[-23.334316548543786,4.945507143070365],[-22.756516551063505,6.257707189109462],[-22.75651621827326,6.257707896183923],[-22.41541621776734,6.939907920900478],[-22.41541440845861,6.939910799745736],[-22.415412080352507,6.939913289730557],[-21.75931592202058,7.51770990780753],[-21.601819407399006,8.042398358021197],[-21.995116331362375,8.829892119251422],[-21.995117591815077,8.82989545644166],[-21.995118150318596,8.829898974929145],[-21.995117984587477,8.829902534319057],[-21.995117101234708,8.829905992584484],[-21.811517109996576,9.328506012153674],[-21.811517017591882,9.328506256524276],[-21.392119959173087,10.403998870850327],[-21.681016297898584,10.955691816085977],[-21.681016542255293,10.955692301138756],[-22.08453987773022,11.789348785534619],[-22.084506683841447,11.789364180662375],[-21.680983576127467,10.955707943221748]]]]}}]}