{"type":"FeatureCollection","name":"political_line_labels","crs":{"type":"name","properties":{"name":"urn:ogc:def:crs:OGC:1.3:CRS84"}},"features":[{"type":"Feature","properties":{"id":"lbl_libibiisland","target_id":"island_libibiisland","label_text":"Libibi Island","label_type":"island","rank":null,"min_zoom":7,"max_zoom":11,"font_size":null,"font_style":null,"font_weight":null,"text_transform":null,"letter_spacing":null,"placement":null,"start_offset":null,"text_anchor":null,"repeat":false,"visibility":null,"certainty":null,"notes":null,"font_color":"#202124","font_family":"Helvetica Neue"},"geometry":{"type":"LineString","coordinates":[[-35.26973497391503,-14.747894219223559],[-34.56019079822196,-14.31028988179171]]}},{"type":"Feature","properties":{"id":"lbl_musliisland","target_id":"island_lusliisland","label_text":"Musli Island","label_type":"island","rank":null,"min_zoom":9,"max_zoom":13,"font_size":null,"font_style":null,"font_weight":null,"text_transform":null,"letter_spacing":null,"placement":null,"start_offset":null,"text_anchor":null,"repeat":false,"visibility":null,"certainty":null,"notes":null,"font_color":"#202124","font_family":"Helvetica Neue"},"geometry":{"type":"LineString","coordinates":[[-76.79323578076097,-22.326564463545218],[-76.55245321136576,-22.326337951250398]]}},{"type":"Feature","properties":{"id":"lbl_alonah","target_id":"island_alonah","label_text":"Alonah","label_type":"island","rank":null,"min_zoom":10,"max_zoom":13,"font_size":null,"font_style":null,"font_weight":null,"text_transform":null,"letter_spacing":null,"placement":null,"start_offset":null,"text_anchor":null,"repeat":false,"visibility":null,"certainty":null,"notes":null,"font_color":"#202124","font_family":"Helvetica Neue"},"geometry":{"type":"LineString","coordinates":[[-72.67524989459719,-19.662185562720534],[-72.52113314874234,-19.665426335413745]]}},{"type":"Feature","properties":{"id":"lbl_ajaneaisland","target_id":"island_ajaneaisland","label_text":"Ajanea","label_type":"island","rank":null,"min_zoom":7,"max_zoom":11,"font_size":null,"font_style":null,"font_weight":null,"text_transform":null,"letter_spacing":null,"placement":null,"start_offset":null,"text_anchor":null,"repeat":false,"visibility":null,"certainty":null,"notes":null,"font_color":"#202124","font_family":"Helvetica Neue"},"geometry":{"type":"LineString","coordinates":[[-78.9889525016973,-31.144219919606105],[-78.08504895245655,-31.14148909317335]]}},{"type":"Feature","properties":{"id":"lbl_noxochisle","target_id":"island_noxochisle","label_text":"Noxoch Isle","label_type":"island","rank":null,"min_zoom":11,"max_zoom":15,"font_size":null,"font_style":null,"font_weight":null,"text_transform":null,"letter_spacing":null,"placement":null,"start_offset":null,"text_anchor":null,"repeat":false,"visibility":null,"certainty":null,"notes":null,"font_color":"#202124","font_family":"Helvetica Neue"},"geometry":{"type":"LineString","coordinates":[[-5.800124632110887,39.049390182578485],[-5.713348402505159,39.04799805055273]]}},{"type":"Feature","properties":{"id":"lbl_saintavelineisland","target_id":"wiki/Saint_Aveline","label_text":"Saint Aveline Island","label_type":"island","rank":"1","min_zoom":12,"max_zoom":16,"font_size":"12","font_style":"italic","font_weight":"400","text_transform":"capitalize","letter_spacing":"0","placement":null,"start_offset":null,"text_anchor":null,"repeat":false,"visibility":null,"certainty":null,"notes":null,"font_color":"#757574","font_family":"Helvetica Neue"},"geometry":{"type":"LineString","coordinates":[[-5.506481862475439,33.90104086275188],[-5.478462740389775,33.90104086275188]]}},{"type":"Feature","properties":{"id":"lbl_gunseyisland","target_id":"wiki/Gunsey","label_text":"Gunsey Island","label_type":"island","rank":"1","min_zoom":10,"max_zoom":12,"font_size":"12","font_style":"italic","font_weight":"400","text_transform":null,"letter_spacing":null,"placement":null,"start_offset":null,"text_anchor":null,"repeat":false,"visibility":null,"certainty":null,"notes":null,"font_color":"#757574","font_family":"Helvetica Neue"},"geometry":{"type":"LineString","coordinates":[[-3.738030523463974,29.75211660465892],[-3.398258692708017,29.756500757313834]]}},{"type":"Feature","properties":{"id":"lbl_sableisle","target_id":"island_sableisle","label_text":"Sable Isle","label_type":"island","rank":"1","min_zoom":10,"max_zoom":12,"font_size":"12","font_style":"italic","font_weight":"400","text_transform":null,"letter_spacing":null,"placement":null,"start_offset":null,"text_anchor":null,"repeat":false,"visibility":null,"certainty":null,"notes":null,"font_color":"#757574","font_family":"Helvetica Neue"},"geometry":{"type":"LineString","coordinates":[[-6.429464214432083,30.396136362579462],[-5.851630606211383,30.388599402472234]]}},{"type":"Feature","properties":{"id":"lbl_barrelislands","target_id":null,"label_text":"Barrel Islands","label_type":"island_group","rank":null,"min_zoom":5,"max_zoom":8,"font_size":null,"font_style":null,"font_weight":null,"text_transform":null,"letter_spacing":null,"placement":null,"start_offset":null,"text_anchor":null,"repeat":false,"visibility":null,"certainty":null,"notes":null,"font_color":"#0b8699","font_family":"Helvetica Neue"},"geometry":{"type":"LineString","coordinates":[[-4.03526666554442,-31.00521729270657],[3.727746894347021,-26.680854034512006]]}},{"type":"Feature","properties":{"id":"lbl_boneislands","target_id":"wiki/BoneIslands","label_text":"Bone Islands","label_type":"island_group","rank":"1","min_zoom":6,"max_zoom":9,"font_size":null,"font_style":null,"font_weight":null,"text_transform":null,"letter_spacing":null,"placement":null,"start_offset":null,"text_anchor":null,"repeat":false,"visibility":null,"certainty":null,"notes":null,"font_color":"#202124","font_family":"Helvetica Neue"},"geometry":{"type":"LineString","coordinates":[[-78.92429168699783,-29.073427395177387],[-78.86930927723698,-29.113200688661863],[-78.81364844869289,-29.1520188857284],[-78.75732579043301,-29.18987041706141],[-78.70035808877557,-29.226744001448886],[-78.64276232228649,-29.262628649144613],[-78.58455565671916,-29.297513665143537],[-78.52575543989842,-29.331388652369302],[-78.46637919655018,-29.364243514772966],[-78.40644462307844,-29.396068460342015],[-78.34596958229103,-29.426854004018757],[-78.28497209807583,-29.456590970527245],[-78.22347035002892,-29.485270497107848],[-78.16148266803646,-29.512884036158695],[-78.09902752681155,-29.539423357783207],[-78.03612354038816,-29.564880552242897],[-77.97278945657338,-29.589248032314796],[-77.90904415135986,-29.61251853555273],[-77.84490662330003,-29.634685126451814],[-77.78039598784385,-29.655741198515475],[-77.71553147164157,-29.675680476224485],[-77.65033240681358,-29.694497016907263],[-77.58481822518857,-29.71218521251105],[-77.5190084525122,-29.72873979127331],[-77.45292270262759,-29.744155819292928],[-77.38658067162972,-29.758428702000685],[-77.32000213199517,-29.77155418552864],[-77.2532069266892,-29.783528357977925],[-77.18621496325177,-29.79434765058465],[-77.11904620786433,-29.804008838783542],[-77.05172067939914,-29.81250904316897],[-76.98425844345283,-29.819845730353123],[-76.91667960636619,-29.826016713721074],[-76.84900430923155,-29.831020154082463],[-76.78125272189008,-29.834854560219636],[-76.7134450369204,-29.837518789332105],[-76.64560146362032,-29.839012047377132],[-76.5777422219838,-29.839333889306396],[-76.50988753667453,-29.838484219198623],[-76.44205763099826,-29.836463290288183],[-76.37427272087547,-29.833271704889608],[-76.3065530088162,-29.828910414218093],[-76.23891867789898,-29.823380718105977],[-76.17138988575547,-29.81668426461536],[-76.10398675856274,-29.808823049546916],[-76.03672938504485,-29.799799415845055],[-75.96963781048564,-29.789616052899646],[-75.9027320307545,-29.77827599574448],[-75.83603198634687,-29.765782624152692],[-75.76955755644106,-29.752139661629485],[-75.70332855297364,-29.737351174302365],[-75.63736471473463,-29.721421569709275]]}},{"type":"Feature","properties":{"id":"lbl_gracieisland","target_id":"wiki/BoneIslands","label_text":"Gracie Island","label_type":"island","rank":"1","min_zoom":9,"max_zoom":12,"font_size":"12","font_style":"italic","font_weight":"300","text_transform":null,"letter_spacing":null,"placement":null,"start_offset":null,"text_anchor":null,"repeat":false,"visibility":null,"certainty":null,"notes":null,"font_color":"#202124","font_family":"Helvetica Neue"},"geometry":{"type":"LineString","coordinates":[[-75.10944515839475,-31.159759320120138],[-74.77077500279182,-31.16325076502326]]}},{"type":"Feature","properties":{"id":"lbl_betsumoa","target_id":"wiki/BoneIslands","label_text":"Betsu-Moa Island","label_type":"island","rank":"1","min_zoom":9,"max_zoom":12,"font_size":"12","font_style":"italic","font_weight":"300","text_transform":null,"letter_spacing":null,"placement":null,"start_offset":null,"text_anchor":null,"repeat":false,"visibility":null,"certainty":null,"notes":null,"font_color":"#202124","font_family":"Helvetica Neue"},"geometry":{"type":"LineString","coordinates":[[-75.36717611794727,-31.022732360680948],[-75.10422196016621,-31.022732360680948]]}},{"type":"Feature","properties":{"id":"lbl_chaosisland","target_id":"wiki/BoneIslands","label_text":"Chaos Island","label_type":"island","rank":"1","min_zoom":9,"max_zoom":12,"font_size":"12","font_style":"italic","font_weight":"300","text_transform":null,"letter_spacing":null,"placement":null,"start_offset":null,"text_anchor":null,"repeat":false,"visibility":null,"certainty":null,"notes":null,"font_color":"#202124","font_family":"Helvetica Neue"},"geometry":{"type":"LineString","coordinates":[[-75.23915763365689,-30.61946484953034],[-75.00406701017994,-30.617137219594923]]}},{"type":"Feature","properties":{"id":"lbl_pearlisland","target_id":"wiki/BoneIslands","label_text":"Pearl Island","label_type":"island","rank":null,"min_zoom":9,"max_zoom":12,"font_size":"12","font_style":"italic","font_weight":"300","text_transform":null,"letter_spacing":null,"placement":null,"start_offset":null,"text_anchor":null,"repeat":false,"visibility":null,"certainty":null,"notes":null,"font_color":"#202124","font_family":"Helvetica Neue"},"geometry":{"type":"LineString","coordinates":[[-74.9549169921875,-30.620835937499997],[-74.7756376953125,-30.616980468749997]]}},{"type":"Feature","properties":{"id":"lbl_lukmaksinisland","target_id":"wiki/BoneIslands","label_text":"Lukmaksin Island","label_type":"island","rank":"1","min_zoom":9,"max_zoom":12,"font_size":"12","font_style":"italic","font_weight":"300","text_transform":null,"letter_spacing":null,"placement":null,"start_offset":null,"text_anchor":null,"repeat":false,"visibility":null,"certainty":null,"notes":null,"font_color":"#202124","font_family":"Helvetica Neue"},"geometry":{"type":"LineString","coordinates":[[-74.8006982421875,-30.313362304687494],[-74.614671875,-30.31047070312499]]}},{"type":"Feature","properties":{"id":"lbl_thalensisland","target_id":"wiki/BoneIslands","label_text":"Thalen's Island","label_type":"island","rank":"1","min_zoom":14,"max_zoom":16,"font_size":"12","font_style":"italic","font_weight":"300","text_transform":null,"letter_spacing":null,"placement":null,"start_offset":null,"text_anchor":null,"repeat":false,"visibility":null,"certainty":null,"notes":null,"font_color":"#202124","font_family":"Helvetica Neue"},"geometry":{"type":"LineString","coordinates":[[-75.34279936961147,-30.60828285619462],[-75.33103770215352,-30.607918556760083]]}},{"type":"Feature","properties":{"id":"lbl_decaraisland","target_id":"wiki/BoneIslands","label_text":"Decara Island","label_type":"island","rank":"1","min_zoom":14,"max_zoom":19,"font_size":"12","font_style":"italic","font_weight":"300","text_transform":null,"letter_spacing":"7","placement":null,"start_offset":null,"text_anchor":null,"repeat":false,"visibility":null,"certainty":null,"notes":null,"font_color":"#202124","font_family":"Helvetica Neue"},"geometry":{"type":"LineString","coordinates":[[-75.94271519470217,-30.559396934509273],[-75.93735368347171,-30.55929151153564]]}},{"type":"Feature","properties":{"id":"lbl_grandwaywardisle","target_id":"wiki/BarrelIslands","label_text":"Grand Wayward Isle","label_type":"island","rank":"1","min_zoom":7,"max_zoom":10,"font_size":"12","font_style":"italic","font_weight":"300","text_transform":null,"letter_spacing":null,"placement":null,"start_offset":null,"text_anchor":null,"repeat":false,"visibility":null,"certainty":null,"notes":null,"font_color":"#202124","font_family":"Helvetica Neue"},"geometry":{"type":"LineString","coordinates":[[-3.308248024878321,-26.968802764829498],[0.704427363617564,-26.950051945257087]]}},{"type":"Feature","properties":{"id":"lbl_passageisle","target_id":"wiki/BarrelIslands","label_text":"Passage Isle","label_type":"island","rank":"1","min_zoom":7,"max_zoom":9,"font_size":"12","font_style":"italic","font_weight":"300","text_transform":null,"letter_spacing":null,"placement":null,"start_offset":null,"text_anchor":null,"repeat":false,"visibility":null,"certainty":null,"notes":null,"font_color":"#202124","font_family":"Helvetica Neue"},"geometry":{"type":"LineString","coordinates":[[2.028093750000587,-28.61406445312499],[3.045937500000597,-28.65261914062499]]}},{"type":"Feature","properties":{"id":"lbl_meridianisland","target_id":"wiki/BarrelIslands","label_text":"Meridian Island","label_type":"island","rank":"1","min_zoom":7,"max_zoom":9,"font_size":"12","font_style":"italic","font_weight":"300","text_transform":null,"letter_spacing":null,"placement":null,"start_offset":null,"text_anchor":null,"repeat":false,"visibility":null,"certainty":null,"notes":null,"font_color":"#202124","font_family":"Helvetica Neue"},"geometry":{"type":"LineString","coordinates":[[-1.037003906249441,-31.297470703125],[0.890730468750577,-31.274337890625002]]}},{"type":"Feature","properties":{"id":"lbl_thefarlands","target_id":"wiki/The_Farlands","label_text":"The Farlands","label_type":"island_group","rank":"1","min_zoom":6,"max_zoom":8,"font_size":"14","font_style":"normal","font_weight":"450","text_transform":null,"letter_spacing":null,"placement":null,"start_offset":null,"text_anchor":null,"repeat":false,"visibility":null,"certainty":null,"notes":null,"font_color":"#0b8699","font_family":"Helvetica Neue"},"geometry":{"type":"LineString","coordinates":[[-9.796765220576395,31.91533052182104],[2.621985845744799,31.907713572904754]]}},{"type":"Feature","properties":{"id":"lbl_nomi","target_id":"wiki/Ronobetu","label_text":"Nomi Island","label_type":"island","rank":"1","min_zoom":6,"max_zoom":10,"font_size":"14","font_style":"italic","font_weight":"300","text_transform":null,"letter_spacing":null,"placement":null,"start_offset":null,"text_anchor":null,"repeat":false,"visibility":null,"certainty":null,"notes":"Named by Matthew on 2026-06-15","font_color":null,"font_family":"Helvetica Neue"},"geometry":{"type":"LineString","coordinates":[[-80.62166697811972,-4.386517380369511],[-78.88848329468034,-4.381916007758611]]}},{"type":"Feature","properties":{"id":"lbl_genesisisland","target_id":"island_genesisisland","label_text":"Genesis Island","label_type":"island","rank":null,"min_zoom":12,"max_zoom":14,"font_size":"12","font_style":"italic","font_weight":"300","text_transform":null,"letter_spacing":null,"placement":null,"start_offset":null,"text_anchor":null,"repeat":false,"visibility":null,"certainty":null,"notes":null,"font_color":"#757574","font_family":"Helvetica Neue"},"geometry":{"type":"LineString","coordinates":[[1.104706019087762,26.72244317763392],[1.120354439160369,26.722294773228594]]}},{"type":"Feature","properties":{"id":"lbl_reygaisland","target_id":"island_reygaisland","label_text":"Reyga Island","label_type":"island","rank":null,"min_zoom":10,"max_zoom":14,"font_size":"12","font_style":"italic","font_weight":"300","text_transform":null,"letter_spacing":null,"placement":null,"start_offset":null,"text_anchor":null,"repeat":false,"visibility":null,"certainty":null,"notes":null,"font_color":"#202124","font_family":"Helvetica Neue"},"geometry":{"type":"LineString","coordinates":[[-69.21267824738487,-12.26769782901048],[-68.3810859174568,-12.259255267285322]]}},{"type":"Feature","properties":{"id":"lbl_successisland","target_id":"lbl_successisland","label_text":"Success Island","label_type":"island","rank":null,"min_zoom":6,"max_zoom":13,"font_size":"12","font_style":"italic","font_weight":"300","text_transform":null,"letter_spacing":null,"placement":null,"start_offset":null,"text_anchor":null,"repeat":false,"visibility":null,"certainty":null,"notes":null,"font_color":"#202124","font_family":"Helvetica Neue"},"geometry":{"type":"LineString","coordinates":[[-33.43191143570699,-11.712437880982748],[-31.481030829795042,-11.73978667452357]]}},{"type":"Feature","properties":{"id":"lbl_doon","target_id":"wiki/DoonIsland","label_text":"Doon Island","label_type":"island","rank":null,"min_zoom":7,"max_zoom":13,"font_size":"12","font_style":"italic","font_weight":"300","text_transform":null,"letter_spacing":null,"placement":null,"start_offset":null,"text_anchor":null,"repeat":false,"visibility":null,"certainty":null,"notes":null,"font_color":"#202124","font_family":"Helvetica Neue"},"geometry":{"type":"LineString","coordinates":[[-31.40810071368618,-9.064163039779844],[-30.49875332845386,-9.061883973651442]]}},{"type":"Feature","properties":{"id":"lbl_lezgo","target_id":"wiki/LezgoIsland","label_text":"Lezgo Island","label_type":"island","rank":null,"min_zoom":8,"max_zoom":13,"font_size":"12","font_style":"italic","font_weight":"300","text_transform":null,"letter_spacing":null,"placement":null,"start_offset":null,"text_anchor":null,"repeat":false,"visibility":null,"certainty":null,"notes":null,"font_color":"#202124","font_family":"Helvetica Neue"},"geometry":{"type":"LineString","coordinates":[[-31.460519234639424,-10.3939981257023],[-30.832636516264724,-10.388300460381295]]}}]}