{"type":"FeatureCollection","name":"political_line_labels","crs":{"type":"name","properties":{"name":"urn:ogc:def:crs:OGC:1.3:CRS84"}},"features":[{"type":"Feature","properties":{"id":"lbl_thornbelt","target_id":"country_thornbelt","label_text":"Thornbelt","label_type":"country","rank":null,"min_zoom":4,"max_zoom":10,"font_size":"13","font_style":null,"font_weight":null,"text_transform":null,"letter_spacing":null,"placement":null,"start_offset":null,"text_anchor":null,"repeat":false,"visibility":null,"certainty":null,"notes":null},"geometry":{"type":"LineString","coordinates":[[-63.99498896921399,11.261432150565083],[-62.0,16.279131679194208],[-61.026474325104545,17.487916723166812]]}},{"type":"Feature","properties":{"id":"lbl_bibishirif","target_id":"wiki/Bibi_Shirif","label_text":"Bibi Shirif","label_type":"country","rank":null,"min_zoom":2,"max_zoom":7,"font_size":"13","font_style":null,"font_weight":null,"text_transform":null,"letter_spacing":null,"placement":null,"start_offset":null,"text_anchor":null,"repeat":false,"visibility":null,"certainty":null,"notes":null},"geometry":{"type":"LineString","coordinates":[[-36.57314864763335,4.414761309088783],[-23.54978786012068,4.337927322141807]]}},{"type":"Feature","properties":{"id":"lbl_robobetu","target_id":"wiki/Ronobetu","label_text":"Ronobetu","label_type":"country","rank":"2","min_zoom":2,"max_zoom":7,"font_size":"13","font_style":null,"font_weight":null,"text_transform":null,"letter_spacing":null,"placement":null,"start_offset":null,"text_anchor":null,"repeat":false,"visibility":null,"certainty":null,"notes":null},"geometry":{"type":"LineString","coordinates":[[-75.53873817857355,-4.027654789262645],[-64.36043654195173,-4.285615596261611]]}},{"type":"Feature","properties":{"id":"lbl_velu","target_id":"wiki/Velu","label_text":"Velu","label_type":"country","rank":null,"min_zoom":2,"max_zoom":10,"font_size":"13","font_style":null,"font_weight":null,"text_transform":null,"letter_spacing":null,"placement":null,"start_offset":null,"text_anchor":null,"repeat":false,"visibility":null,"certainty":null,"notes":null},"geometry":{"type":"LineString","coordinates":[[16.768846790305645,13.970988435619105],[31.849694215575056,14.111187287869965]]}},{"type":"Feature","properties":{"id":"lbl_nedma","target_id":"wiki/Nedma","label_text":"Nedma","label_type":"country","rank":null,"min_zoom":3,"max_zoom":9,"font_size":"13","font_style":null,"font_weight":null,"text_transform":null,"letter_spacing":null,"placement":null,"start_offset":null,"text_anchor":null,"repeat":false,"visibility":null,"certainty":null,"notes":null},"geometry":{"type":"LineString","coordinates":[[-32.185361042234405,-16.705946930129073],[-27.575321825415767,-16.629112943182097]]}},{"type":"Feature","properties":{"id":"lbl_easternvoid","target_id":"wiki/EasternVoid","label_text":"Eastern Void","label_type":"country","rank":null,"min_zoom":2,"max_zoom":10,"font_size":"13","font_style":null,"font_weight":null,"text_transform":null,"letter_spacing":null,"placement":null,"start_offset":null,"text_anchor":null,"repeat":false,"visibility":null,"certainty":null,"notes":null},"geometry":{"type":"LineString","coordinates":[[47.30451710406993,-37.48220676718607],[48.97807281608306,-27.524550280707924],[50.3587562784939,-14.889204655008758]]}},{"type":"Feature","properties":{"id":"lbl_southernvoid","target_id":"wiki/SouthernVoid","label_text":"Southern Void","label_type":"country","rank":null,"min_zoom":4,"max_zoom":10,"font_size":"13","font_style":null,"font_weight":null,"text_transform":null,"letter_spacing":null,"placement":null,"start_offset":null,"text_anchor":null,"repeat":false,"visibility":null,"certainty":null,"notes":null},"geometry":{"type":"LineString","coordinates":[[-72.97265503650246,-38.56069019475615],[-62.40521512979907,-38.58862175398089]]}},{"type":"Feature","properties":{"id":"lbl_soumoa","target_id":"wiki/Soumoa","label_text":"Soumoa","label_type":"country","rank":null,"min_zoom":4,"max_zoom":10,"font_size":"13","font_style":null,"font_weight":null,"text_transform":null,"letter_spacing":null,"placement":null,"start_offset":null,"text_anchor":null,"repeat":false,"visibility":null,"certainty":null,"notes":null},"geometry":{"type":"LineString","coordinates":[[-43.94768315250712,1.622294767729537],[-39.55624101932482,1.686716901712652]]}},{"type":"Feature","properties":{"id":"lbl_obetoku","target_id":"wiki/Obetoku","label_text":"Obetoku","label_type":"country","rank":null,"min_zoom":4,"max_zoom":10,"font_size":"13","font_style":null,"font_weight":null,"text_transform":null,"letter_spacing":null,"placement":null,"start_offset":null,"text_anchor":null,"repeat":false,"visibility":null,"certainty":null,"notes":null},"geometry":{"type":"LineString","coordinates":[[-47.45332094342157,-11.505951910982219],[-43.78841732127107,-11.362791613241965]]}},{"type":"Feature","properties":{"id":"lnl_totoku","target_id":"wiki/Totoku","label_text":"Totoku","label_type":"country","rank":null,"min_zoom":4,"max_zoom":10,"font_size":"13","font_style":null,"font_weight":null,"text_transform":null,"letter_spacing":null,"placement":null,"start_offset":null,"text_anchor":null,"repeat":false,"visibility":null,"certainty":null,"notes":null},"geometry":{"type":"LineString","coordinates":[[-40.39551826482705,-17.132151612174205],[-37.7184206970843,-17.06057146330408]]}},{"type":"Feature","properties":{"id":"lbl_endotoku","target_id":"wiki/Endotoku","label_text":"Endotoku","label_type":"country","rank":null,"min_zoom":4,"max_zoom":10,"font_size":"13","font_style":null,"font_weight":null,"text_transform":null,"letter_spacing":null,"placement":null,"start_offset":null,"text_anchor":null,"repeat":false,"visibility":null,"certainty":null,"notes":null},"geometry":{"type":"LineString","coordinates":[[-41.97028153996985,-11.19099925595366],[-37.99042526279078,-11.13373513685756]]}},{"type":"Feature","properties":{"id":"lbl_duvessa","target_id":"wiki/Duvessa","label_text":"Duvessa","label_type":"country","rank":null,"min_zoom":2,"max_zoom":10,"font_size":"13","font_style":null,"font_weight":null,"text_transform":null,"letter_spacing":null,"placement":null,"start_offset":null,"text_anchor":null,"repeat":false,"visibility":null,"certainty":null,"notes":null},"geometry":{"type":"LineString","coordinates":[[-34.75500253386104,19.54551666887894],[-22.84406576187188,19.430988430686735]]}},{"type":"Feature","properties":{"id":"lbl_stsutodo","target_id":"wiki/S_Tsutodo","label_text":"S'Tsutodo","label_type":"country","rank":null,"min_zoom":4,"max_zoom":10,"font_size":"13","font_style":null,"font_weight":null,"text_transform":null,"letter_spacing":null,"placement":null,"start_offset":null,"text_anchor":null,"repeat":false,"visibility":null,"certainty":null,"notes":null},"geometry":{"type":"LineString","coordinates":[[-74.21668904270388,-15.979838846881364],[-70.0248259289707,-16.001335580797946]]}},{"type":"Feature","properties":{"id":"lbl_hav","target_id":"wiki/Hav","label_text":"Hav","label_type":"country","rank":null,"min_zoom":2,"max_zoom":8,"font_size":"13","font_style":null,"font_weight":null,"text_transform":null,"letter_spacing":null,"placement":null,"start_offset":null,"text_anchor":null,"repeat":false,"visibility":null,"certainty":null,"notes":null},"geometry":{"type":"LineString","coordinates":[[-72.38023664748485,-32.13714031907462],[-66.23865987442792,-31.965347961786314]]}},{"type":"Feature","properties":{"id":"lbl_tsutodo","target_id":"wiki/Tsutodo","label_text":"Tsutodo","label_type":"country","rank":null,"min_zoom":4,"max_zoom":8,"font_size":"13","font_style":null,"font_weight":null,"text_transform":null,"letter_spacing":null,"placement":null,"start_offset":null,"text_anchor":null,"repeat":false,"visibility":null,"certainty":null,"notes":null},"geometry":{"type":"LineString","coordinates":[[-65.35106602843834,1.126154860873473],[-63.518614217363094,1.111838831099448]]}},{"type":"Feature","properties":{"id":"lbl_dudburia","target_id":"wiki/Dudburia","label_text":"Dudburia","label_type":"country","rank":null,"min_zoom":3,"max_zoom":8,"font_size":"13","font_style":null,"font_weight":null,"text_transform":null,"letter_spacing":null,"placement":null,"start_offset":null,"text_anchor":null,"repeat":false,"visibility":null,"certainty":null,"notes":null},"geometry":{"type":"LineString","coordinates":[[-33.148624692967665,-20.27690615253507],[-28.370649755886678,-20.38427637584026]]}},{"type":"Feature","properties":{"id":"lbl_poempoon","target_id":"wiki/Poempoon","label_text":"Poempoon","label_type":"country","rank":null,"min_zoom":5,"max_zoom":8,"font_size":"13","font_style":null,"font_weight":null,"text_transform":null,"letter_spacing":null,"placement":null,"start_offset":null,"text_anchor":null,"repeat":false,"visibility":null,"certainty":null,"notes":null},"geometry":{"type":"LineString","coordinates":[[-35.4011209732858,-24.954725257053703],[-31.338238263052098,-24.986970357928573]]}},{"type":"Feature","properties":{"id":"lbl_samariland","target_id":"wiki/Samariland","label_text":"Samariland","label_type":"country","rank":null,"min_zoom":5,"max_zoom":8,"font_size":"13","font_style":null,"font_weight":null,"text_transform":null,"letter_spacing":null,"placement":null,"start_offset":null,"text_anchor":null,"repeat":false,"visibility":null,"certainty":null,"notes":null},"geometry":{"type":"LineString","coordinates":[[-28.81802568632498,-22.71063121411939],[-26.599041071351035,-22.728526251336923]]}},{"type":"Feature","properties":{"id":"lbl_reddelstone","target_id":"wiki/Reddelstone","label_text":"Reddelstone","label_type":"country","rank":null,"min_zoom":4,"max_zoom":8,"font_size":"13","font_style":null,"font_weight":null,"text_transform":null,"letter_spacing":null,"placement":null,"start_offset":null,"text_anchor":null,"repeat":false,"visibility":null,"certainty":null,"notes":null},"geometry":{"type":"LineString","coordinates":[[29.50190060561112,7.209871013593844],[34.65567132426028,7.317241236899033]]}},{"type":"Feature","properties":{"id":"lbl_barrel","target_id":"wiki/Barrel","label_text":"Barrel","label_type":"country","rank":null,"min_zoom":3,"max_zoom":8,"font_size":"13","font_style":null,"font_weight":null,"text_transform":null,"letter_spacing":null,"placement":null,"start_offset":null,"text_anchor":null,"repeat":false,"visibility":null,"certainty":null,"notes":null},"geometry":{"type":"LineString","coordinates":[[21.786157058652005,-6.095089157641077],[28.793982378173475,-6.072866899234644]]}},{"type":"Feature","properties":{"id":"lbl_chatunkut","target_id":"wiki/Chatunkut","label_text":"Chatunkut","label_type":"country","rank":null,"min_zoom":3,"max_zoom":8,"font_size":"13","font_style":null,"font_weight":null,"text_transform":null,"letter_spacing":null,"placement":null,"start_offset":null,"text_anchor":null,"repeat":false,"visibility":null,"certainty":null,"notes":null},"geometry":{"type":"LineString","coordinates":[[39.13837814725206,-19.4507519343257],[45.96235233953754,-19.546192132819208]]}},{"type":"Feature","properties":{"id":"lbl_landofwater","target_id":"wiki/LandOfWater","label_text":"Land of Water","label_type":"country","rank":null,"min_zoom":4,"max_zoom":9,"font_size":"13","font_style":null,"font_weight":null,"text_transform":null,"letter_spacing":null,"placement":null,"start_offset":null,"text_anchor":null,"repeat":false,"visibility":null,"certainty":null,"notes":null},"geometry":{"type":"LineString","coordinates":[[36.27386290368648,-27.174876568919057],[42.56531608316925,-27.019452140847378]]}},{"type":"Feature","properties":{"id":"lbl_booside","target_id":"wiki/Booside","label_text":"Booside","label_type":"country","rank":null,"min_zoom":5,"max_zoom":8,"font_size":"13","font_style":null,"font_weight":null,"text_transform":null,"letter_spacing":null,"placement":null,"start_offset":null,"text_anchor":null,"repeat":false,"visibility":null,"certainty":null,"notes":null},"geometry":{"type":"LineString","coordinates":[[37.24746921459953,-31.36288170879606],[39.68119427618386,-31.267441510302554]]}},{"type":"Feature","properties":{"id":"lbl_avelia","target_id":"wiki/Avelia","label_text":"Avelia","label_type":"country","rank":null,"min_zoom":5,"max_zoom":8,"font_size":"13","font_style":null,"font_weight":null,"text_transform":null,"letter_spacing":null,"placement":null,"start_offset":null,"text_anchor":null,"repeat":false,"visibility":null,"certainty":null,"notes":null},"geometry":{"type":"LineString","coordinates":[[35.46989551765805,-32.51412910312394],[40.69524638517734,-32.74079957454602]]}},{"type":"Feature","properties":{"id":"lbl_larx","target_id":"wiki/Larx","label_text":"Larx","label_type":"country","rank":null,"min_zoom":4,"max_zoom":8,"font_size":"13","font_style":null,"font_weight":null,"text_transform":null,"letter_spacing":null,"placement":null,"start_offset":null,"text_anchor":null,"repeat":false,"visibility":null,"certainty":null,"notes":null},"geometry":{"type":"LineString","coordinates":[[33.09198185850759,-33.24299423687947],[35.788167465949044,-33.29071433612622]]}},{"type":"Feature","properties":{"id":"lnl_grandhilmore","target_id":"wiki/GrandHilmore","label_text":"Grand Hilmore","label_type":"country","rank":null,"min_zoom":5,"max_zoom":10,"font_size":"13","font_style":null,"font_weight":null,"text_transform":null,"letter_spacing":null,"placement":null,"start_offset":null,"text_anchor":null,"repeat":false,"visibility":null,"certainty":null,"notes":null},"geometry":{"type":"LineString","coordinates":[[31.290410158627854,-37.03693406506754],[34.089989314437275,-37.08995639756393]]}},{"type":"Feature","properties":{"id":"lbl_evehilmore","target_id":"wiki/EveHilmore","label_text":"Eve Hilmore","label_type":"country","rank":null,"min_zoom":5,"max_zoom":8,"font_size":"13","font_style":null,"font_weight":null,"text_transform":null,"letter_spacing":null,"placement":null,"start_offset":null,"text_anchor":null,"repeat":false,"visibility":null,"certainty":null,"notes":null},"geometry":{"type":"LineString","coordinates":[[35.192853830362196,-36.64456880459425],[38.10908211766368,-36.676382204092086]]}},{"type":"Feature","properties":{"id":"lbl_saple","target_id":"wiki/Saple","label_text":"Saple","label_type":"country","rank":null,"min_zoom":4,"max_zoom":8,"font_size":"13","font_style":null,"font_weight":null,"text_transform":null,"letter_spacing":null,"placement":null,"start_offset":null,"text_anchor":null,"repeat":false,"visibility":null,"certainty":null,"notes":null},"geometry":{"type":"LineString","coordinates":[[37.74853025668821,-40.18646061535314],[41.354048866442774,-40.22887848135025]]}},{"type":"Feature","properties":{"id":"lbl_sapleislands","target_id":"wiki/SapleIslands","label_text":"Saple Islands","label_type":"country","rank":null,"min_zoom":4,"max_zoom":8,"font_size":"13","font_style":null,"font_weight":null,"text_transform":null,"letter_spacing":null,"placement":null,"start_offset":null,"text_anchor":null,"repeat":false,"visibility":null,"certainty":null,"notes":null},"geometry":{"type":"LineString","coordinates":[[36.688083606760394,-48.37310875279583],[38.427216112642,-50.74850924863413],[41.120750603458646,-52.53005962051285],[43.75065829527962,-52.80577574949409]]}},{"type":"Feature","properties":{"id":"lnl_laghunya","target_id":"wiki/Laghunya","label_text":"Laghunya","label_type":"country","rank":null,"min_zoom":8,"max_zoom":10,"font_size":"13","font_style":null,"font_weight":null,"text_transform":null,"letter_spacing":null,"placement":null,"start_offset":null,"text_anchor":null,"repeat":false,"visibility":null,"certainty":null,"notes":null},"geometry":{"type":"LineString","coordinates":[[21.639167370229238,5.127603010117745],[22.36027109218015,5.115820269562992]]}}]}