{
"type": "FeatureCollection",
"name": "political_line_labels",
"crs": { "type": "name", "properties": { "name": "urn:ogc:def:crs:OGC:1.3:CRS84" } },
"features": [
{ "type": "Feature", "properties": { "id": "lbl_velokuocean", "target_id": "water_velokuocean", "label_text": "Veloku Ocean", "label_type": "ocean", "rank": 1, "min_zoom": 3, "max_zoom": 10, "font_size": "22", "font_style": "normal", "font_weight": "700", "text_transform": "uppercase", "letter_spacing": 2, "placement": "along_line", "start_offset": "50%", "text_anchor": "middle", "repeat": false, "visibility": "default", "certainty": "confirmed", "notes": "", "font_color": "#0b8699" }, "geometry": { "type": "LineString", "coordinates": [ [ -15.800573837815236, 1.843111114333453 ], [ 9.717320377555197, 1.678479538750409 ] ] } },
{ "type": "Feature", "properties": { "id": "lbl_eastvoidocean", "target_id": "water_eastvoidocean", "label_text": "East Void Ocean", "label_type": "ocean", "rank": 1, "min_zoom": 3, "max_zoom": 10, "font_size": "22", "font_style": "normal", "font_weight": "700", "text_transform": "uppercase", "letter_spacing": 2, "placement": "along_line", "start_offset": "50%", "text_anchor": "middle", "repeat": false, "visibility": "default", "certainty": "confirmed", "notes": null, "font_color": "#0b8699" }, "geometry": { "type": "LineString", "coordinates": [ [ 73.759003279355682, -0.338257262141803 ], [ 109.813318332040353, -0.008994110975731 ] ] } },
{ "type": "Feature", "properties": { "id": "lbl_westvoidocean", "target_id": "water_westvoidocean", "label_text": "West Void Ocean", "label_type": "ocean", "rank": 1, "min_zoom": 3, "max_zoom": 10, "font_size": "22", "font_style": "normal", "font_weight": "700", "text_transform": "uppercase", "letter_spacing": 2, "placement": "along_line", "start_offset": "50%", "text_anchor": "middle", "repeat": false, "visibility": "default", "certainty": "confirmed", "notes": null, "font_color": "#0b8699" }, "geometry": { "type": "LineString", "coordinates": [ [ -112.439308705056973, 2.707426886144333 ], [ -81.817835646612465, 2.707426886144333 ] ] } },
{ "type": "Feature", "properties": { "id": "lbl_broodingsea", "target_id": "water_broodingsea", "label_text": "Brooding Sea", "label_type": "sea", "rank": 1, "min_zoom": 4, "max_zoom": 8, "font_size": "18", "font_style": "normal", "font_weight": "700", "text_transform": null, "letter_spacing": null, "placement": null, "start_offset": null, "text_anchor": null, "repeat": false, "visibility": null, "certainty": null, "notes": null }, "geometry": { "type": "LineString", "coordinates": [ [ -53.542362540226272, -0.430862523407253 ], [ -45.084415344647837, -0.533757258146649 ] ] } },
{ "type": "Feature", "properties": { "id": "lbl_lakeqimir", "target_id": "water_qimir", "label_text": "Lake Qimir", "label_type": "lake", "rank": 1, "min_zoom": 7, "max_zoom": 11, "font_size": "12", "font_style": null, "font_weight": null, "text_transform": null, "letter_spacing": null, "placement": null, "start_offset": null, "text_anchor": null, "repeat": false, "visibility": null, "certainty": null, "notes": null }, "geometry": { "type": "LineString", "coordinates": [ [ -27.064190402316314, 11.367405434296495 ], [ -26.300196996876291, 11.351971224085586 ] ] } },
{ "type": "Feature", "properties": { "id": "lbl_lakeregret", "target_id": "water_lakeregret", "label_text": "Lake Regret", "label_type": "lake", "rank": null, "min_zoom": 7, "max_zoom": 11, "font_size": null, "font_style": null, "font_weight": null, "text_transform": null, "letter_spacing": null, "placement": null, "start_offset": null, "text_anchor": null, "repeat": false, "visibility": null, "certainty": null, "notes": null }, "geometry": { "type": "LineString", "coordinates": [ [ -18.954494284812956, 23.149957257671193 ], [ -18.184191921073911, 23.161001019158491 ] ] } },
{ "type": "Feature", "properties": { "id": "lbl_kuretzabay", "target_id": "wiki/KuretzaBay", "label_text": "Kuretza Bay", "label_type": "bay", "rank": 1, "min_zoom": 6, "max_zoom": 9, "font_size": "12", "font_style": null, "font_weight": null, "text_transform": null, "letter_spacing": null, "placement": null, "start_offset": null, "text_anchor": null, "repeat": false, "visibility": null, "certainty": null, "notes": null, "font_color": "#0b8699" }, "geometry": { "type": "LineString", "coordinates": [ [ 29.37928668432923, -7.004952436709009 ], [ 32.797267377065516, -7.015700803667299 ] ] } },
{ "type": "Feature", "properties": { "id": "lbl_lakebratai", "target_id": "wiki/LakeBratai", "label_text": "Lake Bratai", "label_type": "lake", "rank": 1, "min_zoom": 7, "max_zoom": 12, "font_size": "12", "font_style": null, "font_weight": null, "text_transform": null, "letter_spacing": null, "placement": null, "start_offset": null, "text_anchor": null, "repeat": false, "visibility": null, "certainty": null, "notes": null, "font_color": "#0b8699" }, "geometry": { "type": "LineString", "coordinates": [ [ 25.729195601857203, -2.329148223229017 ], [ 26.574267030771505, -2.333619500630681 ] ] } },
{ "type": "Feature", "properties": { "id": "lbl_westafarlandssea", "target_id": "wiki/FalandsSea", "label_text": "West Farlands Sea", "label_type": "sea", "rank": null, "min_zoom": 6, "max_zoom": 8, "font_size": null, "font_style": null, "font_weight": null, "text_transform": null, "letter_spacing": null, "placement": null, "start_offset": null, "text_anchor": null, "repeat": false, "visibility": null, "certainty": null, "notes": null, "font_color": null }, "geometry": { "type": "LineString", "coordinates": [ [ -11.252388548253666, 29.405514329149849 ], [ -7.190176478116868, 30.214958800690024 ] ] } },
{ "type": "Feature", "properties": { "id": "lbl_eastfarlandssea", "target_id": "wiki/FarlandsSea", "label_text": "East Farlands Sea", "label_type": "sea", "rank": 1, "min_zoom": 6, "max_zoom": 8, "font_size": null, "font_style": null, "font_weight": null, "text_transform": null, "letter_spacing": null, "placement": null, "start_offset": null, "text_anchor": null, "repeat": false, "visibility": null, "certainty": null, "notes": null, "font_color": null }, "geometry": { "type": "LineString", "coordinates": [ [ -1.973756550413524, 29.660339440560644 ], [ 0.844309387541157, 27.80161509850543 ] ] } },
{ "type": "Feature", "properties": { "id": "lbl_khnriver", "target_id": "wiki/Khn", "label_text": "Khn River", "label_type": "river", "rank": 1, "min_zoom": 9, "max_zoom": 12, "font_size": "12", "font_style": "normal", "font_weight": "300", "text_transform": null, "letter_spacing": null, "placement": null, "start_offset": null, "text_anchor": null, "repeat": true, "visibility": null, "certainty": null, "notes": null, "font_color": "#0b8699" }, "geometry": { "type": "LineString", "coordinates": [ [ 50.890291838750954, 1.150068497516087 ], [ 51.138834525159609, 1.031880366916169 ], [ 51.310902538827136, 1.019713941707354 ], [ 51.564659407468135, 1.150068497516087 ], [ 51.740203542623895, 1.358635786810061 ], [ 51.842749126526762, 1.483776160386445 ], [ 51.872296159176742, 1.626297141403994 ], [ 51.915747677779656, 1.817483823256804 ], [ 52.065220901773671, 1.918291346415558 ], [ 52.258145644370593, 1.921767467903791 ], [ 52.378071835714628, 1.913077164183208 ], [ 52.531021181196877, 1.881792070789112 ] ] } }
]
}
