{"type":"FeatureCollection","name":"parks","features":[{"type":"Feature","properties":{"id":"DELETE_ME","name":"","settlement_id":"","country_id":"","district_id":"","park_type":"","status":"","access":"","importance":"","wiki_id":"","label_rank":0,"zoom_min":0,"notes":""},"geometry":{"type":"Polygon","coordinates":[[[0.0,0.0],[0.0001,0.0],[0.0001,0.0001],[0.0,0.0001],[0.0,0.0]]]}},{"type":"Feature","properties":{"id":"park_aba","name":"Aba Park","settlement_id":"stl_gunsey","country_id":"country_duvessa","district_id":"dst_gunsey","park_type":"public_park","status":"active","access":"public","importance":"local","wiki_id":null,"label_rank":3,"zoom_min":14,"notes":null},"geometry":{"type":"Polygon","coordinates":[[[-3.667669866290986,29.715964431811344],[-3.667820950469193,29.716147891170593],[-3.667874909104267,29.716396100891934],[-3.667853325650237,29.716579560251184],[-3.667713033199045,29.71670906097536],[-3.667507990385764,29.71690331206163],[-3.667335322753527,29.71704360451282],[-3.667151863394276,29.71704360451282],[-3.666979195762039,29.7168817286076],[-3.66691444539995,29.716698269248347],[-3.66691444539995,29.716471642981038],[-3.666979195762039,29.71632055880283],[-3.666989987489054,29.716191058078653],[-3.667000779216068,29.716093932535518],[-3.666957612308009,29.715953640084326],[-3.666871278491891,29.715824139360148],[-3.666795736402788,29.715759388998062],[-3.666698610859654,29.71573780554403],[-3.666558318408462,29.7156406800009],[-3.66641802595727,29.71551117927672],[-3.666353275595181,29.715338511644482],[-3.666266941779063,29.715155052285233],[-3.666245358325033,29.71490684256389],[-3.666202191416974,29.7147665501127],[-3.666094274146826,29.714593882480465],[-3.665932398241604,29.714464381756287],[-3.665784011995156,29.71425664101125],[-3.665792105790412,29.71395717058659],[-3.665846064425486,29.71379529468137],[-3.665856856152501,29.713611835322116],[-3.66590002306056,29.713352833873763],[-3.66590002306056,29.713180166241525],[-3.665684525761738,29.7129899620529],[-3.665571212628085,29.71281189855716],[-3.665376961541822,29.71273635646806],[-3.665269044271676,29.71253670951829],[-3.665117960093471,29.71245577156568],[-3.665031626277355,29.712078061120167],[-3.665317607043242,29.71201870662159],[-3.665528045720027,29.711926976941964],[-3.665662605066234,29.71197149281587],[-3.665765463714348,29.711883810033903],[-3.665964773422648,29.711895950726767],[-3.666072690692797,29.71188515899975],[-3.666245358325033,29.712068618359],[-3.666299316960107,29.712392370169447],[-3.666277733506078,29.712575829528696],[-3.666288525233092,29.71269453852586],[-3.666374859049211,29.71280245579601],[-3.666536734954433,29.71292116479317],[-3.66664465222458,29.71302908206332],[-3.666730986040699,29.713201749695553],[-3.666774152948758,29.713385209054806],[-3.666817319856817,29.7136010435951],[-3.666903653672935,29.713881628497486],[-3.667000779216068,29.71416221339987],[-3.66718423857532,29.71436725621315],[-3.667313739299498,29.71449675693733],[-3.667518782112778,29.714820508747774],[-3.667605115928897,29.715209010920308],[-3.667583532474867,29.715381678552543],[-3.667540365566808,29.71557592963881],[-3.667497198658749,29.71578097245209],[-3.66745403175069,29.715953640084326],[-3.667669866290986,29.715964431811344]]]}},{"type":"Feature","properties":{"id":"park_genesis","name":"Genesis Park","settlement_id":"stl_genesis","country_id":"country_velu","district_id":"dst_genesis","park_type":"public_park","status":"active","access":"public","importance":"local","wiki_id":null,"label_rank":4,"zoom_min":14,"notes":null},"geometry":{"type":"Polygon","coordinates":[[[1.112366205031007,26.71414973392366],[1.112551427603973,26.71412140576544],[1.112603725742223,26.71446134366406],[1.112409786812882,26.714487492733184],[1.112366205031007,26.71414973392366]]]}},{"type":"Feature","properties":{"id":"park_stsutodo_alderpark","name":"Alder Park","settlement_id":"settlement_dimaeta","country_id":"country_stsutodo","district_id":null,"park_type":"public_park","status":"active","access":"public","importance":"local","wiki_id":null,"label_rank":null,"zoom_min":12,"notes":null},"geometry":{"type":"Polygon","coordinates":[[[-72.18652245172792,-17.716119909065924],[-72.18560156638485,-17.716482509351163],[-72.18745456864642,-17.72092812714113],[-72.18837205291342,-17.720557367187332],[-72.18652245172792,-17.716119909065924]]]}},{"type":"Feature","properties":{"id":"park_stsutodo","name":"Oras Park","settlement_id":"settlement_dimaeta","country_id":"country_stsutodo","district_id":null,"park_type":"public_park","status":"active","access":"public","importance":"local","wiki_id":null,"label_rank":null,"zoom_min":14,"notes":null},"geometry":{"type":"Polygon","coordinates":[[[-72.24330527151585,-17.696744819951945],[-72.24182483093284,-17.69728031288394],[-72.2422005396732,-17.698294862534244],[-72.24368848356418,-17.697772630426552],[-72.24330527151585,-17.696744819951945]]]}},{"type":"Feature","properties":{"id":"park_pointgolqik_velu_qamarcemetery","name":"Qamar Cemetery","settlement_id":"settlement_pointgolqik","country_id":"country_velu","district_id":null,"park_type":"cemetery","status":"active","access":"public","importance":"local","wiki_id":null,"label_rank":null,"zoom_min":14,"notes":null},"geometry":{"type":"Polygon","coordinates":[[[8.45535130363972,26.54610999358398],[8.456395948943829,26.54620452705947],[8.456438205684432,26.545328734088677],[8.455411389624876,26.54522074359263],[8.45535130363972,26.54610999358398]]]}},{"type":"Feature","properties":{"id":"beach_dotap","name":"Dotap Beach","settlement_id":"settlement_dotap","country_id":"country_ronobetu","district_id":null,"park_type":"beach","status":"active","access":"public","importance":"local","wiki_id":null,"label_rank":null,"zoom_min":9,"notes":null},"geometry":{"type":"Polygon","coordinates":[[[-63.0359670837295,7.664722787788695],[-63.03988301203328,7.680356111682369],[-63.04093871062981,7.683285378000233],[-63.04633479707174,7.69781147357913],[-63.047881808453425,7.701740586881347],[-63.05116149269481,7.706764381139499],[-63.05082085546828,7.706522638591642],[-63.047818919034334,7.702167716722681],[-63.045069312829966,7.695034452626769],[-63.04156100696836,7.685932904848664],[-63.040651884253975,7.683574380778193],[-63.040419779936585,7.682972235863369],[-63.03988191553138,7.681071650228187],[-63.037739183330686,7.673500139636931],[-63.03591059152322,7.665741818008065],[-63.03494419261823,7.661574222730258],[-63.02891952715887,7.63559285293679],[-63.02882663058186,7.634996589305858],[-63.028924374020946,7.634532307970233],[-63.040821518175235,7.606919874579174],[-63.041233632116814,7.606476059565169],[-63.038174603666754,7.614423175946263],[-63.03516209703405,7.621378366698248],[-63.03273095133045,7.627096844201023],[-63.02917936456347,7.635661347706796],[-63.02968673410161,7.637944510628421],[-63.03397823477826,7.656585056055661],[-63.0359670837295,7.664722787788695]]]}}]}