{"type":"FeatureCollection","name":"Routes","features":[{"type":"Feature","properties":{"id":1,"group":"route-highway","name":"Thornbelt Pass","route_id":null,"country_id":null,"class":null,"status":null,"surface":null,"notes":null},"geometry":{"type":"LineString","coordinates":[[-45.87,15.7],[-46.1709,16.0866],[-46.2,16.115451282051282],[-47.20755384615384,16.6086],[-47.78182307692307,17.3727],[-48.64778461538461,17.5221],[-49.71428461538461,17.5896],[-50.57113076923077,17.6526],[-51.054246153846165,17.9091],[-51.06336153846154,18.4176],[-51.40063076923077,18.8631],[-52.32857692307691,19.2456],[-53.64301538461539,19.4256],[-55.60282307692308,19.5696],[-56.304707692307694,19.4481],[-57.84156153846154,19.3185],[-58.384321688178225,19.016387782036293],[-59.08125384615385,18.6039],[-59.56983846153847,18.1287],[-60.2699,17.5266],[-60.424861538461535,16.8741],[-61.13586153846153,16.2576],[-62.0,15.632410344827584],[-62.0954,15.4926],[-62.37343855508488,15.167371125525863],[-62.5364,14.8761],[-62.5634,14.1021],[-62.6579,13.7016],[-62.6714,13.2831],[-63.2366,12.2436],[-63.4184,11.7531],[-63.568061039194774,11.621495200959393],[-63.6659,11.3841],[-63.6119,10.7856],[-63.6254,10.0476],[-63.6659,9.4176],[-63.4688,8.6553],[-63.4265,8.1405],[-63.14482868967055,7.638838850486707]]}},{"type":"Feature","properties":{"id":47,"group":"route-highway","name":"Port Moan Road","route_id":null,"country_id":null,"class":null,"status":null,"surface":null,"notes":null},"geometry":{"type":"LineString","coordinates":[[-22.68,15.3414],[-22.959,15.1704],[-23.2695,15.1659],[-23.6655,14.9004],[-23.9805,14.5314],[-24.399,14.0634],[-25.0065,13.8744],[-25.605,13.6359],[-26.2485,13.8879],[-27.495,15.3144],[-29.7252,15.5277],[-30.294,15.7059],[-31.4181,15.7032],[-32.1417,15.885],[-32.4639,16.3476],[-32.8887,16.623],[-33.1623,16.9812],[-33.4953,16.9722],[-33.7158,16.7922],[-33.9183,16.6122],[-34.0533,16.8102],[-34.4178,16.9272],[-34.5663,17.1072],[-34.9983,17.1612],[-35.4123,17.0352],[-35.8083,17.0172],[-36.3168,17.0037],[-36.5868,16.9002],[-36.6903,16.6167],[-36.8568,16.4007],[-37.1493,16.2387],[-37.5498,16.1217],[-37.9188,16.0632],[-38.2923,15.8877],[-38.8548,16.0047],[-39.2688,15.8787],[-39.5658,15.5997],[-39.9573,15.4377],[-40.3848,15.2307],[-40.8168,15.0597],[-41.6673,15.2037],[-42.3648,15.1659],[-42.6843,15.3252],[-42.8373,15.5142],[-43.0596,15.345],[-43.5177,15.1623],[-43.8309,15.0183],[-44.7,14.4]]}},{"type":"Feature","properties":{"id":48,"group":"route-highway","name":"Glimmering road","route_id":null,"country_id":null,"class":null,"status":null,"surface":null,"notes":null},"geometry":{"type":"LineString","coordinates":[[-44.7,14.4],[-43.9461,13.6107],[-43.659,12.1527],[-43.5969,11.3724],[-42.9813,10.6128],[-42.5088,10.2843],[-42.2622,9.7506],[-42.0984,9.1962],[-41.6052,8.703],[-41.3586,7.9848],[-41.5026,7.4097],[-41.7699,6.9786],[-42.2415,6.4656],[-42.597,5.9895],[-42.7338,5.4405],[-42.84,4.4991],[-42.9012,3.9528],[-42.94538980653293,3.538078585087491],[-42.96227492998325,3.371337991015615],[-42.968606851277116,3.221482520394056],[-42.996572836991696,3.184018652738666],[-43.03614734507838,3.158163307455369],[-43.09207931650755,3.151303726053678],[-43.15856449009319,3.160273947886658],[-43.41958231091224,3.150122870958431],[-43.5384,1.8126],[-43.4475,1.3878],[-42.9858,0.7803],[-42.2217,-0.2043],[-41.6142,-0.7065],[-41.5521,-1.5336],[-41.589,-2.1798],[-41.89,-2.62],[-42.1821,-2.8485],[-42.6303,-3.2814],[-43.3413,-3.7521],[-44.1999,-3.7107],[-44.94,-3.37]]}},{"type":"Feature","properties":{"id":52,"group":"route-highway","name":"Ocean Road","route_id":null,"country_id":null,"class":null,"status":null,"surface":null,"notes":null},"geometry":{"type":"LineString","coordinates":[[-22.084523280786325,11.789356483099064],[-21.681,10.9557],[-21.3921,10.404],[-21.8115,9.3285],[-21.9951,8.8299],[-21.6018,8.0424],[-21.7593,7.5177],[-22.4154,6.9399],[-22.7565,6.2577],[-23.3343,4.9455],[-23.4648,4.2111],[-23.6223,3.4758],[-24.0948,3.0825],[-24.5151,2.2428],[-24.5151,1.6389],[-24.3837,1.035],[-24.2001,0.1953],[-24.7248,-0.2511],[-25.3809,-0.7497],[-25.5123,-1.458],[-25.6176,-1.9827],[-25.8273,-2.5074],[-25.9893,-3.069],[-26.7102,-3.2751],[-27.5175,-3.3777],[-28.2213,-3.24],[-28.9764,-3.5496],[-29.3031,-3.9789],[-29.5542,-4.6332],[-29.6847,-5.1318],[-30.5226,-6.0912],[-31.344624304441002,-6.305506678810445],[-31.393837512132183,-6.320399521487117]]}}]}