{"type":"FeatureCollection","name":"Routes","features":[{"type":"Feature","properties":{"id":null,"group":null,"name":null},"geometry":{"type":"LineString","coordinates":[[-74.78801015060372,-17.569121210681786],[-74.79089202283708,-17.574047115628023],[-74.79385892102056,-17.578922281499835],[-74.79690995208335,-17.583745240815716],[-74.80004419762972,-17.588514541808934],[-74.80326071421536,-17.593228748864536],[-74.80655853363146,-17.597886442951488],[-74.80993666319608,-17.60248622204981],[-74.81339408605305,-17.607026701572607],[-74.81692976147794,-17.61150651478285],[-74.8205426251914,-17.61592431320477],[-74.82423158967954,-17.62027876702976],[-74.82799554452124,-17.62456856551669],[-74.8318333567224,-17.628792417386425],[-74.835743871057,-17.632949051210527],[-74.83972591041484,-17.637037215793974],[-74.84377827615587,-17.641055680551784],[-74.84789974847095,-17.64500323587942],[-74.8520890867491,-17.648878693516917],[-74.85634502995087,-17.65268088690655],[-74.86066629698796,-17.656408671543968],[-74.86505158710882,-17.660060925322743],[-74.86949958029027,-17.66363654887209],[-74.8740089376347,-17.66713446588783],[-74.87857830177323,-17.670553623456343],[-74.88320629727423,-17.673892992371513],[-74.88789153105732,-17.67715156744454],[-74.89263259281276,-17.680328367806514],[-74.89742805542595,-17.68342243720365],[-74.90227647540698,-17.68643284428515],[-74.90717639332516,-17.689358682883547],[-74.91212633424834,-17.692199072287462],[-74.91712480818684,-17.69495315750672],[-74.92217031054199,-17.69762010952971],[-74.92726132255903,-17.70019912557291],[-74.93239631178426,-17.70268942932257],[-74.93757373252633,-17.705090271168352],[-74.94279202632148,-17.707400928429],[-74.94804962240275,-17.709620705569858],[-74.95334493817268,-17.711748934412242],[-74.95867637967976,-17.713784974334576],[-74.96404234209824,-17.71572821246521],[-74.96944121021113,-17.71757806386691],[-74.97487135889648,-17.71933397171294],[-74.98033115361652,-17.720995407454655],[-74.98581895090966,-17.72256187098062],[-74.99133309888524,-17.724032890767127],[-74.9968719377207,-17.725408024020147],[-75.00243380016127,-17.726686856808616],[-75.00801701202182,-17.72786900418902],[-75.01361989269077,-17.72895411032128],[-75.01924075563602,-17.72994184857585],[-75.02487790891259,-17.730831921632056],[-75.03052965567188,-17.73162406156758],[-75.03619429467257,-17.732318029939105],[-75.04187012079257,-17.732913617854095],[-75.04755542554231,-17.73341064603368],[-75.0532484975791,-17.733808964866604],[-75.05894762322218,-17.73410845445428],[-75.0646510869686,-17.734309024646862],[-75.07035717200955,-17.7344106150704],[-75.07606416074724,-17.73441319514499],[-75.08848491318366,-17.733404730401748],[-75.10092123867238,-17.732611067649767],[-75.11336942274986,-17.732032443939087],[-75.12582574741063,-17.731669032092185],[-75.13828649221786,-17.731520940652384],[-75.15074793541444,-17.731588213851424],[-75.16320635503476,-17.73187083159624],[-75.17565803001618,-17.732368709474972],[-75.18809924131062,-17.73308169878219],[-75.20052627299526,-17.734009586563285],[-75.21293541338241,-17.73515209567809],[-75.22532295612812,-17.736508884883648],[-75.23768520133923,-17.738079548936142],[-75.25001845667836,-17.739863618711926],[-75.26231903846684,-17.74186056134764],[-75.27458327278484,-17.74406978039938],[-75.28680749656876,-17.746490616020818],[-75.29898805870526,-17.749122345160306],[-75.31112132112187,-17.751964181776827],[-75.32320365987346,-17.75501527707477],[-75.33523146622473,-17.758274719757445],[-75.34720114772804,-17.76174153629927],[-75.35910912929639,-17.76541469123654],[-75.37095185427121,-17.769293087476697],[-75.38272578548474,-17.773375566626022],[-75.39442740631634,-17.777660909335598],[-75.40605322174302,-17.78214783566552],[-75.41759975938318,-17.78683500546718],[-75.42906357053381,-17.791721018783548],[-75.44044123120055,-17.796804416267296],[-75.45172934312032,-17.802083679616686],[-75.4629245347763,-17.807557232029048],[-75.47402346240503,-17.813223438671734],[-75.48502281099498,-17.81908060717042],[-75.49591929527678,-17.82512698811457],[-75.5067096607044,-17.831360775579945],[-75.51739068442727,-17.83778010766801],[-75.5279591762528,-17.844383067062026],[-75.53841197959927,-17.85116768159972],[-75.54874597243867,-17.858131924862324],[-75.55895806822906,-17.865273716779832],[-75.56904521683661,-17.872590924252254],[-75.5790044054465,-17.880081361786747],[-75.58883265946278,-17.887742792150362],[-75.59852704339693,-17.895572927038266],[-75.60808466174447,-17.903569427757194],[-75.61750265984993,-17.91172990592399],[-75.62677822475939,-17.920051924178946],[-75.63590858606064,-17.9285329969138],[-75.6448910167107,-17.937170591014123],[-75.65372283385031,-17.945962126615925],[-75.66240139960522,-17.954904977876183],[-75.67092412187407,-17.96399647375714],[-75.6792884551026,-17.97323389882407],[-75.687491901044,-17.98261449405635],[-75.69553200950499,-17.99213545767148],[-75.70340637907772,-18.001793945961957],[-75.71111265785699,-18.01158707414459],[-75.7186485441427,-18.02151191722215],[-75.72601178712732,-18.031565510856996],[-75.7332001875682,-18.04174485225646],[-75.74021159844438,-18.052046901069712],[-75.74704392559791,-18.062468580295846],[-75.75369512835927,-18.07300677720293],[-75.76016322015694,-18.083658344257696],[-75.7664462691107,-18.09442010006564],[-75.77254239860866,-18.105288830321253],[-75.77844978786777,-18.116261288768047],[-75.78416667247762,-18.12733419816815],[-75.78969134492748,-18.138504251281145],[-75.79502215511621,-18.149768111851877],[-75.80015751084524,-18.16112241560691],[-75.805095878294,-18.17256377125938],[-75.80983578247812,-18.18408876152188],[-75.81437580768991,-18.195693944127143],[-75.8187145979213,-18.207375852856167],[-75.82285085726875,-18.219130998573505],[-75.82678335032034,-18.2309558702694],[-75.83051090252481,-18.242846936108435],[-75.8340324005423,-18.254800644484423],[-75.83734679257691,-18.266813425081192],[-75.84045308869088,-18.278881689938977],[-75.8433503611002,-18.29100183452604],[-75.8460377444518,-18.303170238815294],[-75.84851443608196,-18.315383268365512],[-75.850779696256,-18.32763727540685],[-75.85283284838933,-18.339928599930374],[-75.85467327924947,-18.352253570781226],[-75.85630043913922,-18.364608506755093],[-75.85771384206085,-18.376989717697747],[-75.85891306586122,-18.389393505607163],[-75.85989775235791,-18.40181616573809],[-75.86066760744623,-18.414253987708527],[-75.86122240118695,-18.42670325660797],[-75.85650171385451,-18.44782420587207],[-75.85214471113196,-18.469023166082025],[-75.84815268001216,-18.490293875384868],[-75.84452679968088,-18.51163005073404],[-75.84126814116843,-18.5330253897453],[-75.83837766703337,-18.554473572558354],[-75.83585623107815,-18.57596826370364],[-75.8337045780969,-18.597503113973744],[-75.83192334365545,-18.619071762298848],[-75.83051305390356,-18.640667837625706],[-75.82947412541957,-18.66228496079954],[-75.82880686508724,-18.683916746448354],[-75.82851147000522,-18.705556804869094],[-75.82858802742878,-18.72719874391504],[-75.82903651474399,-18.748836170883965],[-75.82985679947446,-18.770462694406447],[-75.83104863932047,-18.792071926333772],[-75.83261168223052,-18.813657483624908],[-75.8345454665053,-18.83521299023195],[-75.83684942093413,-18.856732078983505],[-75.83952286496364,-18.878208393465478],[-75.8425650088988,-18.89963558989864],[-75.8459749541362,-18.92100733901249],[-75.84975169342945,-18.94231732791484],[-75.85389411118678,-18.963559261956526],[-75.85840098380048,-18.984726866590762],[-75.8632709800084,-19.005813889226555],[-75.86850266128712,-19.02681410107561],[-75.87409448227697,-19.04772129899224],[-75.88004479123838,-19.068529307305656],[-75.88635183053988,-19.089231979644197],[-75.89301373717723,-19.10982320075084],[-75.90002854332374,-19.13029688828959],[-75.90739417691152,-19.15064699464209],[-75.91510846224355,-19.170867508694],[-75.92316912063637,-19.190952457610585],[-75.9315737710931,-19.210895908601014],[-75.94031993100683,-19.230691970670808],[-75.94940501689388,-19.25033479636194],[-75.958826345157,-19.26981858348011],[-75.96858113287796,-19.289137576808603],[-75.97866649863968,-19.30828606980831],[-75.9890794633773,-19.327258406303343],[-75.99981695125814,-19.34604898215179]]}},{"type":"Feature","properties":{"id":7,"group":"trails","name":"Big Bayan Trail"},"geometry":{"type":"LineString","coordinates":[[21.617225384158427,5.25904740461061],[21.65081403090308,5.315476331141633],[21.670295446014983,5.355110934300328],[21.683730904712846,5.414226952570923],[21.687089769387317,5.483419564864916],[21.681715585908172,5.521038849218932],[21.685074450582636,5.564704089986985],[21.7085865033039,5.664126484351169],[21.7280679184158,5.725929594361336],[21.73982394477643,5.770266608064283],[21.75359528994174,5.799488730732134],[21.774084364455977,5.826023761660412],[21.784160958479376,5.837108015086149],[21.798939963047022,5.840466879760615],[21.819093151093817,5.842482198565294],[21.843948749684863,5.840130993293168],[21.874178531755057,5.846512836174653],[21.908103064967158,5.858940635470177],[21.964531991498177,5.885139779931008],[22.006937658013307,5.90831594618482],[22.021128861262923,5.914529845832583],[22.039770560206208,5.917048994338433],[22.05068687039822,5.926957645128107],[22.057992401065185,5.93787395532012],[22.060763464421616,5.949797924914472],[22.06135126573965,5.963401326846058],[22.059335946934972,6.035281030879625],[22.074114951502622,6.090366411540861],[22.103001187703025,6.198521854058657],[22.115764873465995,6.234797592542886],[22.139276926187257,6.270401558092223],[22.168834935322554,6.294585383748375],[22.201080036197425,6.306005523641558],[22.252134779249303,6.331532895167498],[22.295800020017357,6.376541681805338],[22.315281435129258,6.395351323982346],[22.34148057959009,6.408115009745315],[22.395894187316433,6.420878695508285],[22.451979863932998,6.433311592574815],[22.499759572322525,6.450175019065235],[22.534423282330607,6.473128016232752],[22.560655279093485,6.501702155563741],[22.58313984774738,6.538239579626319],[22.62436155694618,6.611782856265097],[22.655746267358907,6.649725565868542],[22.676825550471932,6.668462706413454],[22.6971,6.6816],[22.7213262592661,6.690010418040101],[22.74521611346086,6.695631560203575],[22.80049067806835,6.701721130880672],[22.849675671998742,6.700315845339802],[22.909166093228837,6.690478846553725],[22.98224094135399,6.661904707222734],[23.06093693164262,6.615530284374079],[23.22395005438335,6.570561147066291],[23.347615181979762,6.581803431393238],[23.456290597140253,6.623025140592043],[23.621177433935472,6.765427408733371],[23.74858998964087,7.042737088798059],[23.94345625130795,7.702284435978942],[24.2856,8.2881],[24.700436729322373,8.594172325916727],[25.1568,8.793],[25.8039,9.1386],[26.4582,9.2583],[26.901,9.612],[27.3591,9.8838],[27.945,9.954],[28.3347,10.512],[28.9638,11.1789],[29.5929,11.6442],[29.918730371080215,11.843192496404374],[30.285978325760478,11.93687819912893],[30.600762286914993,11.940625627237912],[30.889314251306626,11.88816163371216],[31.177866215698263,11.77199136233371],[31.462670751980916,11.704537656372029],[31.650042157430033,11.678305659609153],[31.74747528826357,11.67455823150017],[31.852403275315076,11.685800515827117],[32.2496306548672,11.715779940698976],[33.0795,11.7918],[33.36261680323494,11.824455355859461],[33.65116876762658,11.90689877425707],[34.04090129096073,12.131744460796009],[34.4088,12.3993],[34.83348233601049,12.602046688473285],[35.060201736603915,12.647952682808318],[35.106107730938945,12.648889539835563],[35.14077144094703,12.635773541454126],[35.234457143671584,12.482128988985853],[35.32439541828717,12.324737008408595],[35.47429254264646,12.144860459177446],[35.685,11.9412]]}},{"type":"Feature","properties":{"id":9,"group":"trails","name":"Khn Trail"},"geometry":{"type":"LineString","coordinates":[[40.6953,-30.1671],[40.4325,-30.4281],[40.1256,-30.7251],[40.1391,-31.1922],[40.1319,-31.8024],[40.0887,-32.1291],[40.0158,-32.4855],[40.032,-32.9688],[40.095,-33.4818],[40.1121,-34.1325],[40.3686,-34.6293],[40.5585,-35.5554],[40.2885,-35.6688],[39.9654,-36.1593],[39.9987,-36.5922],[40.0284,-36.8991],[40.0725,-37.2393],[40.2921,-38.0097],[40.3992,-38.4228],[40.6422,-38.9259],[41.112,-39.4461],[41.7438,-40.1634],[41.985,-40.68],[42.0804,-41.283],[42.2532,-41.8014],[42.7014,-42.6429],[43.317,-43.038],[43.8849,-43.1523],[44.0289,-43.1766],[44.8695,-43.8633],[45.5103,-43.6878],[46.1403,-43.6878],[46.4706,-44.1522],[47.8872,-44.7066],[48.2904,-44.2566],[48.9339,-43.6437],[49.6854,-43.3944],[50.3271,-43.0956],[50.661,-42.624],[50.7339,-42.4269],[50.8995,-42.0822],[51.0102,-41.6664],[51.1857,-41.292],[51.831,-40.968],[52.3323,-40.5873],[52.56,-40.077],[52.8012,-39.5955],[53.3259,-39.3003],[53.5662,-38.6037],[53.7435,-37.6965],[53.6634,-37.1466],[53.6454,-36.7974],[53.4042,-36.3339],[53.622,-35.3826],[54.0036,-34.9857],[54.1989,-34.254],[54.2538,-33.192],[54.3159,-32.7258],[54.585,-32.3613],[54.72,-31.779],[54.8658,-31.446],[54.8622,-31.1985],[55.278,-30.555],[55.5435,-29.9142],[55.5075,-29.2833],[55.827,-28.674],[55.9278,-28.035],[55.6056,-27.3546],[55.2915,-26.5122],[54.765,-26.064],[54.2664,-25.677],[54.054,-25.011],[53.8731,-24.4647],[53.5896,-24.1866],[53.442,-23.598],[53.091,-23.0148],[53.118,-22.464],[53.3268,-21.9303],[53.5671,-21.078],[53.46,-20.25],[53.3583,-19.4184],[53.2701,-18.8937],[53.532,-18.144],[53.793,-17.3979],[54.225,-16.857],[54.6651,-16.3089],[54.9837,-15.6906],[55.3977,-14.9031],[55.638,-14.193],[55.8702,-13.4811],[55.8612,-12.7818],[55.647,-12.294],[55.4346,-11.8089],[55.422,-10.854],[55.404,-9.9009],[55.1853,-9.2574],[55.3122,-8.4699],[55.0377,-7.8408],[55.098,-7.29],[55.3185,-6.7689],[55.3743,-6.1731],[55.098,-5.697],[54.801,-5.2236],[54.72,-4.545],[54.711,-3.7899],[54.405,-3.303],[54.1485,-2.8962],[54.099,-2.43],[54.0711,-1.8675],[53.6787,-1.2186],[53.2926,-0.3258],[52.9902,0.0405],[52.8435,0.5715],[52.7247,1.2402],[52.5906,1.6173],[52.5666915550301,1.800663884338115],[52.56596086292111,1.808457933500628],[52.56523017081212,1.816617328717634],[52.56535195283029,1.825142069989133],[52.565595516866615,1.826968800261597],[52.56599130842565,1.828445407231838],[52.566356654480145,1.8293435496158],[52.56681333704826,1.830135132733868],[52.5676201429186,1.831094166126911],[52.56850306255029,1.83193141750179],[52.57099959392266,1.83362114300382],[52.57545986033792,1.835980669605753],[52.6007905201161,1.841582642441309],[52.64110036812848,1.849985601694643],[52.67288547486935,1.859241035075128],[52.697729006574846,1.874220223309333],[52.71197750270008,1.894923166397258],[52.7357249962421,1.96287753253292],[52.77372098590935,2.021332901251768],[52.82340804932038,2.060303147064335],[52.87406936887671,2.128501077236325],[52.93934453061276,2.192801982827059],[53.03189886441761,2.196699007408315],[53.148809601855305,2.220081154895854],[53.242338191805466,2.245411814674022],[53.345609343208764,2.292176109649101],[53.49661904573246,2.399344285633657],[53.55702292674193,2.429546226138395],[53.5959931725545,2.467542215805647],[53.628143625349864,2.517229279216669],[53.6515257728374,2.616603406038712],[53.691470274795286,2.714029020570127],[53.74310585049693,2.765664596271777],[53.83663444044709,2.812428891246856],[53.95354517788479,2.875755540692275],[54.3492,3.4119],[54.963,3.825],[55.584,4.2408],[55.7667,5.0472],[55.467,5.733],[55.1745,6.4269],[55.2249,6.9696],[54.855,7.632],[54.4851,8.2872],[54.594,8.82],[54.7164,9.45],[54.9594,10.4355],[54.9837,10.8927],[54.8361,11.3355]]}},{"type":"Feature","properties":{"id":14,"group":"trails","name":"Saple Townese Trail"},"geometry":{"type":"LineString","coordinates":[[48.4443,-49.2336],[48.825,-49.0347],[49.3578,-48.5019],[49.788,-47.8962],[50.0355,-47.412],[50.004,-46.926],[49.6512,-46.2762],[49.3956,-45.8946],[49.059,-45.387],[48.5532,-44.7516],[48.2931,-44.2575]]}},{"type":"Feature","properties":{"id":27,"group":"trails","name":"Broliganta Connector"},"geometry":{"type":"LineString","coordinates":[[21.451297469239833,2.170907222906886],[21.526536037947864,2.262268342052352],[21.550719863604016,2.391248745551834],[21.52384894620829,2.573970983842766],[21.496978028812567,2.676080469946522],[21.51310057925,2.788938323008568],[21.534597313166582,2.891047809112324],[21.585652056218457,2.947476735643348],[21.60714879013504,3.063021680444966],[21.636706799270335,3.208124634381883],[21.67163899188478,3.573569110963748],[21.811367762342556,4.215784036721583],[21.840925771477853,4.350138623700209],[21.79524521190512,4.489867394157981],[21.70119700102008,4.600038155480455],[21.65551644144735,4.702147641584211],[21.64745516622863,4.750515292896516],[21.65551644144735,4.79619585246925],[21.64745516622863,4.879495696395998],[21.62595843231205,5.000414824676762],[21.628645524051624,5.226130530800854]]}},{"type":"Feature","properties":{"id":37,"group":"trails","name":"Totonese road"},"geometry":{"type":"LineString","coordinates":[[0.0576,-26.1513],[-0.6858,-25.803],[-1.4418,-25.8075],[-1.8954,-25.7706],[-1.9944,-26.0523],[-1.9899,-26.4411],[-2.1258,-26.6994],[-2.4525,-26.6094],[-2.9007,-26.4456],[-3.1725,-26.4006],[-3.3813,-26.5365],[-3.2859,-26.7903],[-3.0411,-27.2934],[-2.8647,-27.6741],[-2.6244,-28.0449],[-2.493,-28.2537]]}},{"type":"Feature","properties":{"id":45,"group":"trails","name":"Monstagt route"},"geometry":{"type":"LineString","coordinates":[[40.6701,-30.1734],[40.5117,-30.1671],[40.3785,-30.1419],[40.2516,-30.06],[40.0932,-29.9835],[39.9024,-29.9961],[39.6801,-30.06],[39.5154,-30.1419],[39.3759,-30.2499],[39.2868,-30.3579],[39.1797,-30.3894],[39.0843,-30.3453],[38.9637,-30.3516],[38.8683,-30.4083],[38.7099,-30.4407],[38.5128,-30.4335],[38.4561,-30.3201],[38.3355,-30.1932],[38.1771,-30.1545],[38.0502,-30.1419],[37.9233,-30.1932],[37.8405,-30.2562],[37.7136,-30.3516],[37.6056,-30.3768],[37.4724,-30.3516],[37.3653,-30.294],[37.2447,-30.2373],[37.1556,-30.2058],[37.0476,-30.1671],[36.819,-30.0726]]}},{"type":"Feature","properties":{"id":53,"group":"trails","name":"Monch Road"},"geometry":{"type":"LineString","coordinates":[[-72.43088596268979,-22.130479178329445],[-72.42781452095045,-22.129826952609516],[-72.42472838094025,-22.129572271152362],[-72.37941006282945,-22.126770775123692],[-72.21095326018585,-22.12706290973628],[-72.15006941066441,-22.115077899987966],[-72.1153128823943,-22.108845694918845],[-72.08750765977821,-22.107647193944015],[-72.07288594788528,-22.107647193944015],[-72.06521554164638,-22.109564795503744],[-72.0580245357974,-22.113160298428237],[-72.03117811396115,-22.1347333159752],[-72.01559760128836,-22.14887562747821],[-71.9961818854961,-22.16157973781142],[-71.98179987379812,-22.168051643075508],[-71.96693846171021,-22.172126546389936],[-71.89838420594987,-22.185549757308042],[-71.7660696983285,-22.181714554188584],[-71.081,-22.1841],[-70.28450000000001,-22.2453],[-69.8768,-22.3065],[-69.3863,-23.0616],[-68.89580000000001,-23.5314],[-68.65100000000001,-24.1236],[-68.7329,-25.1451],[-68.65100000000001,-25.9209],[-68.44669999999999,-26.7372],[-67.7933,-27.1053],[-67.4468,-27.6156],[-67.3649,-28.269],[-67.0139,-28.548],[-66.7286,-28.9143],[-66.56569999999999,-29.3022],[-65.7701,-29.7918],[-65.1788,-30.2607],[-65.2607,-30.9132],[-65.4236,-31.5252],[-65.66839999999999,-32.1165],[-65.8925,-32.6259],[-65.9132,-33.156],[-65.66839999999999,-33.5637],[-65.0159,-33.6456],[-64.34270000000001,-33.8904],[-63.629,-34.1352],[-63.0989,-34.6851],[-62.6705,-34.8489],[-61.9568,-34.9101],[-61.406,-35.0325],[-60.7949,-35.1549],[-60.407,-35.1549],[-59.9588,-35.0118],[-59.3675,-35.0118],[-59.0615,-35.1135],[-58.6628,-35.1774]]}},{"type":"Feature","properties":{"id":57,"group":"trails","name":"Totoku Pass"},"geometry":{"type":"LineString","coordinates":[[-35.577,-9.5544],[-35.60825800732825,-9.531872196055012],[-36.3231,-8.9955],[-36.7002,-8.3268],[-37.1538,-7.0956],[-37.3239,-5.6115],[-38.0079,-5.2785],[-38.8359,-5.0535],[-40.2435,-4.3731],[-41.6025,-3.087],[-41.89,-2.62]]}},{"type":"Feature","properties":{"id":58,"group":"trails","name":"Ember way"},"geometry":{"type":"LineString","coordinates":[[-72.43133981910128,-22.130653397482895],[-72.43840627331552,-22.133317586698713],[-72.47552984101092,-22.149422443548],[-72.71815887273446,-22.267047823596574],[-72.85334978269543,-22.218148983823458],[-72.9827,-22.2714],[-73.2599,-22.4064],[-73.3643,-22.6386],[-73.3121,-22.8861],[-73.2527,-23.2461],[-73.3868,-23.5161],[-73.6424,-23.6808],[-74.0096,-23.6727],[-74.3543,-23.8383],[-74.654,-23.9283],[-74.8637,-24.0408],[-75.2984,-24.318],[-75.4856,-24.5052],[-75.6296,-24.9786]]}},{"type":"Feature","properties":{"id":59,"group":"trails","name":"Port Regret Pass"},"geometry":{"type":"LineString","coordinates":[[-17.7282,22.0167],[-17.9802,22.3047],[-18.1377,22.7322],[-17.9901,23.0418],[-18.0954,23.5305],[-18.306,23.9508]]}}]}