{
"type": "FeatureCollection",
"name": "Routes",
"features": [
{ "type": "Feature", "properties": { "id": null, "group": null, "name": null }, "geometry": { "type": "LineString", "coordinates": [ [ -66.788010150603725, -17.569121210681786 ], [ -66.790892022837085, -17.574047115628023 ], [ -66.793858921020558, -17.578922281499835 ], [ -66.796909952083354, -17.583745240815716 ], [ -66.800044197629717, -17.588514541808934 ], [ -66.803260714215355, -17.593228748864536 ], [ -66.80655853363146, -17.597886442951488 ], [ -66.809936663196083, -17.602486222049809 ], [ -66.813394086053052, -17.607026701572607 ], [ -66.816929761477937, -17.61150651478285 ], [ -66.820542625191393, -17.615924313204768 ], [ -66.824231589679542, -17.62027876702976 ], [ -66.827995544521244, -17.624568565516689 ], [ -66.831833356722399, -17.628792417386425 ], [ -66.835743871057005, -17.632949051210527 ], [ -66.839725910414842, -17.637037215793974 ], [ -66.843778276155874, -17.641055680551784 ], [ -66.847899748470951, -17.645003235879422 ], [ -66.852089086749103, -17.648878693516917 ], [ -66.856345029950873, -17.652680886906548 ], [ -66.860666296987958, -17.656408671543968 ], [ -66.865051587108823, -17.660060925322743 ], [ -66.869499580290267, -17.663636548872091 ], [ -66.874008937634699, -17.66713446588783 ], [ -66.878578301773231, -17.670553623456343 ], [ -66.883206297274228, -17.673892992371513 ], [ -66.887891531057321, -17.67715156744454 ], [ -66.89263259281276, -17.680328367806514 ], [ -66.897428055425948, -17.683422437203649 ], [ -66.902276475406978, -17.68643284428515 ], [ -66.907176393325159, -17.689358682883547 ], [ -66.912126334248342, -17.692199072287462 ], [ -66.917124808186841, -17.69495315750672 ], [ -66.922170310541986, -17.697620109529709 ], [ -66.927261322559033, -17.700199125572912 ], [ -66.93239631178426, -17.702689429322572 ], [ -66.937573732526332, -17.705090271168352 ], [ -66.942792026321484, -17.707400928428999 ], [ -66.948049622402749, -17.709620705569858 ], [ -66.953344938172677, -17.711748934412242 ], [ -66.958676379679758, -17.713784974334576 ], [ -66.964042342098239, -17.715728212465208 ], [ -66.96944121021113, -17.71757806386691 ], [ -66.974871358896479, -17.719333971712938 ], [ -66.980331153616518, -17.720995407454655 ], [ -66.98581895090966, -17.72256187098062 ], [ -66.991333098885235, -17.724032890767127 ], [ -66.996871937720698, -17.725408024020147 ], [ -67.00243380016127, -17.726686856808616 ], [ -67.008017012021824, -17.727869004189021 ], [ -67.01361989269077, -17.728954110321279 ], [ -67.019240755636019, -17.729941848575852 ], [ -67.024877908912586, -17.730831921632056 ], [ -67.030529655671884, -17.73162406156758 ], [ -67.036194294672569, -17.732318029939105 ], [ -67.041870120792566, -17.732913617854095 ], [ -67.047555425542313, -17.733410646033679 ], [ -67.053248497579105, -17.733808964866604 ], [ -67.058947623222181, -17.73410845445428 ], [ -67.064651086968595, -17.734309024646862 ], [ -67.070357172009551, -17.734410615070399 ], [ -67.076064160747237, -17.734413195144992 ], [ -67.088484913183663, -17.733404730401748 ], [ -67.100921238672385, -17.732611067649767 ], [ -67.113369422749855, -17.732032443939087 ], [ -67.12582574741063, -17.731669032092185 ], [ -67.138286492217858, -17.731520940652384 ], [ -67.150747935414444, -17.731588213851424 ], [ -67.16320635503476, -17.73187083159624 ], [ -67.17565803001618, -17.732368709474972 ], [ -67.188099241310624, -17.73308169878219 ], [ -67.200526272995262, -17.734009586563285 ], [ -67.212935413382411, -17.735152095678089 ], [ -67.225322956128124, -17.736508884883648 ], [ -67.237685201339232, -17.738079548936142 ], [ -67.250018456678362, -17.739863618711926 ], [ -67.262319038466842, -17.741860561347639 ], [ -67.274583272784838, -17.744069780399379 ], [ -67.286807496568755, -17.746490616020818 ], [ -67.298988058705262, -17.749122345160306 ], [ -67.311121321121874, -17.751964181776827 ], [ -67.323203659873457, -17.755015277074769 ], [ -67.335231466224727, -17.758274719757445 ], [ -67.347201147728043, -17.761741536299269 ], [ -67.359109129296385, -17.76541469123654 ], [ -67.370951854271212, -17.769293087476697 ], [ -67.382725785484737, -17.773375566626022 ], [ -67.394427406316339, -17.777660909335598 ], [ -67.406053221743022, -17.782147835665519 ], [ -67.41759975938318, -17.786835005467179 ], [ -67.429063570533813, -17.791721018783548 ], [ -67.440441231200552, -17.796804416267296 ], [ -67.45172934312032, -17.802083679616686 ], [ -67.462924534776306, -17.807557232029048 ], [ -67.474023462405029, -17.813223438671734 ], [ -67.485022810994977, -17.81908060717042 ], [ -67.495919295276778, -17.825126988114569 ], [ -67.506709660704402, -17.831360775579945 ], [ -67.517390684427269, -17.83778010766801 ], [ -67.527959176252807, -17.844383067062026 ], [ -67.538411979599275, -17.851167681599719 ], [ -67.548745972438667, -17.858131924862324 ], [ -67.55895806822906, -17.865273716779832 ], [ -67.569045216836614, -17.872590924252254 ], [ -67.579004405446497, -17.880081361786747 ], [ -67.588832659462781, -17.887742792150362 ], [ -67.598527043396928, -17.895572927038266 ], [ -67.608084661744471, -17.903569427757194 ], [ -67.617502659849933, -17.911729905923991 ], [ -67.626778224759391, -17.920051924178946 ], [ -67.635908586060637, -17.928532996913798 ], [ -67.644891016710702, -17.937170591014123 ], [ -67.65372283385031, -17.945962126615925 ], [ -67.662401399605216, -17.954904977876183 ], [ -67.670924121874066, -17.963996473757138 ], [ -67.679288455102594, -17.97323389882407 ], [ -67.687491901043998, -17.982614494056349 ], [ -67.695532009504987, -17.99213545767148 ], [ -67.70340637907772, -18.001793945961957 ], [ -67.711112657856987, -18.01158707414459 ], [ -67.718648544142695, -18.021511917222149 ], [ -67.72601178712732, -18.031565510856996 ], [ -67.733200187568201, -18.041744852256461 ], [ -67.740211598444375, -18.052046901069712 ], [ -67.747043925597907, -18.062468580295846 ], [ -67.753695128359269, -18.073006777202931 ], [ -67.76016322015694, -18.083658344257696 ], [ -67.766446269110702, -18.094420100065641 ], [ -67.772542398608664, -18.105288830321253 ], [ -67.778449787867771, -18.116261288768047 ], [ -67.784166672477625, -18.12733419816815 ], [ -67.789691344927476, -18.138504251281145 ], [ -67.795022155116214, -18.149768111851877 ], [ -67.800157510845239, -18.161122415606911 ], [ -67.805095878293997, -18.17256377125938 ], [ -67.809835782478117, -18.184088761521881 ], [ -67.814375807689913, -18.195693944127143 ], [ -67.8187145979213, -18.207375852856167 ], [ -67.822850857268747, -18.219130998573505 ], [ -67.826783350320341, -18.230955870269401 ], [ -67.830510902524807, -18.242846936108435 ], [ -67.834032400542299, -18.254800644484423 ], [ -67.837346792576909, -18.266813425081192 ], [ -67.840453088690879, -18.278881689938977 ], [ -67.843350361100207, -18.291001834526039 ], [ -67.846037744451806, -18.303170238815294 ], [ -67.848514436081956, -18.315383268365512 ], [ -67.850779696255998, -18.32763727540685 ], [ -67.852832848389326, -18.339928599930374 ], [ -67.854673279249468, -18.352253570781226 ], [ -67.856300439139218, -18.364608506755093 ], [ -67.857713842060846, -18.376989717697747 ], [ -67.858913065861216, -18.389393505607163 ], [ -67.859897752357909, -18.40181616573809 ], [ -67.860667607446231, -18.414253987708527 ], [ -67.86122240118695, -18.426703256607968 ], [ -67.856501713854513, -18.44782420587207 ], [ -67.852144711131956, -18.469023166082025 ], [ -67.848152680012163, -18.490293875384868 ], [ -67.844526799680878, -18.511630050734041 ], [ -67.841268141168428, -18.533025389745301 ], [ -67.83837766703337, -18.554473572558354 ], [ -67.835856231078154, -18.57596826370364 ], [ -67.833704578096899, -18.597503113973744 ], [ -67.831923343655447, -18.619071762298848 ], [ -67.830513053903559, -18.640667837625706 ], [ -67.829474125419566, -18.662284960799539 ], [ -67.828806865087245, -18.683916746448354 ], [ -67.828511470005225, -18.705556804869094 ], [ -67.828588027428779, -18.727198743915039 ], [ -67.82903651474399, -18.748836170883965 ], [ -67.829856799474456, -18.770462694406447 ], [ -67.831048639320471, -18.792071926333772 ], [ -67.832611682230521, -18.813657483624908 ], [ -67.834545466505304, -18.835212990231948 ], [ -67.836849420934129, -18.856732078983505 ], [ -67.839522864963641, -18.878208393465478 ], [ -67.842565008898802, -18.89963558989864 ], [ -67.845974954136196, -18.92100733901249 ], [ -67.849751693429454, -18.942317327914839 ], [ -67.853894111186776, -18.963559261956526 ], [ -67.858400983800479, -18.984726866590762 ], [ -67.863270980008394, -19.005813889226555 ], [ -67.868502661287124, -19.026814101075612 ], [ -67.874094482276973, -19.04772129899224 ], [ -67.880044791238376, -19.068529307305656 ], [ -67.88635183053988, -19.089231979644197 ], [ -67.893013737177228, -19.109823200750839 ], [ -67.900028543323742, -19.130296888289589 ], [ -67.907394176911524, -19.150646994642091 ], [ -67.915108462243552, -19.170867508693998 ], [ -67.923169120636373, -19.190952457610585 ], [ -67.931573771093099, -19.210895908601014 ], [ -67.940319931006826, -19.230691970670808 ], [ -67.949405016893877, -19.25033479636194 ], [ -67.958826345156993, -19.269818583480109 ], [ -67.968581132877958, -19.289137576808603 ], [ -67.978666498639683, -19.308286069808311 ], [ -67.989079463377294, -19.327258406303343 ], [ -67.99981695125814, -19.346048982151789 ] ] } },
{ "type": "Feature", "properties": { "id": 7, "group": "trails", "name": "Big Bayan Trail" }, "geometry": { "type": "LineString", "coordinates": [ [ 21.617225384158427, 5.25904740461061 ], [ 21.650814030903081, 5.315476331141633 ], [ 21.670295446014983, 5.355110934300328 ], [ 21.683730904712846, 5.414226952570923 ], [ 21.687089769387317, 5.483419564864916 ], [ 21.681715585908172, 5.521038849218932 ], [ 21.685074450582636, 5.564704089986985 ], [ 21.708586503303898, 5.664126484351169 ], [ 21.7280679184158, 5.725929594361336 ], [ 21.739823944776429, 5.770266608064283 ], [ 21.753595289941739, 5.799488730732134 ], [ 21.774084364455977, 5.826023761660412 ], [ 21.784160958479376, 5.837108015086149 ], [ 21.798939963047022, 5.840466879760615 ], [ 21.819093151093817, 5.842482198565294 ], [ 21.843948749684863, 5.840130993293168 ], [ 21.874178531755057, 5.846512836174653 ], [ 21.908103064967158, 5.858940635470177 ], [ 21.964531991498177, 5.885139779931008 ], [ 22.006937658013307, 5.90831594618482 ], [ 22.021128861262923, 5.914529845832583 ], [ 22.039770560206208, 5.917048994338433 ], [ 22.05068687039822, 5.926957645128107 ], [ 22.057992401065185, 5.93787395532012 ], [ 22.060763464421616, 5.949797924914472 ], [ 22.061351265739649, 5.963401326846058 ], [ 22.059335946934972, 6.035281030879625 ], [ 22.074114951502622, 6.090366411540861 ], [ 22.103001187703025, 6.198521854058657 ], [ 22.115764873465995, 6.234797592542886 ], [ 22.139276926187257, 6.270401558092223 ], [ 22.168834935322554, 6.294585383748375 ], [ 22.201080036197425, 6.306005523641558 ], [ 22.252134779249303, 6.331532895167498 ], [ 22.295800020017357, 6.376541681805338 ], [ 22.315281435129258, 6.395351323982346 ], [ 22.34148057959009, 6.408115009745315 ], [ 22.395894187316433, 6.420878695508285 ], [ 22.451979863932998, 6.433311592574815 ], [ 22.499759572322525, 6.450175019065235 ], [ 22.534423282330607, 6.473128016232752 ], [ 22.560655279093485, 6.501702155563741 ], [ 22.583139847747379, 6.538239579626319 ], [ 22.62436155694618, 6.611782856265097 ], [ 22.655746267358907, 6.649725565868542 ], [ 22.676825550471932, 6.668462706413454 ], [ 22.6971, 6.6816 ], [ 22.7213262592661, 6.690010418040101 ], [ 22.745216113460859, 6.695631560203575 ], [ 22.80049067806835, 6.701721130880672 ], [ 22.849675671998742, 6.700315845339802 ], [ 22.909166093228837, 6.690478846553725 ], [ 22.982240941353989, 6.661904707222734 ], [ 23.060936931642619, 6.615530284374079 ], [ 23.223950054383351, 6.570561147066291 ], [ 23.347615181979762, 6.581803431393238 ], [ 23.456290597140253, 6.623025140592043 ], [ 23.621177433935472, 6.765427408733371 ], [ 23.74858998964087, 7.042737088798059 ], [ 23.94345625130795, 7.702284435978942 ], [ 24.2856, 8.2881 ], [ 24.700436729322373, 8.594172325916727 ], [ 25.1568, 8.793 ], [ 25.8039, 9.1386 ], [ 26.4582, 9.2583 ], [ 26.901, 9.612 ], [ 27.3591, 9.8838 ], [ 27.945, 9.954 ], [ 28.3347, 10.512 ], [ 28.9638, 11.1789 ], [ 29.5929, 11.6442 ], [ 29.918730371080215, 11.843192496404374 ], [ 30.285978325760478, 11.93687819912893 ], [ 30.600762286914993, 11.940625627237912 ], [ 30.889314251306626, 11.88816163371216 ], [ 31.177866215698263, 11.77199136233371 ], [ 31.462670751980916, 11.704537656372029 ], [ 31.650042157430033, 11.678305659609153 ], [ 31.747475288263569, 11.674558231500169 ], [ 31.852403275315076, 11.685800515827117 ], [ 32.249630654867197, 11.715779940698976 ], [ 33.0795, 11.7918 ], [ 33.362616803234943, 11.824455355859461 ], [ 33.651168767626579, 11.906898774257071 ], [ 34.040901290960733, 12.131744460796009 ], [ 34.4088, 12.3993 ], [ 34.833482336010491, 12.602046688473285 ], [ 35.060201736603915, 12.647952682808318 ], [ 35.106107730938945, 12.648889539835563 ], [ 35.140771440947027, 12.635773541454126 ], [ 35.234457143671584, 12.482128988985853 ], [ 35.324395418287168, 12.324737008408595 ], [ 35.474292542646459, 12.144860459177446 ], [ 35.685, 11.9412 ] ] } },
{ "type": "Feature", "properties": { "id": 9, "group": "trails", "name": "Khn Trail" }, "geometry": { "type": "LineString", "coordinates": [ [ 40.6953, -30.1671 ], [ 40.4325, -30.4281 ], [ 40.1256, -30.7251 ], [ 40.1391, -31.1922 ], [ 40.1319, -31.8024 ], [ 40.0887, -32.1291 ], [ 40.0158, -32.4855 ], [ 40.032, -32.9688 ], [ 40.095, -33.4818 ], [ 40.1121, -34.1325 ], [ 40.3686, -34.6293 ], [ 40.5585, -35.5554 ], [ 40.2885, -35.6688 ], [ 39.9654, -36.1593 ], [ 39.9987, -36.5922 ], [ 40.0284, -36.8991 ], [ 40.0725, -37.2393 ], [ 40.2921, -38.0097 ], [ 40.3992, -38.4228 ], [ 40.6422, -38.9259 ], [ 41.112, -39.4461 ], [ 41.7438, -40.1634 ], [ 41.985, -40.68 ], [ 42.0804, -41.283 ], [ 42.2532, -41.8014 ], [ 42.7014, -42.6429 ], [ 43.317, -43.038 ], [ 43.8849, -43.1523 ], [ 44.0289, -43.1766 ], [ 44.8695, -43.8633 ], [ 45.5103, -43.6878 ], [ 46.1403, -43.6878 ], [ 46.4706, -44.1522 ], [ 47.8872, -44.7066 ], [ 48.2904, -44.2566 ], [ 48.9339, -43.6437 ], [ 49.6854, -43.3944 ], [ 50.3271, -43.0956 ], [ 50.661, -42.624 ], [ 50.7339, -42.4269 ], [ 50.8995, -42.0822 ], [ 51.0102, -41.6664 ], [ 51.1857, -41.292 ], [ 51.831, -40.968 ], [ 52.3323, -40.5873 ], [ 52.56, -40.077 ], [ 52.8012, -39.5955 ], [ 53.3259, -39.3003 ], [ 53.5662, -38.6037 ], [ 53.7435, -37.6965 ], [ 53.6634, -37.1466 ], [ 53.6454, -36.7974 ], [ 53.4042, -36.3339 ], [ 53.622, -35.3826 ], [ 54.0036, -34.9857 ], [ 54.1989, -34.254 ], [ 54.2538, -33.192 ], [ 54.3159, -32.7258 ], [ 54.585, -32.3613 ], [ 54.72, -31.779 ], [ 54.8658, -31.446 ], [ 54.8622, -31.1985 ], [ 55.278, -30.555 ], [ 55.5435, -29.9142 ], [ 55.5075, -29.2833 ], [ 55.827, -28.674 ], [ 55.9278, -28.035 ], [ 55.6056, -27.3546 ], [ 55.2915, -26.5122 ], [ 54.765, -26.064 ], [ 54.2664, -25.677 ], [ 54.054, -25.011 ], [ 53.8731, -24.4647 ], [ 53.5896, -24.1866 ], [ 53.442, -23.598 ], [ 53.091, -23.0148 ], [ 53.118, -22.464 ], [ 53.3268, -21.9303 ], [ 53.5671, -21.078 ], [ 53.46, -20.25 ], [ 53.3583, -19.4184 ], [ 53.2701, -18.8937 ], [ 53.532, -18.144 ], [ 53.793, -17.3979 ], [ 54.225, -16.857 ], [ 54.6651, -16.3089 ], [ 54.9837, -15.6906 ], [ 55.3977, -14.9031 ], [ 55.638, -14.193 ], [ 55.8702, -13.4811 ], [ 55.8612, -12.7818 ], [ 55.647, -12.294 ], [ 55.4346, -11.8089 ], [ 55.422, -10.854 ], [ 55.404, -9.9009 ], [ 55.1853, -9.2574 ], [ 55.3122, -8.4699 ], [ 55.0377, -7.8408 ], [ 55.098, -7.29 ], [ 55.3185, -6.7689 ], [ 55.3743, -6.1731 ], [ 55.098, -5.697 ], [ 54.801, -5.2236 ], [ 54.72, -4.545 ], [ 54.711, -3.7899 ], [ 54.405, -3.303 ], [ 54.1485, -2.8962 ], [ 54.099, -2.43 ], [ 54.0711, -1.8675 ], [ 53.6787, -1.2186 ], [ 53.2926, -0.3258 ], [ 52.9902, 0.0405 ], [ 52.8435, 0.5715 ], [ 52.7247, 1.2402 ], [ 52.5906, 1.6173 ], [ 52.566691555030097, 1.800663884338115 ], [ 52.565960862921109, 1.808457933500628 ], [ 52.565230170812121, 1.816617328717634 ], [ 52.565351952830291, 1.825142069989133 ], [ 52.565595516866615, 1.826968800261597 ], [ 52.565991308425652, 1.828445407231838 ], [ 52.566356654480145, 1.8293435496158 ], [ 52.566813337048259, 1.830135132733868 ], [ 52.567620142918599, 1.831094166126911 ], [ 52.568503062550292, 1.83193141750179 ], [ 52.570999593922657, 1.83362114300382 ], [ 52.575459860337922, 1.835980669605753 ], [ 52.600790520116099, 1.841582642441309 ], [ 52.641100368128477, 1.849985601694643 ], [ 52.672885474869346, 1.859241035075128 ], [ 52.697729006574846, 1.874220223309333 ], [ 52.71197750270008, 1.894923166397258 ], [ 52.735724996242098, 1.96287753253292 ], [ 52.77372098590935, 2.021332901251768 ], [ 52.823408049320378, 2.060303147064335 ], [ 52.874069368876711, 2.128501077236325 ], [ 52.939344530612757, 2.192801982827059 ], [ 53.031898864417613, 2.196699007408315 ], [ 53.148809601855305, 2.220081154895854 ], [ 53.242338191805466, 2.245411814674022 ], [ 53.345609343208764, 2.292176109649101 ], [ 53.496619045732459, 2.399344285633657 ], [ 53.557022926741929, 2.429546226138395 ], [ 53.5959931725545, 2.467542215805647 ], [ 53.628143625349864, 2.517229279216669 ], [ 53.651525772837402, 2.616603406038712 ], [ 53.691470274795286, 2.714029020570127 ], [ 53.743105850496931, 2.765664596271777 ], [ 53.836634440447092, 2.812428891246856 ], [ 53.953545177884791, 2.875755540692275 ], [ 54.3492, 3.4119 ], [ 54.963, 3.825 ], [ 55.584, 4.2408 ], [ 55.7667, 5.0472 ], [ 55.467, 5.733 ], [ 55.1745, 6.4269 ], [ 55.2249, 6.9696 ], [ 54.855, 7.632 ], [ 54.4851, 8.2872 ], [ 54.594, 8.82 ], [ 54.7164, 9.45 ], [ 54.9594, 10.4355 ], [ 54.9837, 10.8927 ], [ 54.8361, 11.3355 ] ] } },
{ "type": "Feature", "properties": { "id": 14, "group": "trails", "name": "Saple Townese Trail" }, "geometry": { "type": "LineString", "coordinates": [ [ 48.4443, -49.2336 ], [ 48.825, -49.0347 ], [ 49.3578, -48.5019 ], [ 49.788, -47.8962 ], [ 50.0355, -47.412 ], [ 50.004, -46.926 ], [ 49.6512, -46.2762 ], [ 49.3956, -45.8946 ], [ 49.059, -45.387 ], [ 48.5532, -44.7516 ], [ 48.2931, -44.2575 ] ] } },
{ "type": "Feature", "properties": { "id": 27, "group": "trails", "name": "Broliganta Connector" }, "geometry": { "type": "LineString", "coordinates": [ [ 21.451297469239833, 2.170907222906886 ], [ 21.526536037947864, 2.262268342052352 ], [ 21.550719863604016, 2.391248745551834 ], [ 21.52384894620829, 2.573970983842766 ], [ 21.496978028812567, 2.676080469946522 ], [ 21.513100579250001, 2.788938323008568 ], [ 21.534597313166582, 2.891047809112324 ], [ 21.585652056218457, 2.947476735643348 ], [ 21.607148790135039, 3.063021680444966 ], [ 21.636706799270335, 3.208124634381883 ], [ 21.67163899188478, 3.573569110963748 ], [ 21.811367762342556, 4.215784036721583 ], [ 21.840925771477853, 4.350138623700209 ], [ 21.795245211905119, 4.489867394157981 ], [ 21.701197001020081, 4.600038155480455 ], [ 21.65551644144735, 4.702147641584211 ], [ 21.647455166228632, 4.750515292896516 ], [ 21.65551644144735, 4.79619585246925 ], [ 21.647455166228632, 4.879495696395998 ], [ 21.62595843231205, 5.000414824676762 ], [ 21.628645524051624, 5.226130530800854 ] ] } },
{ "type": "Feature", "properties": { "id": 37, "group": "trails", "name": "Totonese road" }, "geometry": { "type": "LineString", "coordinates": [ [ 0.0576, -26.1513 ], [ -0.6858, -25.803 ], [ -1.4418, -25.8075 ], [ -1.8954, -25.7706 ], [ -1.9944, -26.0523 ], [ -1.9899, -26.4411 ], [ -2.1258, -26.6994 ], [ -2.4525, -26.6094 ], [ -2.9007, -26.4456 ], [ -3.1725, -26.4006 ], [ -3.3813, -26.5365 ], [ -3.2859, -26.7903 ], [ -3.0411, -27.2934 ], [ -2.8647, -27.6741 ], [ -2.6244, -28.0449 ], [ -2.493, -28.2537 ] ] } },
{ "type": "Feature", "properties": { "id": 45, "group": "trails", "name": "Monstagt route" }, "geometry": { "type": "LineString", "coordinates": [ [ 40.6701, -30.1734 ], [ 40.5117, -30.1671 ], [ 40.3785, -30.1419 ], [ 40.2516, -30.06 ], [ 40.0932, -29.9835 ], [ 39.9024, -29.9961 ], [ 39.6801, -30.06 ], [ 39.5154, -30.1419 ], [ 39.3759, -30.2499 ], [ 39.2868, -30.3579 ], [ 39.1797, -30.3894 ], [ 39.0843, -30.3453 ], [ 38.9637, -30.3516 ], [ 38.8683, -30.4083 ], [ 38.7099, -30.4407 ], [ 38.5128, -30.4335 ], [ 38.4561, -30.3201 ], [ 38.3355, -30.1932 ], [ 38.1771, -30.1545 ], [ 38.0502, -30.1419 ], [ 37.9233, -30.1932 ], [ 37.8405, -30.2562 ], [ 37.7136, -30.3516 ], [ 37.6056, -30.3768 ], [ 37.4724, -30.3516 ], [ 37.3653, -30.294 ], [ 37.2447, -30.2373 ], [ 37.1556, -30.2058 ], [ 37.0476, -30.1671 ], [ 36.819, -30.0726 ] ] } },
{ "type": "Feature", "properties": { "id": 53, "group": "trails", "name": "Monch Road" }, "geometry": { "type": "LineString", "coordinates": [ [ -64.430885962689786, -22.130479178329445 ], [ -64.427814520950449, -22.129826952609516 ], [ -64.424728380940252, -22.129572271152362 ], [ -64.37941006282945, -22.126770775123692 ], [ -64.210953260185846, -22.127062909736281 ], [ -64.150069410664415, -22.115077899987966 ], [ -64.115312882394306, -22.108845694918845 ], [ -64.087507659778211, -22.107647193944015 ], [ -64.072885947885283, -22.107647193944015 ], [ -64.065215541646381, -22.109564795503744 ], [ -64.058024535797401, -22.113160298428237 ], [ -64.031178113961147, -22.1347333159752 ], [ -64.015597601288363, -22.148875627478208 ], [ -63.9961818854961, -22.161579737811419 ], [ -63.981799873798124, -22.168051643075508 ], [ -63.966938461710221, -22.172126546389936 ], [ -63.898384205949867, -22.185549757308042 ], [ -63.766069698328494, -22.181714554188584 ], [ -63.081, -22.1841 ], [ -62.2845, -22.2453 ], [ -61.8768, -22.3065 ], [ -61.3863, -23.0616 ], [ -60.8958, -23.5314 ], [ -60.651, -24.1236 ], [ -60.7329, -25.1451 ], [ -60.651, -25.9209 ], [ -60.4467, -26.7372 ], [ -59.7933, -27.1053 ], [ -59.4468, -27.6156 ], [ -59.3649, -28.269 ], [ -59.0139, -28.548 ], [ -58.7286, -28.9143 ], [ -58.5657, -29.3022 ], [ -57.7701, -29.7918 ], [ -57.1788, -30.2607 ], [ -57.2607, -30.9132 ], [ -57.4236, -31.5252 ], [ -57.6684, -32.1165 ], [ -57.8925, -32.6259 ], [ -57.9132, -33.156 ], [ -57.6684, -33.5637 ], [ -57.0159, -33.6456 ], [ -56.3427, -33.8904 ], [ -55.629, -34.1352 ], [ -55.0989, -34.6851 ], [ -54.6705, -34.8489 ], [ -53.9568, -34.9101 ], [ -53.406, -35.0325 ], [ -52.7949, -35.1549 ], [ -52.407, -35.1549 ], [ -51.9588, -35.0118 ], [ -51.3675, -35.0118 ], [ -51.0615, -35.1135 ], [ -50.6628, -35.1774 ] ] } },
{ "type": "Feature", "properties": { "id": 57, "group": "trails", "name": "Totoku Pass" }, "geometry": { "type": "LineString", "coordinates": [ [ -35.577, -9.5544 ], [ -35.608258007328253, -9.531872196055012 ], [ -36.3231, -8.9955 ], [ -36.7002, -8.3268 ], [ -37.1538, -7.0956 ], [ -37.3239, -5.6115 ], [ -38.0079, -5.2785 ], [ -38.8359, -5.0535 ], [ -40.2435, -4.3731 ], [ -41.6025, -3.087 ], [ -41.89, -2.62 ] ] } },
{ "type": "Feature", "properties": { "id": 58, "group": "trails", "name": "Ember way" }, "geometry": { "type": "LineString", "coordinates": [ [ -64.431339819101282, -22.130653397482895 ], [ -64.438406273315522, -22.133317586698713 ], [ -64.475529841010925, -22.149422443548001 ], [ -64.718158872734463, -22.267047823596574 ], [ -64.853349782695432, -22.218148983823458 ], [ -64.9827, -22.2714 ], [ -65.2599, -22.4064 ], [ -65.3643, -22.6386 ], [ -65.3121, -22.8861 ], [ -65.2527, -23.2461 ], [ -65.3868, -23.5161 ], [ -65.6424, -23.6808 ], [ -66.0096, -23.6727 ], [ -66.3543, -23.8383 ], [ -66.654, -23.9283 ], [ -66.8637, -24.0408 ], [ -67.2984, -24.318 ], [ -67.4856, -24.5052 ], [ -67.6296, -24.9786 ] ] } },
{ "type": "Feature", "properties": { "id": 59, "group": "trails", "name": "Port Regret Pass" }, "geometry": { "type": "LineString", "coordinates": [ [ -17.7282, 22.0167 ], [ -17.9802, 22.3047 ], [ -18.1377, 22.7322 ], [ -17.9901, 23.0418 ], [ -18.0954, 23.5305 ], [ -18.306, 23.9508 ] ] } }
]
}
