{"type":"FeatureCollection","name":"Routes","features":[{"type":"Feature","properties":{"id":7,"group":"roads","name":"Silvered road"},"geometry":{"type":"LineString","coordinates":[[55.8927,11.7882],[55.2231,11.5497],[54.8244,11.349],[54.0864,11.1636],[53.6094,11.232],[51.4494,11.5956],[48.1302,11.0952],[45.3564,10.1178],[42.7914,9.9486],[40.9014,9.8478],[38.9637,10.2105],[37.3068,10.5156],[36.8604,10.9296],[36.5445,11.547],[35.6904,11.9061]]}},{"type":"Feature","properties":{"id":13,"group":"roads","name":"Towblester Route"},"geometry":{"type":"LineString","coordinates":[[30.9672,-3.4605],[30.4884,-3.3444],[29.9034,-3.429],[29.196,-3.4506],[28.5318,-3.4263],[27.729,-3.24],[26.9865,-3.1932],[26.3781,-3.429],[26.02712634965568,-3.464246160581927],[25.915104158812298,-3.453825491666264],[25.81350263688458,-3.383485976485535],[25.71711144941469,-3.26104311672649],[25.628535763631554,-3.119061502750575],[25.508698071101417,-2.809046602509587],[25.452041816380515,-2.724055378495542],[25.338059617607428,-2.669670155762588],[24.734963404113408,-2.604540975039692],[24.6267,-2.5542],[24.565627534233876,-2.452138692148113],[24.1902,-1.3806],[23.8806,-0.6057],[23.4072,0.0945],[23.0778,0.3168],[22.9428,0.7137],[22.7412,1.3671],[22.3569,1.6632],[21.96,1.7982],[21.5964,2.1681]]}},{"type":"Feature","properties":{"id":22,"group":"roads","name":"Arcane route"},"geometry":{"type":"LineString","coordinates":[[-55.14482868967055,7.638838850486707],[-55.6758,7.8705],[-56.088,8.1081],[-56.709,8.4285],[-57.1491,8.6319],[-57.8277,8.8947],[-58.6134,8.892],[-59.6286,8.8038],[-60.0147,8.8695],[-60.5403,8.838],[-61.1622,8.4978],[-62.0739,8.046],[-63.3438,7.1082],[-64.0683,6.3504],[-64.2807,5.5917],[-64.8432,4.7313],[-65.781,2.9502],[-67.0158,1.0494],[-67.5189,0.0531],[-68.0733,-0.6462],[-68.0301,-1.3275],[-67.7835,-2.0178],[-67.9284,-2.9466],[-68.3028,-3.4839],[-68.3541,-4.0545],[-67.9986,-4.9653],[-67.8087,-5.6475],[-68.2227,-6.876],[-68.913,-7.6221],[-69.9489,-8.7822],[-70.9578,-10.0116],[-71.8974,-11.034],[-72.5463,-13.1607],[-72.2979,-14.5008],[-71.676,-15.399],[-70.1838,-15.8958],[-68.9688,-16.4349],[-67.7943,-17.4159],[-66.78801015060372,-17.569121210681786],[-66.59483814241322,-17.257408457673545],[-66.2256,-17.0271],[-64.9386,-16.9848],[-64.14921210932432,-17.50555874283053]]}},{"type":"Feature","properties":{"id":23,"group":"roads","name":"Storm Road"},"geometry":{"type":"LineString","coordinates":[[-55.14482868967055,7.638838850486707],[-55.5444,6.4017],[-55.6128,5.3721],[-55.3842,4.3659],[-54.4068,3.4983],[-54.3357,2.5236],[-54.5499,2.1933],[-55.0683,1.5678],[-55.5696,0.7722],[-56.311292347130305,0.664728304947177],[-56.6415,0.2628],[-56.7708738706652,-0.16507166810193],[-56.7027877190304,-0.624653191636821],[-56.775129255142375,-0.948062411902114],[-56.70704310350757,-1.207640865009783],[-56.7027877190304,-1.420410088868529],[-56.74321387156357,-1.803394691814271],[-56.51235926367685,-2.385318519067939],[-55.15478076940354,-3.382648846343884]]}},{"type":"Feature","properties":{"id":26,"group":"roads","name":"Brataian highway"},"geometry":{"type":"LineString","coordinates":[[23.905845724544175,-10.999997441621751],[24.015987430498985,-11.146138009934798],[24.368668779270685,-11.174352517836535],[24.58262879752552,-11.156718450397953],[24.776603539349953,-11.104991852578102],[24.83185695065752,-11.070899322196839],[24.847139809104295,-11.02740195584833],[24.84008618212886,-10.94863645462265],[24.834208159649332,-10.795807870154913],[24.80129123376397,-10.614764777785437],[24.73075496400963,-10.290297936915474],[24.702540456107894,-9.75422228678249],[24.9795,-9.1593],[25.2702,-8.7903],[25.4124,-8.0874],[25.9443,-7.3494],[26.7399,-6.597],[26.77090159351114,-6.505778900341198],[26.770901593511145,-6.396361876726731],[26.4222,-5.6763],[26.3133,-5.0976],[26.2053,-4.5558],[26.1873,-4.104],[26.3493,-3.8511],[26.3817,-3.6972],[26.3736,-3.4218]]}},{"type":"Feature","properties":{"id":28,"group":"trails","name":"Raian trail"},"geometry":{"type":"LineString","coordinates":[[30.609231562843103,-10.209364759146446],[30.608231510228453,-10.205482717043328],[30.60839433318026,-10.200760851440918],[30.609249153677247,-10.195998280100557],[30.611895026644117,-10.18867124726923],[30.61555854305978,-10.18028586525116],[30.62284487015316,-10.165468976636694],[30.631311663647136,-10.152443140492116],[30.64564008340617,-10.137789074829467],[30.66257367039412,-10.128019697721033],[30.680484195092916,-10.121181133745129],[30.708164096900145,-10.114016923865611],[30.741054333165206,-10.101968025431876],[30.772316339912194,-10.089593481094527],[30.80878868111702,-10.07233424820296],[31.109685496056773,-9.826145945070431],[31.1796,-9.5472],[31.4892,-9.0135],[31.7916,-8.658],[32.2461,-8.6301],[33.1029,-8.1711],[33.22390081953577,-8.07539215576301],[33.262978327969506,-8.005703932389512],[33.26558349519843,-7.905404994076251],[33.1317,-7.1766],[33.2217,-6.642],[33.4863,-6.2163],[33.51828471640326,-6.045966884437551],[33.58080872989724,-5.905287854076094],[33.6717,-5.7888],[33.80745827881292,-5.665612469015834],[33.85435128893341,-5.57443161600378],[33.872587459535815,-5.493671431907386],[33.6429,-5.0436],[33.62770174001773,-4.964822484437466],[33.557852304423065,-4.901580104972291],[33.48962787688519,-4.858010628051915],[32.7717,-4.5684],[32.3577,-4.1886]]}},{"type":"Feature","properties":{"id":30,"group":"roads","name":"Chatunkut Connector"},"geometry":{"type":"LineString","coordinates":[[36.67,-17.78],[36.667125,-17.8105359375],[36.66137500000001,-17.871607812500002],[36.652750000000005,-17.963215625],[36.64125000000001,-18.085359375000003],[36.626875000000005,-18.2380390625],[36.609625,-18.421254687500003],[36.5895,-18.635006250000004],[36.5665,-18.879293750000002],[36.54598125,-19.108078125000002],[36.52794375,-19.321359375],[36.512387499999996,-19.5191375],[36.499312499999995,-19.7014125],[36.48871875,-19.868184375],[36.480606249999994,-20.019453125],[36.47497499999999,-20.15521875],[36.471825,-20.275481250000002],[36.46093125,-20.3927984375],[36.44229375,-20.5071703125],[36.4159125,-20.618596875],[36.381787499999994,-20.727078125000002],[36.339918749999995,-20.8326140625],[36.29030624999999,-20.9352046875],[36.232949999999995,-21.03485],[36.16785,-21.131549999999997],[36.110887500000004,-21.216162499999996],[36.07961396010444,-21.26261643714133],[36.07716662875623,-21.266186671775188],[36.07468225053541,-21.269685665198747],[36.072163042563524,-21.273115863670213],[36.06961122196207,-21.27647971344779],[36.06702900585267,-21.2797796607897],[36.0644186113568,-21.283018151954128],[36.06178225559601,-21.286197633199286],[36.059122155691874,-21.289320550783398],[36.056440528765904,-21.292389350964648],[36.053739591939674,-21.295406480001258],[36.05102156233469,-21.298374384151426],[36.048288657072504,-21.301295509673363],[36.045543093274695,-21.304172302825283],[36.042787088062745,-21.307007209865372],[36.04002285855824,-21.309802677051852],[36.03725262188269,-21.312561150642928],[36.03447859515769,-21.315285076896814],[36.031702995504716,-21.317976902071695],[36.02892804004535,-21.320639072425802],[36.026155945901145,-21.32327403421733],[36.023388930193605,-21.325884233704485],[36.02062921004429,-21.328472117145473],[36.017879002574766,-21.33104013079851],[36.01514052490653,-21.33359072092179],[36.01241599416116,-21.336126333773528],[36.00970762746017,-21.338649415611933],[36.007017641925145,-21.34116241269521],[36.00434825467757,-21.343667771281552],[36.00170168283904,-21.346167937629183],[35.99908014353106,-21.3486653579963],[35.99648585387519,-21.35116247864111],[35.99392103099297,-21.35366174582183],[35.99138789200594,-21.35616560579667],[35.988888654035655,-21.35867650482382],[35.986425534203626,-21.361196889161487],[35.98400074963143,-21.363729205067884],[35.98161651744058,-21.36627589880122],[35.979275054752634,-21.3688394166197],[35.976978578689135,-21.37142220478153],[35.97472930637163,-21.374026709544925],[35.97252945492165,-21.376655377168078],[35.97038124146073,-21.3793106539092],[35.96828688311044,-21.381994986026506],[35.96624859699229,-21.38471081977819],[35.96426860022784,-21.38746060142246],[35.96234910993863,-21.390246777217538],[35.96049234324621,-21.393071793421623],[35.9587005172721,-21.395938096292912],[35.95697584913786,-21.39884813208962],[35.95532055596504,-21.40180434706995],[35.95373685487516,-21.40480918749212],[35.952226962989776,-21.407865099614323],[35.95079309743042,-21.41097452969477],[35.949437475318646,-21.414139923991673],[35.948162313775995,-21.417363728763235],[35.946969829924,-21.420648390267658],[35.94586224088422,-21.42399635476315],[35.94484176377818,-21.427410068507925],[35.94391061572742,-21.43089197776019],[35.9430710138535,-21.434444528778144],[35.942325175277944,-21.438070167819994],[35.941675317122304,-21.441771341143955],[35.941123656508125,-21.445550495008224],[35.94067241055694,-21.449410075671018],[35.9403237963903,-21.453352529390532],[35.940080031129746,-21.457380302424987],[35.939943331896814,-21.461495841032573],[35.939915915813046,-21.465701591471507],[35.94,-21.47],[35.940193897492875,-21.474294856201382],[35.940493073656064,-21.478490041777686],[35.940895474104906,-21.482588141165166],[35.94139904445467,-21.486591738800048],[35.94200173032074,-21.49050341911861],[35.94270147731838,-21.494325766557075],[35.94349623106291,-21.4980613655517],[35.944383937169654,-21.501712800538726],[35.94536254125392,-21.505282655954396],[35.946429988931044,-21.508773516234974],[35.947584225816314,-21.51218796581669],[35.94882319752506,-21.515528589135794],[35.950144849672604,-21.518797970628544],[35.95154712787422,-21.52199869473117],[35.953027977745286,-21.525133345879922],[35.95458534490107,-21.528204508511056],[35.956217174956905,-21.531214767060813],[35.95792141352809,-21.534166705965433],[35.95969600622996,-21.537062909661174],[35.96153889867784,-21.53990596258428],[35.963448036486994,-21.54269844917099],[35.96542136527278,-21.54544295385756],[35.96745683065052,-21.548142061080238],[35.9695523782355,-21.550798355275255],[35.97170595364304,-21.553414420878873],[35.973915502488474,-21.55599284232734],[35.97617897038711,-21.55853620405689],[35.978494302954246,-21.561047090503774],[35.9808594458052,-21.563528086104238],[35.98327234455531,-21.56598177529454],[35.98573094481987,-21.568410742510903],[35.988233192214196,-21.570817572189597],[35.99077703235363,-21.573204848766864],[35.993360410853455,-21.575575156678948],[35.99598127332898,-21.577931080362085],[35.998637565395555,-21.580275204252537],[36.001327232668466,-21.582610112786544],[36.00404822076304,-21.58493839040035],[36.00679847529459,-21.5872626215302],[36.00957594187844,-21.589585390612353],[36.01237856612988,-21.591909282083048],[36.015204293664254,-21.594236880378528],[36.01805107009687,-21.596570769935045],[36.02091684104302,-21.598913535188842],[36.023799552118035,-21.601267760576164],[36.026697148937245,-21.603636030533266],[36.02960757711595,-21.606020929496392],[36.03252878226945,-21.608425041901782],[36.03545871001309,-21.610850952185686],[36.03839530596217,-21.613301244784353],[36.041336515732,-21.615778504134028],[36.044280284937905,-21.618285314670963],[36.047224559195186,-21.62082426083139],[36.05016728411918,-21.62339792705157],[36.05310640532518,-21.62600889776774],[36.05603986842851,-21.628659757416155],[36.05896561904449,-21.63135309043306],[36.06188160278843,-21.634091481254693],[36.064785765275644,-21.63687751431731],[36.06767605212145,-21.639713774057153],[36.07055040894116,-21.64260284491047],[36.07340678135009,-21.64554731131351],[36.07624311496355,-21.64854975770252],[36.07905735539687,-21.65161276851374],[36.08184744826535,-21.65473892818342],[36.084611339184306,-21.657930821147808],[36.087346973769066,-21.661191031843153],[36.09005229763493,-21.664522144705693],[36.092725256397216,-21.667926744171684],[36.16078125,-21.756124999999997],[36.24909375,-21.870575],[36.352125,-22.0041],[36.469874999999995,-22.1567],[36.559574999999995,-22.3096875],[36.621224999999995,-22.463062500000003],[36.654824999999995,-22.616825000000002],[36.660374999999995,-22.770975],[36.637874999999994,-22.9255125],[36.58732499999999,-23.080437500000002],[36.50872499999999,-23.235750000000003],[36.402075,-23.39145],[36.29507343750001,-23.541159375],[36.187720312500005,-23.684878125],[36.080015625,-23.82260625],[35.971959375,-23.95434375],[35.86355156249999,-24.080090625],[35.7547921875,-24.199846875],[35.645681249999996,-24.313612499999998],[35.53621875,-24.4213875],[35.4334359375,-24.5221453125],[35.3373328125,-24.6158859375],[35.247909375000006,-24.702609375],[35.165165625,-24.782315625000003],[35.089101562500005,-24.855004687500003],[35.0197171875,-24.920676562500002],[34.9570125,-24.97933125],[34.90098750000001,-25.03096875],[34.84520156250001,-25.082521874999998],[34.789654687500004,-25.133990625],[34.734346875,-25.185375],[34.679278124999996,-25.236674999999995],[34.62444843749999,-25.287890624999996],[34.56985781249999,-25.339021875],[34.515506249999994,-25.390068749999998],[34.461393750000006,-25.44103125],[34.41322968750001,-25.498209375000002],[34.3710140625,-25.561603124999998],[34.334746875,-25.631212499999997],[34.304428125,-25.7070375],[34.280057812500004,-25.789078124999996],[34.2616359375,-25.877334374999997],[34.2491625,-25.97180625],[34.2426375,-26.07249375],[34.242215625,-26.1687234375],[34.247896874999995,-26.2604953125],[34.25968125,-26.347809375],[34.27756875,-26.430665625],[34.301559375,-26.5090640625],[34.331653125,-26.5830046875],[34.36785,-26.6524875],[34.410149999999994,-26.7175125],[34.457990624999994,-26.7813],[34.511371874999995,-26.843850000000003],[34.57029375,-26.905162500000003],[34.634756249999995,-26.9652375],[34.704759374999995,-27.024075000000003],[34.780303124999996,-27.081674999999997],[34.86138749999999,-27.1380375],[34.948012500000004,-27.1931625],[35.0377453125,-27.2514234375],[35.1305859375,-27.3128203125],[35.226534375,-27.377353125],[35.325590625,-27.445021875],[35.4277546875,-27.515826562499996],[35.5330265625,-27.5897671875],[35.641406249999996,-27.666843749999998],[35.75289375,-27.74705625],[35.86412812499999,-27.820898437500002],[35.975109375,-27.8883703125],[36.0858375,-27.949471875],[36.1963125,-28.004203125],[36.306534375,-28.0525640625],[36.41650312499999,-28.094554687500004],[36.52621875,-28.130175],[36.63568125,-28.159425000000002],[36.73321875,-28.197604687500004],[36.81883125,-28.2447140625],[36.89251875,-28.300753125000004],[36.95428125,-28.365721875000002],[37.00411875,-28.4396203125],[37.04203125,-28.5224484375],[37.06801875,-28.61420625],[37.08208125,-28.714893749999998],[37.08950625,-28.818703125],[37.09029375,-28.925634374999998],[37.08444375,-29.035687499999998],[37.07195625,-29.1488625],[37.05283125,-29.265159375],[37.02706875,-29.384578124999997],[36.99466875,-29.507118749999997],[36.955631249999996,-29.63278125],[36.9214734375,-29.7427359375],[36.8921953125,-29.836982812500004],[36.867796874999996,-29.915521875000003],[36.84827812500001,-29.978353125],[36.833639062500005,-30.025476562500003],[36.8238796875,-30.056892187500004],[36.819,-30.0726],[36.81365625,-30.0816421875],[36.802968750000005,-30.099726562500003],[36.7869375,-30.126853125000004],[36.7655625,-30.163021875],[36.73884375,-30.2082328125],[36.70678125,-30.2624859375],[36.669375,-30.32578125],[36.626625,-30.398118750000002],[36.5805984375,-30.467840625],[36.53129531249999,-30.534946875],[36.47871562499999,-30.5994375],[36.422859375,-30.6613125],[36.3637265625,-30.720571875],[36.3013171875,-30.777215625],[36.23563125,-30.83124375],[36.16666875,-30.88265625],[36.1063265625,-30.9276421875],[36.0546046875,-30.9662015625],[36.011503125000004,-30.998334375],[35.977021875000005,-31.024040624999998],[35.951160937500006,-31.0433203125],[35.93392031250001,-31.0561734375],[35.9253,-31.0626],[35.909578125,-31.0712203125],[35.878134375,-31.0884609375],[35.830968750000004,-31.114321874999998],[35.76808125,-31.148803125],[35.689471875,-31.1919046875],[35.595140625,-31.2436265625],[35.4850875,-31.303968750000003],[35.3593125,-31.37293125],[35.2373625,-31.4437921875],[35.1192375,-31.5165515625],[35.0049375,-31.591209375000002],[34.8944625,-31.667765625],[34.7878125,-31.7462203125],[34.6849875,-31.826573437500006],[34.5859875,-31.908825000000007],[34.4908125,-31.992975],[34.3926421875,-32.08466250000001],[34.291476562499994,-32.183887500000004],[34.187315625,-32.29065000000001],[34.080159375,-32.40495000000001],[33.9700078125,-32.526787500000005],[33.856860937499995,-32.65616250000001],[33.74071875,-32.793075],[33.62158125,-32.93752500000001],[33.519451562499995,-33.0749640625],[33.4343296875,-33.2053921875],[33.366215624999995,-33.328809375],[33.315109375000006,-33.445215625],[33.2810109375,-33.5546109375],[33.263920312500005,-33.6569953125],[33.2638375,-33.75236875],[33.2807625,-33.84073125],[33.295571875,-33.9180484375],[33.308265625000004,-33.9843203125],[33.31884375,-34.039546875],[33.32730625000001,-34.083728125],[33.333653125000005,-34.1168640625],[33.337884375,-34.1389546875],[33.34,-34.15],[33.328490625,-34.1626640625],[33.30547187500001,-34.187992187499994],[33.27094375,-34.225984374999996],[33.224906250000004,-34.276640625],[33.167359375,-34.3399609375],[33.098303125,-34.4159453125],[33.0177375,-34.504593750000005],[32.9256625,-34.60590625],[32.8275609375,-34.696003125],[32.7234328125,-34.774884375000006],[32.613278125,-34.84255],[32.497096875000004,-34.89900000000001],[32.3748890625,-34.94423437500001],[32.246654687500005,-34.97825312500001],[32.11239375,-35.001056250000005],[31.972106250000003,-35.012643749999995],[31.841993750000007,-35.0235140625],[31.72205625,-35.033667187499994],[31.612293750000003,-35.043103124999995],[31.51270625,-35.051821874999995],[31.423293750000003,-35.05982343749999],[31.34405625,-35.0671078125],[31.27499375,-35.073674999999994],[31.216106250000003,-35.079525000000004],[31.1645796875,-35.084643750000005],[31.1204140625,-35.08903125],[31.083609375,-35.0926875],[31.054165625,-35.0956125],[31.0320828125,-35.097806250000005],[31.0173609375,-35.09926875000001],[31.01,-35.1],[31.01135625,-35.109028125],[31.014068750000003,-35.127084375],[31.0181375,-35.154168750000004],[31.023562500000004,-35.19028125],[31.030343750000004,-35.235421875],[31.03848125,-35.289590625],[31.047975,-35.352787500000005],[31.058825000000002,-35.425012499999994],[31.0704421875,-35.497546875],[31.0828265625,-35.570390625],[31.095978125,-35.64354375],[31.109896875000004,-35.71700625],[31.1245828125,-35.790778125],[31.1400359375,-35.864859374999995],[31.15625625,-35.93925],[31.173243750000005,-36.013949999999994],[31.190667187500004,-36.102023437499994],[31.208526562500005,-36.2034703125],[31.226821875000006,-36.318290625],[31.245553125,-36.446484375],[31.264720312500003,-36.5880515625],[31.2843234375,-36.7429921875],[31.3043625,-36.91130625],[31.3248375,-37.09299375],[31.358587500000002,-37.278084375],[31.405612500000004,-37.466578125000005],[31.4659125,-37.658475],[31.5394875,-37.853775],[31.626337499999998,-38.052478125],[31.726462500000004,-38.254584375],[31.839862500000002,-38.46009375],[31.9665375,-38.66900625],[32.09765625,-38.8560375],[32.233218750000006,-39.0211875],[32.373225000000005,-39.16445625],[32.51767500000001,-39.28584375],[32.66656875000001,-39.385349999999995],[32.81990625,-39.462975],[32.9776875,-39.51871875],[33.13991250000001,-39.55258125],[33.300253125000005,-39.5832796875],[33.458709375000005,-39.6108140625],[33.61528125000001,-39.635184374999994],[33.769968750000004,-39.656390625],[33.922771875,-39.6744328125],[34.073690625,-39.6893109375],[34.222725000000004,-39.701025],[34.369875,-39.709575],[34.517151562500004,-39.71806875],[34.66455468750001,-39.72650625000001],[34.812084375000005,-39.734887500000006],[34.959740625,-39.743212500000006],[35.1075234375,-39.751481250000005],[35.2554328125,-39.759693750000004],[35.40346875,-39.76785],[35.55163125,-39.77595],[35.6812734375,-39.7830375],[35.792395312500005,-39.7891125],[35.884996875,-39.794175],[35.959078125000005,-39.798224999999995],[36.0146390625,-39.80126249999999],[36.0516796875,-39.803287499999996],[36.0702,-39.8043]]}},{"type":"Feature","properties":{"id":32,"group":"roads","name":"Saple Town Connector"},"geometry":{"type":"LineString","coordinates":[[36.0702,-39.8043],[36.0765,-39.1077],[36.4653,-38.7126],[36.9873,-38.8323],[37.3095,-39.2949],[37.5237,-39.8646],[37.7784,-40.4469],[38.3409,-41.0031],[39.051,-41.7069],[39.4794,-42.2091],[39.654,-42.6978],[39.627,-43.2477],[39.6135,-43.6293],[39.8484,-43.8633],[40.1499,-43.9776],[40.4577,-44.3124],[40.5585,-44.6679],[40.5513,-45.2367],[40.5918,-45.5985],[40.9869,-46.1079],[41.3217,-46.5228],[41.8041,-46.7172],[42.1659,-46.9386],[42.588,-47.4741],[42.9093,-47.4408],[43.452,-46.9656],[43.8804,-46.8243],[44.6985,-46.9854],[45.522,-47.3472],[46.098,-47.7558],[46.7145,-48.0501],[47.2023,-48.2472],[47.7243,-48.564],[48.4443,-49.2336]]}},{"type":"Feature","properties":{"id":33,"group":"roads","name":"Rangy Connector"},"geometry":{"type":"LineString","coordinates":[[31.53591030450851,-10.431500033677676],[31.537166979592122,-10.431450444848288],[31.538642562592877,-10.431511503455216],[31.540871201745738,-10.431806620055367],[32.1489,-10.5633],[33.4773,-11.0259],[33.9552,-10.3536],[34.6896,-10.3644],[35.2152,-10.7793],[35.9505,-10.7685],[36.2493,-11.1726],[36.2493,-11.8026],[36.7641,-12.0969],[37.2627,-12.3642],[37.4571,-12.6747],[38.0448,-12.9159],[38.3391,-13.4514],[38.7063,-13.8447],[39.4884,-13.8132],[40.0032,-14.0337],[40.203,-14.5017],[40.1085,-14.9265],[39.6828,-15.2622],[39.4731,-15.7356],[39.2679,-16.1658],[39.0321,-16.7589],[38.4075,-16.8849],[37.9395,-17.0685],[37.2312,-17.0793],[36.67,-17.78]]}},{"type":"Feature","properties":{"id":35,"group":"roads","name":"Everlust Highway"},"geometry":{"type":"LineString","coordinates":[[-11.967106649687157,28.73848621456647],[-11.902956940384843,28.590448423868835],[-11.881573703950739,28.468728462628555],[-11.855255874493384,28.37332633084564],[-11.847031552787957,28.291083113791387],[-11.83058290937711,28.055867513016242],[-11.871704517904233,27.71867032309385],[-11.889798025656168,27.48016499363654],[-11.909536397749186,27.259753171931163],[-11.939143955888714,27.052500264954467],[-12.050994731082486,26.863340865729704],[-12.200677386121212,26.69391983859796],[-12.348715176818853,26.578779334722014],[-12.477014595423471,26.392909664179424],[-12.628342114803282,26.253096195187208],[-12.689202095423424,26.185656757202725],[-12.768155583795497,26.128086505264754],[-12.853688529531913,26.075450846350037],[-12.947445796973751,26.032684373481832],[-13.102063045035733,26.009656272706643],[-13.189240855113232,26.001431951001216],[-13.330699188446538,25.983338443249288],[-13.580718568291443,25.98498330759037],[-13.85870064193479,26.045843288210513],[-13.965616824105307,26.14124541999344],[-14.286365370616862,26.351788055652296],[-14.65152525433771,26.707078753326634],[-14.822591145810538,26.802480885109556],[-15.003526223329878,26.822219257202573],[-15.210779130306577,26.769583598287856],[-15.429546087670866,26.651153365729744],[-15.6762757388336,26.438965865729802],[-15.868724866740532,26.231712958753103],[-15.932874576042844,26.10505840448957],[-16.061173994647465,25.957020613791926],[-16.199342599298593,25.818852009140787],[-16.324352289221046,25.64449638898579],[-16.469100351236516,25.489879140923808],[-16.6275,25.3656],[-16.853998607050382,25.10827061379211],[-17.117176901623964,24.874699877358058],[-17.5617,24.3342],[-18.7191,23.7735],[-20.6802,22.5756],[-21.3165,22.0356],[-21.4983,21.6315],[-21.852741339607377,21.303699392862754],[-21.92758266712674,21.2387272513899],[-21.970349139994944,21.20089537154495],[-21.9987,21.1464],[-22.015582909374782,21.04792298782405],[-22.023807231080205,20.941006805653537],[-22.02298479890967,20.808595226196218],[-22.046012899684854,20.629305013017966],[-22.013115612863157,20.519099102165278],[-22.004891291157733,20.407248326971505],[-21.860143229142263,20.234537571157592],[-21.800928112863204,20.10130355952971],[-21.7107,19.9836],[-21.63479681441363,19.831545807591787],[-21.6351,19.6353],[-21.746647589607402,19.4927037533283],[-22.019695070227495,19.33150704790198],[-22.14799448883212,19.25090869518882],[-22.19898528340575,19.130833598289623],[-22.197340419064666,18.902197454878824],[-22.1805,18.1494],[-22.2363,17.6337],[-22.9887,16.6131],[-22.9815,16.1703],[-22.7565,15.7491],[-22.5801,14.7636],[-22.4082,14.2686],[-22.3776,13.6269],[-22.302,12.9141],[-22.3425,12.1716],[-22.239597563836014,11.938487010733683],[-22.084523280786325,11.789356483099064]]}},{"type":"Feature","properties":{"id":36,"group":"roads","name":"Barrel Road"},"geometry":{"type":"LineString","coordinates":[[-4.2453,-29.3535],[-3.2274,-28.9827],[-2.457,-28.2087],[-1.5282,-27.1395],[-0.486,-26.541],[0.0657,-26.1468]]}},{"type":"Feature","properties":{"id":38,"group":"roads","name":"Port Moa Connector"},"geometry":{"type":"LineString","coordinates":[[-45.87,15.7],[-45.4941,15.4548],[-45.0081,14.9805],[-44.7,14.4]]}},{"type":"Feature","properties":{"id":39,"group":"roads","name":"Three Sisters Connector"},"geometry":{"type":"LineString","coordinates":[[-41.0715,-12.7062],[-41.1345,-13.1292],[-42.177453222168374,-13.989160074368899],[-42.19592132594216,-14.003406897280103],[-42.20937665869163,-14.008683498358327],[-42.218874540632434,-14.010794138789617],[-42.232395830895385,-14.011387756410917]]}},{"type":"Feature","properties":{"id":40,"group":"roads","name":"Unnamed route segment"},"geometry":{"type":"LineString","coordinates":[[-24.15,-9.54],[-24.16925057814245,-9.501662320359603],[-24.250774064801007,-9.405496265708976],[-25.2414,-7.884],[-25.8867,-7.6788],[-26.5779,-7.8309],[-26.910793222991664,-8.351199778157344],[-26.922317190705822,-8.510057062734399],[-26.9476448758813,-8.583929477829534],[-27.05001093679884,-8.640916769474352],[-27.3222,-8.7039],[-27.9972,-8.8101],[-28.9098,-9.4104],[-28.962,-11.1276],[-29.2851,-12.5532],[-30.4704,-13.9725],[-31.837684714120662,-14.978923850830489]]}},{"type":"Feature","properties":{"id":42,"group":"roads","name":"Whitlean Connector"},"geometry":{"type":"LineString","coordinates":[[-31.837684714120662,-14.978923850830489],[-32.1003,-15.3954],[-32.2317,-15.4719],[-32.7159,-15.7419],[-32.9166,-15.8868],[-33.0552,-16.1082],[-33.0687,-16.3368],[-33.021,-16.5168],[-33.0831,-16.821],[-33.2559,-17.1396],[-33.318,-17.2917],[-33.4494,-17.5338],[-33.588,-17.7489],[-33.7608,-17.8596],[-33.9894,-17.9703],[-34.2801,-18.1773],[-34.3629,-18.3924],[-34.3566,-18.5301],[-34.308,-18.7173],[-34.245,-18.9387],[-34.2243,-19.1601],[-34.2108,-19.2987],[-34.1829,-19.4229],[-34.1901,-19.5615],[-34.16,-19.82]]}},{"type":"Feature","properties":{"id":43,"group":"roads","name":"Thetbury Road"},"geometry":{"type":"LineString","coordinates":[[-33.47,-26.39],[-33.2478,-26.388],[-32.9607,-26.3754],[-32.7438,-26.3754],[-32.5593,-26.5023],[-32.4954,-26.6553],[-32.3748,-26.7894],[-32.2155,-26.8848],[-32.0436,-26.9037],[-31.8969,-26.8911],[-31.77,-26.8596],[-31.6548,-26.7768],[-31.5783,-26.7129],[-31.47,-26.52]]}},{"type":"Feature","properties":{"id":44,"group":"roads","name":"Unnamed route"},"geometry":{"type":"LineString","coordinates":[[35.6499,11.8926],[35.4321,11.6883],[35.2809,11.5776],[35.2197,11.385],[35.19,11.2032],[35.0883,11.0412],[34.9875,10.8693],[35.0784,10.6677],[35.0586,10.4553],[34.9569,10.2528],[34.8867,10.0818],[34.9173,9.9504],[34.695,9.9099],[34.5636,9.819],[34.452,9.7074],[34.3611,9.6066],[34.2324,9.3492]]}},{"type":"Feature","properties":{"id":46,"group":"roads","name":"Obsidian road"},"geometry":{"type":"LineString","coordinates":[[54.8307,11.34],[54.0594,10.5858],[53.1117,9.6795],[51.1002,8.4807],[48.8088,7.4241],[46.62,5.9859],[44.5563,5.2362],[43.4313,3.9852],[41.6763,2.2428],[39.5955,1.2663],[38.1096,-0.0072],[36.1575,-2.2572],[34.7985,-3.1068],[33.6951,-3.6585],[32.3577,-4.1886],[31.9356,-3.8655],[31.3884,-3.6072],[30.9672,-3.4605]]}},{"type":"Feature","properties":{"id":49,"group":"roads","name":"The Shaky Sable road"},"geometry":{"type":"LineString","coordinates":[[-44.94,-3.37],[-45.5094,-3.9672],[-45.5733,-4.6701],[-45.4671,-5.5224],[-45.5094,-6.354],[-46.0854,-7.0578],[-47.0925,-7.5483],[-46.2339,-8.1873],[-45.6588,-8.6346],[-44.721,-9.1674],[-44.4015,-9.8496],[-44.2728,-10.5111],[-43.9317,-11.3211],[-43.3782,-12.0024],[-42.9732,-12.7269],[-42.9948,-13.1733],[-42.28496396913719,-13.988764329288033],[-42.27045331617207,-14.00235157706446],[-42.25620649326087,-14.007496263115726],[-42.24472988591573,-14.010266478681794],[-42.232395830895385,-14.011387756410917]]}},{"type":"Feature","properties":{"id":50,"group":"roads","name":"Dudbury route"},"geometry":{"type":"LineString","coordinates":[[-31.393837512132183,-6.320399521487117],[-32.1516,-6.606],[-32.4963,-6.8913],[-32.7222,-7.2819],[-32.9616,-7.6122],[-33.273,-7.8894],[-33.6915,-8.1324],[-34.1928,-8.4672],[-34.623,-8.8164],[-35.262,-8.8749],[-35.604,-9.0594],[-35.577,-9.5544]]}},{"type":"Feature","properties":{"id":51,"group":"roads","name":"Lunar road"},"geometry":{"type":"LineString","coordinates":[[-41.1345,-13.1292],[-40.8645,-13.7088],[-40.0338,-14.2173],[-39.24,-15.003],[-38.7306,-15.6546],[-37.8387,-15.8688],[-37.7136,-15.3774],[-37.5885,-15.021],[-37.5174,-14.5566],[-37.2402,-14.1282],[-37.071,-13.7799],[-37.071,-13.3695],[-36.7848,-12.8961],[-36.3564,-12.7089],[-35.982,-12.5487],[-35.6427,-12.1293],[-35.5446,-11.6379],[-35.6517,-11.0403],[-35.7408,-10.6209],[-35.7228,-10.2006],[-35.6157,-9.8622],[-35.577,-9.5544]]}},{"type":"Feature","properties":{"id":54,"group":"roads","name":"Clitham-Dima Eta Connector"},"geometry":{"type":"LineString","coordinates":[[-55.1511,-3.3984],[-55.7604,-4.0041],[-56.3139,-4.2453],[-56.6514,-4.4379],[-56.7477,-4.7988],[-57.1329,-5.184],[-57.6387,-5.2083],[-58.2408,-5.5215],[-58.5054,-6.0993],[-58.6017,-6.7014],[-58.626,-7.2315],[-59.4207,-7.7616],[-59.7816,-8.1225],[-60.1668,-8.532],[-60.6006,-8.7246],[-60.9624,-8.7489],[-61.5159,-9.1341],[-61.7085,-9.5193],[-61.7328,-9.9765],[-62.046,-10.3383],[-62.3349,-10.5552],[-62.4069,-10.9638],[-62.5995,-11.3499],[-62.6697,-12.2382],[-62.5995,-12.7701],[-62.4996,-13.4937],[-62.5275,-14.1435],[-62.8641,-14.769],[-62.8407,-15.3711],[-63.1773,-16.1658],[-63.3942,-16.5033],[-64.14887092379998,-17.505473675725145]]}},{"type":"Feature","properties":{"id":55,"group":"roads","name":"Mystic highway"},"geometry":{"type":"LineString","coordinates":[[-34.16,-19.82],[-34.1856,-20.8368],[-33.9048,-21.5577],[-34.2657,-22.3587],[-34.8066,-22.5387],[-35.2071,-22.8591],[-35.3268,-23.5602],[-35.307,-24.4017],[-35.2872,-25.1262],[-35.2269,-25.8903],[-35.23718516977104,-26.050006706858493],[-35.229797928261526,-26.114381240012825],[-35.19497236114525,-26.181921733814093],[-35.12743186734398,-26.21463666049908],[-35.03456368836724,-26.217802621146014],[-34.7643,-26.2125],[-34.3413,-26.2521],[-34.02,-26.3124],[-33.47,-26.39]]}},{"type":"Feature","properties":{"id":56,"group":"roads","name":"Samariland Road"},"geometry":{"type":"LineString","coordinates":[[-24.15,-9.54],[-24.144186723020887,-9.576062395562563],[-24.163710147010313,-9.657717797248079],[-24.444,-10.8063],[-24.444,-11.295],[-24.5448,-12.1716],[-24.849,-12.5595],[-25.3881,-12.9474],[-25.641,-13.6395],[-25.9956,-15.0894],[-26.1306,-15.9156],[-25.9785,-16.2873],[-25.641,-16.641],[-25.4556,-16.9956],[-25.4556,-17.5347],[-25.4727,-18.1926],[-25.4223,-18.9513],[-25.7598,-19.5246],[-26.2989,-19.7271],[-27.0072,-19.98],[-27.3105,-20.25],[-27.4122,-20.925],[-27.4968,-21.4137],[-27.5643,-21.8016],[-27.648,-22.5432],[-27.8172,-23.1174],[-28.1034,-23.3703],[-28.4067,-23.6061],[-28.6767,-23.8932],[-29.4867,-24.2136],[-29.8575,-24.2973],[-30.1104,-24.6519],[-30.2625,-25.0902],[-30.3462,-25.6302],[-30.4137,-25.9164],[-30.7854,-26.0343],[-31.47,-26.52]]}}]}
